"Pincode","State","District","Hospitalized","Deceased","Recovered"
533274,"AP","East Godavari",11,0,0
533238,"AP","East Godavari",11,0,0
533248,"AP","East Godavari",11,0,0
533222,"AP","East Godavari",11,0,0
517128,"AP","Chittoor",17,0,0
517280,"AP","Chittoor",17,0,0
533229,"AP","East Godavari",11,0,0
517403,"AP","Chittoor",17,0,0
517257,"AP","Chittoor",17,0,0
517390,"AP","Chittoor",17,0,0
533217,"AP","East Godavari",11,0,0
517423,"AP","Chittoor",17,0,0
533274,"AP","East Godavari",11,0,0
533222,"AP","East Godavari",11,0,0
533235,"AP","East Godavari",11,0,0
533213,"AP","East Godavari",11,0,0
533220,"AP","East Godavari",11,0,0
533212,"AP","East Godavari",11,0,0
533218,"AP","East Godavari",11,0,0
533248,"AP","East Godavari",11,0,0
533221,"AP","East Godavari",11,0,0
517123,"AP","Chittoor",17,0,0
517408,"AP","Chittoor",17,0,0
517370,"AP","Chittoor",17,0,0
533216,"AP","East Godavari",11,0,0
533253,"AP","East Godavari",11,0,0
521133,"AP","Krishna",28,0,0
521122,"AP","Krishna",28,0,0
533236,"AP","East Godavari",11,0,0
533251,"AP","East Godavari",11,0,0
533229,"AP","East Godavari",11,0,0
533214,"AP","East Godavari",11,0,0
533238,"AP","East Godavari",11,0,0
533214,"AP","East Godavari",11,0,0
533213,"AP","East Godavari",11,0,0
533577,"AP","East Godavari",11,0,0
533244,"AP","East Godavari",11,0,0
533253,"AP","East Godavari",11,0,0
533247,"AP","East Godavari",11,0,0
533249,"AP","East Godavari",11,0,0
533254,"AP","East Godavari",11,0,0
517257,"AP","Chittoor",17,0,0
533218,"AP","East Godavari",11,0,0
533247,"AP","East Godavari",11,0,0
517429,"AP","Chittoor",17,0,0
533228,"AP","East Godavari",11,0,0
533211,"AP","East Godavari",11,0,0
533222,"AP","East Godavari",11,0,0
533220,"AP","East Godavari",11,0,0
533248,"AP","East Godavari",11,0,0
533577,"AP","East Godavari",11,0,0
533216,"AP","East Godavari",11,0,0
517127,"AP","Chittoor",17,0,0
533217,"AP","East Godavari",11,0,0
533238,"AP","East Godavari",11,0,0
533216,"AP","East Godavari",11,0,0
533235,"AP","East Godavari",11,0,0
533239,"AP","East Godavari",11,0,0
533211,"AP","East Godavari",11,0,0
533250,"AP","East Godavari",11,0,0
533252,"AP","East Godavari",11,0,0
533223,"AP","East Godavari",11,0,0
533253,"AP","East Godavari",11,0,0
533252,"AP","East Godavari",11,0,0
533216,"AP","East Godavari",11,0,0
533235,"AP","East Godavari",11,0,0
533247,"AP","East Godavari",11,0,0
533252,"AP","East Godavari",11,0,0
533235,"AP","East Godavari",11,0,0
533242,"AP","East Godavari",11,0,0
533247,"AP","East Godavari",11,0,0
533211,"AP","East Godavari",11,0,0
533248,"AP","East Godavari",11,0,0
533212,"AP","East Godavari",11,0,0
533251,"AP","East Godavari",11,0,0
533218,"AP","East Godavari",11,0,0
533254,"AP","East Godavari",11,0,0
533221,"AP","East Godavari",11,0,0
533211,"AP","East Godavari",11,0,0
533247,"AP","East Godavari",11,0,0
517390,"AP","Chittoor",17,0,0
533252,"AP","East Godavari",11,0,0
533228,"AP","East Godavari",11,0,0
533240,"AP","East Godavari",11,0,0
533221,"AP","East Godavari",11,0,0
533274,"AP","East Godavari",11,0,0
533210,"AP","East Godavari",11,0,0
533249,"AP","East Godavari",11,0,0
533212,"AP","East Godavari",11,0,0
533228,"AP","East Godavari",11,0,0
533239,"AP","East Godavari",11,0,0
533247,"AP","East Godavari",11,0,0
533229,"AP","East Godavari",11,0,0
533249,"AP","East Godavari",11,0,0
533217,"AP","East Godavari",11,0,0
533220,"AP","East Godavari",11,0,0
533210,"AP","East Godavari",11,0,0
533249,"AP","East Godavari",11,0,0
533241,"AP","East Godavari",11,0,0
533201,"AP","East Godavari",11,0,0
533222,"AP","East Godavari",11,0,0
533201,"AP","East Godavari",11,0,0
533577,"AP","East Godavari",11,0,0
533235,"AP","East Godavari",11,0,0
533210,"AP","East Godavari",11,0,0
533217,"AP","East Godavari",11,0,0
533248,"AP","East Godavari",11,0,0
533235,"AP","East Godavari",11,0,0
533214,"AP","East Godavari",11,0,0
533201,"AP","East Godavari",11,0,0
533211,"AP","East Godavari",11,0,0
533236,"AP","East Godavari",11,0,0
533212,"AP","East Godavari",11,0,0
533211,"AP","East Godavari",11,0,0
533221,"AP","East Godavari",11,0,0
533218,"AP","East Godavari",11,0,0
533236,"AP","East Godavari",11,0,0
533244,"AP","East Godavari",11,0,0
533274,"AP","East Godavari",11,0,0
533222,"AP","East Godavari",11,0,0
533214,"AP","East Godavari",11,0,0
533248,"AP","East Godavari",11,0,0
533214,"AP","East Godavari",11,0,0
533212,"AP","East Godavari",11,0,0
533239,"AP","East Godavari",11,0,0
533223,"AP","East Godavari",11,0,0
533250,"AP","East Godavari",11,0,0
533577,"AP","East Godavari",11,0,0
533228,"AP","East Godavari",11,0,0
533213,"AP","East Godavari",11,0,0
533216,"AP","East Godavari",11,0,0
533240,"AP","East Godavari",11,0,0
533216,"AP","East Godavari",11,0,0
533244,"AP","East Godavari",11,0,0
533212,"AP","East Godavari",11,0,0
533229,"AP","East Godavari",11,0,0
533217,"AP","East Godavari",11,0,0
533216,"AP","East Godavari",11,0,0
533212,"AP","East Godavari",11,0,0
533201,"AP","East Godavari",11,0,0
533240,"AP","East Godavari",11,0,0
533214,"AP","East Godavari",11,0,0
533216,"AP","East Godavari",11,0,0
533274,"AP","East Godavari",11,0,0
533237,"AP","East Godavari",11,0,0
533238,"AP","East Godavari",11,0,0
533248,"AP","East Godavari",11,0,0
533216,"AP","East Godavari",11,0,0
533249,"AP","East Godavari",11,0,0
533212,"AP","East Godavari",11,0,0
534315,"AP","East Godavari",11,0,0
533212,"AP","East Godavari",11,0,0
533235,"AP","East Godavari",11,0,0
533247,"AP","East Godavari",11,0,0
533251,"AP","East Godavari",11,0,0
533222,"AP","East Godavari",11,0,0
533274,"AP","East Godavari",11,0,0
533213,"AP","East Godavari",11,0,0
533217,"AP","East Godavari",11,0,0
533220,"AP","East Godavari",11,0,0
533236,"AP","East Godavari",11,0,0
533241,"AP","East Godavari",11,0,0
533252,"AP","East Godavari",11,0,0
522268,"AP","Guntur",30,0,0
522265,"AP","Guntur",30,0,0
517125,"AP","Chittoor",17,0,0
533249,"AP","East Godavari",11,0,0
517403,"AP","Chittoor",17,0,0
517390,"AP","Chittoor",17,0,0
517426,"AP","Chittoor",17,0,0
517424,"AP","Chittoor",17,0,0
517415,"AP","Chittoor",17,0,0
517417,"AP","Chittoor",17,0,0
517425,"AP","Chittoor",17,0,0
533244,"AP","East Godavari",11,0,0
533213,"AP","East Godavari",11,0,0
533237,"AP","East Godavari",11,0,0
517280,"AP","Chittoor",17,0,0
517132,"AP","Chittoor",17,0,0
517401,"AP","Chittoor",17,0,0
517129,"AP","Chittoor",17,0,0
517432,"AP","Chittoor",17,0,0
517127,"AP","Chittoor",17,0,0
517415,"AP","Chittoor",17,0,0
517126,"AP","Chittoor",17,0,0
517167,"AP","Chittoor",17,0,0
517422,"AP","Chittoor",17,0,0
517599,"AP","Chittoor",17,0,0
517401,"AP","Chittoor",17,0,0
517370,"AP","Chittoor",17,0,0
517370,"AP","Chittoor",17,0,0
517247,"AP","Chittoor",17,0,0
517247,"AP","Chittoor",17,0,0
517167,"AP","Chittoor",17,0,0
517401,"AP","Chittoor",17,0,0
517129,"AP","Chittoor",17,0,0
517416,"AP","Chittoor",17,0,0
517257,"AP","Chittoor",17,0,0
517352,"AP","Chittoor",17,0,0
517425,"AP","Chittoor",17,0,0
517247,"AP","Chittoor",17,0,0
533201,"AP","East Godavari",11,0,0
533254,"AP","East Godavari",11,0,0
533244,"AP","East Godavari",11,0,0
533220,"AP","East Godavari",11,0,0
533213,"AP","East Godavari",11,0,0
533215,"AP","East Godavari",11,0,0
533250,"AP","East Godavari",11,0,0
533250,"AP","East Godavari",11,0,0
533247,"AP","East Godavari",11,0,0
533222,"AP","East Godavari",11,0,0
533213,"AP","East Godavari",11,0,0
533251,"AP","East Godavari",11,0,0
517247,"AP","Chittoor",17,0,0
517425,"AP","Chittoor",17,0,0
517326,"AP","Chittoor",17,0,0
517401,"AP","Chittoor",17,0,0
517325,"AP","Chittoor",17,0,0
533237,"AP","East Godavari",11,0,0
533240,"AP","East Godavari",11,0,0
533213,"AP","East Godavari",11,0,0
533252,"AP","East Godavari",11,0,0
533235,"AP","East Godavari",11,0,0
533236,"AP","East Godavari",11,0,0
533244,"AP","East Godavari",11,0,0
533222,"AP","East Godavari",11,0,0
533252,"AP","East Godavari",11,0,0
533201,"AP","East Godavari",11,0,0
533235,"AP","East Godavari",11,0,0
517167,"AP","Chittoor",17,0,0
517124,"AP","Chittoor",17,0,0
517130,"AP","Chittoor",17,0,0
517417,"AP","Chittoor",17,0,0
517422,"AP","Chittoor",17,0,0
517416,"AP","Chittoor",17,0,0
517004,"AP","Chittoor",17,0,0
517417,"AP","Chittoor",17,0,0
517416,"AP","Chittoor",17,0,0
517257,"AP","Chittoor",17,0,0
517416,"AP","Chittoor",17,0,0
517319,"AP","Chittoor",17,0,0
517325,"AP","Chittoor",17,0,0
517257,"AP","Chittoor",17,0,0
521130,"AP","Krishna",28,0,0
521332,"AP","Krishna",28,0,0
521126,"AP","Krishna",28,0,0
521366,"AP","Krishna",28,0,0
521001,"AP","Krishna",28,0,0
521369,"AP","Krishna",28,0,0
521260,"AP","Krishna",28,0,0
521138,"AP","Krishna",28,0,0
521132,"AP","Krishna",28,0,0
521002,"AP","Krishna",28,0,0
521156,"AP","Krishna",28,0,0
521001,"AP","Krishna",28,0,0
521328,"AP","Krishna",28,0,0
521001,"AP","Krishna",28,0,0
534199,"AP","West Godavari",15,0,0
534202,"AP","West Godavari",15,0,0
521157,"AP","Krishna",28,0,0
521150,"AP","Krishna",28,0,0
521331,"AP","Krishna",28,0,0
521150,"AP","Krishna",28,0,0
521120,"AP","Krishna",28,0,0
521131,"AP","Krishna",28,0,0
521125,"AP","Krishna",28,0,0
521136,"AP","Krishna",28,0,0
521331,"AP","Krishna",28,0,0
521149,"AP","Krishna",28,0,0
521132,"AP","Krishna",28,0,0
521120,"AP","Krishna",28,0,0
521130,"AP","Krishna",28,0,0
521132,"AP","Krishna",28,0,0
521125,"AP","Krishna",28,0,0
521332,"AP","Krishna",28,0,0
521366,"AP","Krishna",28,0,0
521138,"AP","Krishna",28,0,0
521002,"AP","Krishna",28,0,0
521369,"AP","Krishna",28,0,0
521136,"AP","Krishna",28,0,0
521328,"AP","Krishna",28,0,0
521328,"AP","Krishna",28,0,0
521132,"AP","Krishna",28,0,0
521122,"AP","Krishna",28,0,0
521157,"AP","Krishna",28,0,0
521120,"AP","Krishna",28,0,0
521328,"AP","Krishna",28,0,0
521149,"AP","Krishna",28,0,0
521120,"AP","Krishna",28,0,0
521158,"AP","Krishna",28,0,0
521149,"AP","Krishna",28,0,0
521331,"AP","Krishna",28,0,0
521132,"AP","Krishna",28,0,0
521156,"AP","Krishna",28,0,0
521133,"AP","Krishna",28,0,0
521001,"AP","Krishna",28,0,0
521356,"AP","Krishna",28,0,0
521120,"AP","Krishna",28,0,0
521122,"AP","Krishna",28,0,0
521366,"AP","Krishna",28,0,0
521366,"AP","Krishna",28,0,0
521226,"AP","Krishna",28,0,0
521331,"AP","Krishna",28,0,0
521002,"AP","Krishna",28,0,0
521001,"AP","Krishna",28,0,0
533220,"AP","East Godavari",11,0,0
533222,"AP","East Godavari",11,0,0
533253,"AP","East Godavari",11,0,0
521156,"AP","Krishna",28,0,0
521120,"AP","Krishna",28,0,0
521369,"AP","Krishna",28,0,0
533238,"AP","East Godavari",11,0,0
521002,"AP","Krishna",28,0,0
521001,"AP","Krishna",28,0,0
521328,"AP","Krishna",28,0,0
521126,"AP","Krishna",28,0,0
521328,"AP","Krishna",28,0,0
521332,"AP","Krishna",28,0,0
521002,"AP","Krishna",28,0,0
518301,"AP","Kurnool",53,0,0
518463,"AP","Kurnool",53,0,0
518390,"AP","Kurnool",53,0,0
517403,"AP","Chittoor",17,0,0
517004,"AP","Chittoor",17,0,0
517167,"AP","Chittoor",17,0,0
517429,"AP","Chittoor",17,0,0
517423,"AP","Chittoor",17,0,0
517417,"AP","Chittoor",17,0,0
517247,"AP","Chittoor",17,0,0
517001,"AP","Chittoor",17,0,0
517257,"AP","Chittoor",17,0,0
517319,"AP","Chittoor",17,0,0
517418,"AP","Chittoor",17,0,0
517421,"AP","Chittoor",17,0,0
518360,"AP","Kurnool",53,0,0
518468,"AP","Kurnool",53,0,0
518225,"AP","Kurnool",53,0,0
518217,"AP","Kurnool",53,0,0
518004,"AP","Kurnool",53,0,0
518467,"AP","Kurnool",53,0,0
518308,"AP","Kurnool",53,0,0
518466,"AP","Kurnool",53,0,0
518302,"AP","Kurnool",53,0,0
518463,"AP","Kurnool",53,0,0
518220,"AP","Kurnool",53,0,0
518348,"AP","Kurnool",53,0,0
518422,"AP","Kurnool",53,0,0
518599,"AP","Kurnool",53,0,0
518004,"AP","Kurnool",53,0,0
518220,"AP","Kurnool",53,0,0
518003,"AP","Kurnool",53,0,0
518412,"AP","Kurnool",53,0,0
518598,"AP","Kurnool",53,0,0
518313,"AP","Kurnool",53,0,0
518225,"AP","Kurnool",53,0,0
518349,"AP","Kurnool",53,0,0
518395,"AP","Kurnool",53,0,0
518347,"AP","Kurnool",53,0,0
518422,"AP","Kurnool",53,0,0
518508,"AP","Kurnool",53,0,0
518380,"AP","Kurnool",53,0,0
518380,"AP","Kurnool",53,0,0
518508,"AP","Kurnool",53,0,0
518302,"AP","Kurnool",53,0,0
518010,"AP","Kurnool",53,0,0
518467,"AP","Kurnool",53,0,0
518313,"AP","Kurnool",53,0,0
518464,"AP","Kurnool",53,0,0
518360,"AP","Kurnool",53,0,0
518395,"AP","Kurnool",53,0,0
518462,"AP","Kurnool",53,0,0
518002,"AP","Kurnool",53,0,0
518344,"AP","Kurnool",53,0,0
518217,"AP","Kurnool",53,0,0
518004,"AP","Kurnool",53,0,0
518206,"AP","Kurnool",53,0,0
518533,"AP","Kurnool",53,0,0
518465,"AP","Kurnool",53,0,0
518344,"AP","Kurnool",53,0,0
518380,"AP","Kurnool",53,0,0
518464,"AP","Kurnool",53,0,0
518395,"AP","Kurnool",53,0,0
518467,"AP","Kurnool",53,0,0
518533,"AP","Kurnool",53,0,0
518405,"AP","Kurnool",53,0,0
518466,"AP","Kurnool",53,0,0
518225,"AP","Kurnool",53,0,0
518452,"AP","Kurnool",53,0,0
518360,"AP","Kurnool",53,0,0
518349,"AP","Kurnool",53,0,0
518005,"AP","Kurnool",53,0,0
518422,"AP","Kurnool",53,0,0
518442,"AP","Kurnool",53,0,0
518422,"AP","Kurnool",53,0,0
518405,"AP","Kurnool",53,0,0
518396,"AP","Kurnool",53,0,0
518344,"AP","Kurnool",53,0,0
518360,"AP","Kurnool",53,0,0
518302,"AP","Kurnool",53,0,0
518221,"AP","Kurnool",53,0,0
518001,"AP","Kurnool",53,0,0
518396,"AP","Kurnool",53,0,0
518323,"AP","Kurnool",53,0,0
533201,"AP","East Godavari",11,0,0
518344,"AP","Kurnool",53,0,0
518345,"AP","Kurnool",53,0,0
518462,"AP","Kurnool",53,0,0
518465,"AP","Kurnool",53,0,0
518222,"AP","Kurnool",53,0,0
518533,"AP","Kurnool",53,0,0
518221,"AP","Kurnool",53,0,0
518533,"AP","Kurnool",53,0,0
518218,"AP","Kurnool",53,0,0
518395,"AP","Kurnool",53,0,0
518343,"AP","Kurnool",53,0,0
518348,"AP","Kurnool",53,0,0
518004,"AP","Kurnool",53,0,0
517424,"AP","Chittoor",17,0,0
517416,"AP","Chittoor",17,0,0
517415,"AP","Chittoor",17,0,0
518225,"AP","Kurnool",53,0,0
518599,"AP","Kurnool",53,0,0
518348,"AP","Kurnool",53,0,0
518467,"AP","Kurnool",53,0,0
518216,"AP","Kurnool",53,0,0
518405,"AP","Kurnool",53,0,0
518216,"AP","Kurnool",53,0,0
518396,"AP","Kurnool",53,0,0
518468,"AP","Kurnool",53,0,0
518220,"AP","Kurnool",53,0,0
518533,"AP","Kurnool",53,0,0
518010,"AP","Kurnool",53,0,0
518380,"AP","Kurnool",53,0,0
518346,"AP","Kurnool",53,0,0
518216,"AP","Kurnool",53,0,0
518401,"AP","Kurnool",53,0,0
518467,"AP","Kurnool",53,0,0
518360,"AP","Kurnool",53,0,0
518462,"AP","Kurnool",53,0,0
518380,"AP","Kurnool",53,0,0
518346,"AP","Kurnool",53,0,0
518206,"AP","Kurnool",53,0,0
518405,"AP","Kurnool",53,0,0
518222,"AP","Kurnool",53,0,0
518220,"AP","Kurnool",53,0,0
518221,"AP","Kurnool",53,0,0
518401,"AP","Kurnool",53,0,0
518225,"AP","Kurnool",53,0,0
518465,"AP","Kurnool",53,0,0
518463,"AP","Kurnool",53,0,0
518422,"AP","Kurnool",53,0,0
518412,"AP","Kurnool",53,0,0
518010,"AP","Kurnool",53,0,0
518313,"AP","Kurnool",53,0,0
518380,"AP","Kurnool",53,0,0
518452,"AP","Kurnool",53,0,0
518222,"AP","Kurnool",53,0,0
518432,"AP","Kurnool",53,0,0
518466,"AP","Kurnool",53,0,0
518390,"AP","Kurnool",53,0,0
518452,"AP","Kurnool",53,0,0
517423,"AP","Chittoor",17,0,0
517416,"AP","Chittoor",17,0,0
517127,"AP","Chittoor",17,0,0
517126,"AP","Chittoor",17,0,0
517126,"AP","Chittoor",17,0,0
517390,"AP","Chittoor",17,0,0
517247,"AP","Chittoor",17,0,0
517425,"AP","Chittoor",17,0,0
517599,"AP","Chittoor",17,0,0
517127,"AP","Chittoor",17,0,0
517247,"AP","Chittoor",17,0,0
517128,"AP","Chittoor",17,0,0
517124,"AP","Chittoor",17,0,0
517257,"AP","Chittoor",17,0,0
517126,"AP","Chittoor",17,0,0
517421,"AP","Chittoor",17,0,0
517391,"AP","Chittoor",17,0,0
517599,"AP","Chittoor",17,0,0
517390,"AP","Chittoor",17,0,0
517124,"AP","Chittoor",17,0,0
517401,"AP","Chittoor",17,0,0
517257,"AP","Chittoor",17,0,0
517432,"AP","Chittoor",17,0,0
517124,"AP","Chittoor",17,0,0
517599,"AP","Chittoor",17,0,0
517390,"AP","Chittoor",17,0,0
517247,"AP","Chittoor",17,0,0
517247,"AP","Chittoor",17,0,0
517129,"AP","Chittoor",17,0,0
517370,"AP","Chittoor",17,0,0
517391,"AP","Chittoor",17,0,0
517124,"AP","Chittoor",17,0,0
517415,"AP","Chittoor",17,0,0
517130,"AP","Chittoor",17,0,0
517350,"AP","Chittoor",17,0,0
517424,"AP","Chittoor",17,0,0
517429,"AP","Chittoor",17,0,0
517002,"AP","Chittoor",17,0,0
517351,"AP","Chittoor",17,0,0
517131,"AP","Chittoor",17,0,0
517425,"AP","Chittoor",17,0,0
517421,"AP","Chittoor",17,0,0
517132,"AP","Chittoor",17,0,0
517423,"AP","Chittoor",17,0,0
517129,"AP","Chittoor",17,0,0
517129,"AP","Chittoor",17,0,0
517128,"AP","Chittoor",17,0,0
517370,"AP","Chittoor",17,0,0
517408,"AP","Chittoor",17,0,0
517425,"AP","Chittoor",17,0,0
517351,"AP","Chittoor",17,0,0
517425,"AP","Chittoor",17,0,0
517418,"AP","Chittoor",17,0,0
517130,"AP","Chittoor",17,0,0
517417,"AP","Chittoor",17,0,0
517421,"AP","Chittoor",17,0,0
517130,"AP","Chittoor",17,0,0
517247,"AP","Chittoor",17,0,0
517130,"AP","Chittoor",17,0,0
517125,"AP","Chittoor",17,0,0
517130,"AP","Chittoor",17,0,0
517002,"AP","Chittoor",17,0,0
517319,"AP","Chittoor",17,0,0
517002,"AP","Chittoor",17,0,0
517370,"AP","Chittoor",17,0,0
517132,"AP","Chittoor",17,0,0
517408,"AP","Chittoor",17,0,0
517131,"AP","Chittoor",17,0,0
517123,"AP","Chittoor",17,0,0
517418,"AP","Chittoor",17,0,0
517421,"AP","Chittoor",17,0,0
517124,"AP","Chittoor",17,0,0
517370,"AP","Chittoor",17,0,0
517124,"AP","Chittoor",17,0,0
517429,"AP","Chittoor",17,0,0
517425,"AP","Chittoor",17,0,0
517415,"AP","Chittoor",17,0,0
517127,"AP","Chittoor",17,0,0
517424,"AP","Chittoor",17,0,0
517124,"AP","Chittoor",17,0,0
517123,"AP","Chittoor",17,0,0
517123,"AP","Chittoor",17,0,0
517002,"AP","Chittoor",17,0,0
517351,"AP","Chittoor",17,0,0
517414,"AP","Chittoor",17,0,0
517424,"AP","Chittoor",17,0,0
517129,"AP","Chittoor",17,0,0
517422,"AP","Chittoor",17,0,0
517125,"AP","Chittoor",17,0,0
517128,"AP","Chittoor",17,0,0
517426,"AP","Chittoor",17,0,0
517002,"AP","Chittoor",17,0,0
517418,"AP","Chittoor",17,0,0
517131,"AP","Chittoor",17,0,0
517326,"AP","Chittoor",17,0,0
517126,"AP","Chittoor",17,0,0
517423,"AP","Chittoor",17,0,0
517415,"AP","Chittoor",17,0,0
517132,"AP","Chittoor",17,0,0
517247,"AP","Chittoor",17,0,0
517415,"AP","Chittoor",17,0,0
517257,"AP","Chittoor",17,0,0
517129,"AP","Chittoor",17,0,0
518218,"AP","Kurnool",53,0,0
518002,"AP","Kurnool",53,0,0
518380,"AP","Kurnool",53,0,0
518221,"AP","Kurnool",53,0,0
518206,"AP","Kurnool",53,0,0
518345,"AP","Kurnool",53,0,0
518599,"AP","Kurnool",53,0,0
518313,"AP","Kurnool",53,0,0
518395,"AP","Kurnool",53,0,0
518468,"AP","Kurnool",53,0,0
518432,"AP","Kurnool",53,0,0
518221,"AP","Kurnool",53,0,0
517425,"AP","Chittoor",17,0,0
517123,"AP","Chittoor",17,0,0
517167,"AP","Chittoor",17,0,0
517001,"AP","Chittoor",17,0,0
517370,"AP","Chittoor",17,0,0
517350,"AP","Chittoor",17,0,0
517001,"AP","Chittoor",17,0,0
517416,"AP","Chittoor",17,0,0
517408,"AP","Chittoor",17,0,0
517352,"AP","Chittoor",17,0,0
517126,"AP","Chittoor",17,0,0
517390,"AP","Chittoor",17,0,0
517426,"AP","Chittoor",17,0,0
517414,"AP","Chittoor",17,0,0
517425,"AP","Chittoor",17,0,0
517128,"AP","Chittoor",17,0,0
517126,"AP","Chittoor",17,0,0
517257,"AP","Chittoor",17,0,0
521157,"AP","Krishna",28,0,0
521126,"AP","Krishna",28,0,0
521122,"AP","Krishna",28,0,0
521157,"AP","Krishna",28,0,0
521369,"AP","Krishna",28,0,0
521120,"AP","Krishna",28,0,0
521366,"AP","Krishna",28,0,0
521332,"AP","Krishna",28,0,0
521157,"AP","Krishna",28,0,0
521366,"AP","Krishna",28,0,0
521003,"AP","Krishna",28,0,0
521120,"AP","Krishna",28,0,0
521231,"AP","Krishna",28,0,0
533244,"AP","East Godavari",11,0,0
533221,"AP","East Godavari",11,0,0
533251,"AP","East Godavari",11,0,0
533212,"AP","East Godavari",11,0,0
533210,"AP","East Godavari",11,0,0
533221,"AP","East Godavari",11,0,0
533229,"AP","East Godavari",11,0,0
533247,"AP","East Godavari",11,0,0
533214,"AP","East Godavari",11,0,0
533212,"AP","East Godavari",11,0,0
533213,"AP","East Godavari",11,0,0
533249,"AP","East Godavari",11,0,0
533211,"AP","East Godavari",11,0,0
533220,"AP","East Godavari",11,0,0
533223,"AP","East Godavari",11,0,0
533250,"AP","East Godavari",11,0,0
533249,"AP","East Godavari",11,0,0
533248,"AP","East Godavari",11,0,0
533254,"AP","East Godavari",11,0,0
533251,"AP","East Godavari",11,0,0
533212,"AP","East Godavari",11,0,0
533211,"AP","East Godavari",11,0,0
533235,"AP","East Godavari",11,0,0
533212,"AP","East Godavari",11,0,0
533217,"AP","East Godavari",11,0,0
533241,"AP","East Godavari",11,0,0
533220,"AP","East Godavari",11,0,0
533247,"AP","East Godavari",11,0,0
533210,"AP","East Godavari",11,0,0
533248,"AP","East Godavari",11,0,0
533216,"AP","East Godavari",11,0,0
533222,"AP","East Godavari",11,0,0
533211,"AP","East Godavari",11,0,0
533244,"AP","East Godavari",11,0,0
533223,"AP","East Godavari",11,0,0
533241,"AP","East Godavari",11,0,0
533251,"AP","East Godavari",11,0,0
533217,"AP","East Godavari",11,0,0
533249,"AP","East Godavari",11,0,0
533241,"AP","East Godavari",11,0,0
534315,"AP","East Godavari",11,0,0
533249,"AP","East Godavari",11,0,0
533238,"AP","East Godavari",11,0,0
533247,"AP","East Godavari",11,0,0
533577,"AP","East Godavari",11,0,0
533220,"AP","East Godavari",11,0,0
533216,"AP","East Godavari",11,0,0
533577,"AP","East Godavari",11,0,0
533213,"AP","East Godavari",11,0,0
533239,"AP","East Godavari",11,0,0
533216,"AP","East Godavari",11,0,0
533222,"AP","East Godavari",11,0,0
533218,"AP","East Godavari",11,0,0
533223,"AP","East Godavari",11,0,0
518346,"AP","Kurnool",53,0,0
518348,"AP","Kurnool",53,0,0
518222,"AP","Kurnool",53,0,0
518411,"AP","Kurnool",53,0,0
518533,"AP","Kurnool",53,0,0
518348,"AP","Kurnool",53,0,0
518405,"AP","Kurnool",53,0,0
518598,"AP","Kurnool",53,0,0
518313,"AP","Kurnool",53,0,0
518395,"AP","Kurnool",53,0,0
518010,"AP","Kurnool",53,0,0
518462,"AP","Kurnool",53,0,0
518360,"AP","Kurnool",53,0,0
518225,"AP","Kurnool",53,0,0
518345,"AP","Kurnool",53,0,0
518401,"AP","Kurnool",53,0,0
518347,"AP","Kurnool",53,0,0
518432,"AP","Kurnool",53,0,0
518452,"AP","Kurnool",53,0,0
518002,"AP","Kurnool",53,0,0
518467,"AP","Kurnool",53,0,0
518220,"AP","Kurnool",53,0,0
518102,"AP","Kurnool",53,0,0
518468,"AP","Kurnool",53,0,0
518508,"AP","Kurnool",53,0,0
518465,"AP","Kurnool",53,0,0
518533,"AP","Kurnool",53,0,0
518323,"AP","Kurnool",53,0,0
518344,"AP","Kurnool",53,0,0
518323,"AP","Kurnool",53,0,0
518302,"AP","Kurnool",53,0,0
518422,"AP","Kurnool",53,0,0
518462,"AP","Kurnool",53,0,0
518395,"AP","Kurnool",53,0,0
518380,"AP","Kurnool",53,0,0
518533,"AP","Kurnool",53,0,0
518002,"AP","Kurnool",53,0,0
518323,"AP","Kurnool",53,0,0
518463,"AP","Kurnool",53,0,0
518313,"AP","Kurnool",53,0,0
518004,"AP","Kurnool",53,0,0
518452,"AP","Kurnool",53,0,0
518221,"AP","Kurnool",53,0,0
518218,"AP","Kurnool",53,0,0
518333,"AP","Kurnool",53,0,0
518308,"AP","Kurnool",53,0,0
518508,"AP","Kurnool",53,0,0
518422,"AP","Kurnool",53,0,0
518508,"AP","Kurnool",53,0,0
518468,"AP","Kurnool",53,0,0
518466,"AP","Kurnool",53,0,0
518308,"AP","Kurnool",53,0,0
518004,"AP","Kurnool",53,0,0
518350,"AP","Kurnool",53,0,0
518221,"AP","Kurnool",53,0,0
518462,"AP","Kurnool",53,0,0
518462,"AP","Kurnool",53,0,0
518396,"AP","Kurnool",53,0,0
518412,"AP","Kurnool",53,0,0
518463,"AP","Kurnool",53,0,0
518343,"AP","Kurnool",53,0,0
518308,"AP","Kurnool",53,0,0
518221,"AP","Kurnool",53,0,0
518401,"AP","Kurnool",53,0,0
518007,"AP","Kurnool",53,0,0
518348,"AP","Kurnool",53,0,0
518323,"AP","Kurnool",53,0,0
518348,"AP","Kurnool",53,0,0
518222,"AP","Kurnool",53,0,0
518001,"AP","Kurnool",53,0,0
518002,"AP","Kurnool",53,0,0
518464,"AP","Kurnool",53,0,0
518422,"AP","Kurnool",53,0,0
518401,"AP","Kurnool",53,0,0
518225,"AP","Kurnool",53,0,0
518468,"AP","Kurnool",53,0,0
518396,"AP","Kurnool",53,0,0
518467,"AP","Kurnool",53,0,0
518467,"AP","Kurnool",53,0,0
518302,"AP","Kurnool",53,0,0
518380,"AP","Kurnool",53,0,0
518349,"AP","Kurnool",53,0,0
518360,"AP","Kurnool",53,0,0
518390,"AP","Kurnool",53,0,0
518464,"AP","Kurnool",53,0,0
518598,"AP","Kurnool",53,0,0
518385,"AP","Kurnool",53,0,0
518220,"AP","Kurnool",53,0,0
518003,"AP","Kurnool",53,0,0
518347,"AP","Kurnool",53,0,0
518344,"AP","Kurnool",53,0,0
518395,"AP","Kurnool",53,0,0
518323,"AP","Kurnool",53,0,0
518333,"AP","Kurnool",53,0,0
518216,"AP","Kurnool",53,0,0
518401,"AP","Kurnool",53,0,0
518010,"AP","Kurnool",53,0,0
518422,"AP","Kurnool",53,0,0
518343,"AP","Kurnool",53,0,0
518323,"AP","Kurnool",53,0,0
518465,"AP","Kurnool",53,0,0
518222,"AP","Kurnool",53,0,0
518308,"AP","Kurnool",53,0,0
518344,"AP","Kurnool",53,0,0
518347,"AP","Kurnool",53,0,0
518463,"AP","Kurnool",53,0,0
518006,"AP","Kurnool",53,0,0
518216,"AP","Kurnool",53,0,0
518221,"AP","Kurnool",53,0,0
518221,"AP","Kurnool",53,0,0
518422,"AP","Kurnool",53,0,0
518333,"AP","Kurnool",53,0,0
518350,"AP","Kurnool",53,0,0
518323,"AP","Kurnool",53,0,0
518348,"AP","Kurnool",53,0,0
518349,"AP","Kurnool",53,0,0
518350,"AP","Kurnool",53,0,0
518422,"AP","Kurnool",53,0,0
518360,"AP","Kurnool",53,0,0
518308,"AP","Kurnool",53,0,0
518422,"AP","Kurnool",53,0,0
518222,"AP","Kurnool",53,0,0
518468,"AP","Kurnool",53,0,0
518006,"AP","Kurnool",53,0,0
518533,"AP","Kurnool",53,0,0
518002,"AP","Kurnool",53,0,0
518599,"AP","Kurnool",53,0,0
518411,"AP","Kurnool",53,0,0
518463,"AP","Kurnool",53,0,0
518347,"AP","Kurnool",53,0,0
518350,"AP","Kurnool",53,0,0
518004,"AP","Kurnool",53,0,0
518221,"AP","Kurnool",53,0,0
518343,"AP","Kurnool",53,0,0
518302,"AP","Kurnool",53,0,0
518350,"AP","Kurnool",53,0,0
518508,"AP","Kurnool",53,0,0
518345,"AP","Kurnool",53,0,0
518101,"AP","Kurnool",53,0,0
518452,"AP","Kurnool",53,0,0
518302,"AP","Kurnool",53,0,0
518533,"AP","Kurnool",53,0,0
518395,"AP","Kurnool",53,0,0
518323,"AP","Kurnool",53,0,0
518302,"AP","Kurnool",53,0,0
518347,"AP","Kurnool",53,0,0
518216,"AP","Kurnool",53,0,0
518001,"AP","Kurnool",53,0,0
518385,"AP","Kurnool",53,0,0
518395,"AP","Kurnool",53,0,0
518350,"AP","Kurnool",53,0,0
518004,"AP","Kurnool",53,0,0
518349,"AP","Kurnool",53,0,0
518390,"AP","Kurnool",53,0,0
518405,"AP","Kurnool",53,0,0
518333,"AP","Kurnool",53,0,0
518345,"AP","Kurnool",53,0,0
518004,"AP","Kurnool",53,0,0
518348,"AP","Kurnool",53,0,0
518599,"AP","Kurnool",53,0,0
518333,"AP","Kurnool",53,0,0
518462,"AP","Kurnool",53,0,0
518465,"AP","Kurnool",53,0,0
518343,"AP","Kurnool",53,0,0
518466,"AP","Kurnool",53,0,0
518002,"AP","Kurnool",53,0,0
518010,"AP","Kurnool",53,0,0
518599,"AP","Kurnool",53,0,0
518468,"AP","Kurnool",53,0,0
518467,"AP","Kurnool",53,0,0
518360,"AP","Kurnool",53,0,0
518533,"AP","Kurnool",53,0,0
518345,"AP","Kurnool",53,0,0
534275,"AP","West Godavari",15,0,0
534235,"AP","West Godavari",15,0,0
534341,"AP","West Godavari",15,0,0
534243,"AP","West Godavari",15,0,0
534112,"AP","West Godavari",15,0,0
534196,"AP","West Godavari",15,0,0
534266,"AP","West Godavari",15,0,0
533216,"AP","East Godavari",11,0,0
534250,"AP","West Godavari",15,0,0
522212,"AP","Guntur",30,0,0
505325,"AP","Guntur",30,0,0
522211,"AP","Guntur",30,0,0
522212,"AP","Guntur",30,0,0
522313,"AP","Guntur",30,0,0
522101,"AP","Guntur",30,0,0
522265,"AP","Guntur",30,0,0
522315,"AP","Guntur",30,0,0
522213,"AP","Guntur",30,0,0
522314,"AP","Guntur",30,0,0
522330,"AP","Guntur",30,0,0
522201,"AP","Guntur",30,0,0
522307,"AP","Guntur",30,0,0
522124,"AP","Guntur",30,0,0
522256,"AP","Guntur",30,0,0
522256,"AP","Guntur",30,0,0
522317,"AP","Guntur",30,0,0
522316,"AP","Guntur",30,0,0
522301,"AP","Guntur",30,0,0
522262,"AP","Guntur",30,0,0
522264,"AP","Guntur",30,0,0
522324,"AP","Guntur",30,0,0
522124,"AP","Guntur",30,0,0
522124,"AP","Guntur",30,0,0
522268,"AP","Guntur",30,0,0
522262,"AP","Guntur",30,0,0
522202,"AP","Guntur",30,0,0
522211,"AP","Guntur",30,0,0
522265,"AP","Guntur",30,0,0
522312,"AP","Guntur",30,0,0
522309,"AP","Guntur",30,0,0
522256,"AP","Guntur",30,0,0
522311,"AP","Guntur",30,0,0
522329,"AP","Guntur",30,0,0
522324,"AP","Guntur",30,0,0
522309,"AP","Guntur",30,0,0
522307,"AP","Guntur",30,0,0
522315,"AP","Guntur",30,0,0
522259,"AP","Guntur",30,0,0
522124,"AP","Guntur",30,0,0
522265,"AP","Guntur",30,0,0
522318,"AP","Guntur",30,0,0
522309,"AP","Guntur",30,0,0
522264,"AP","Guntur",30,0,0
522304,"AP","Guntur",30,0,0
522309,"AP","Guntur",30,0,0
522111,"AP","Guntur",30,0,0
522212,"AP","Guntur",30,0,0
522261,"AP","Guntur",30,0,0
521157,"AP","Krishna",28,0,0
521135,"AP","Krishna",28,0,0
522213,"AP","Guntur",30,0,0
522213,"AP","Guntur",30,0,0
522309,"AP","Guntur",30,0,0
522257,"AP","Guntur",30,0,0
522264,"AP","Guntur",30,0,0
522301,"AP","Guntur",30,0,0
522301,"AP","Guntur",30,0,0
522212,"AP","Guntur",30,0,0
522212,"AP","Guntur",30,0,0
522264,"AP","Guntur",30,0,0
522264,"AP","Guntur",30,0,0
522316,"AP","Guntur",30,0,0
522310,"AP","Guntur",30,0,0
522329,"AP","Guntur",30,0,0
522304,"AP","Guntur",30,0,0
522102,"AP","Guntur",30,0,0
522316,"AP","Guntur",30,0,0
522201,"AP","Guntur",30,0,0
522202,"AP","Guntur",30,0,0
522330,"AP","Guntur",30,0,0
522124,"AP","Guntur",30,0,0
522329,"AP","Guntur",30,0,0
522307,"AP","Guntur",30,0,0
522316,"AP","Guntur",30,0,0
522264,"AP","Guntur",30,0,0
522212,"AP","Guntur",30,0,0
522201,"AP","Guntur",30,0,0
522265,"AP","Guntur",30,0,0
522111,"AP","Guntur",30,0,0
522324,"AP","Guntur",30,0,0
522111,"AP","Guntur",30,0,0
522304,"AP","Guntur",30,0,0
522312,"AP","Guntur",30,0,0
522262,"AP","Guntur",30,0,0
517125,"AP","Chittoor",17,0,0
517247,"AP","Chittoor",17,0,0
517416,"AP","Chittoor",17,0,0
517130,"AP","Chittoor",17,0,0
517130,"AP","Chittoor",17,0,0
517408,"AP","Chittoor",17,0,0
517422,"AP","Chittoor",17,0,0
517417,"AP","Chittoor",17,0,0
517002,"AP","Chittoor",17,0,0
517408,"AP","Chittoor",17,0,0
517247,"AP","Chittoor",17,0,0
517422,"AP","Chittoor",17,0,0
517126,"AP","Chittoor",17,0,0
517422,"AP","Chittoor",17,0,0
517401,"AP","Chittoor",17,0,0
517408,"AP","Chittoor",17,0,0
517247,"AP","Chittoor",17,0,0
517125,"AP","Chittoor",17,0,0
517408,"AP","Chittoor",17,0,0
517127,"AP","Chittoor",17,0,0
517425,"AP","Chittoor",17,0,0
517125,"AP","Chittoor",17,0,0
517423,"AP","Chittoor",17,0,0
517432,"AP","Chittoor",17,0,0
517124,"AP","Chittoor",17,0,0
517423,"AP","Chittoor",17,0,0
517257,"AP","Chittoor",17,0,0
517319,"AP","Chittoor",17,0,0
517002,"AP","Chittoor",17,0,0
517247,"AP","Chittoor",17,0,0
517350,"AP","Chittoor",17,0,0
517370,"AP","Chittoor",17,0,0
517421,"AP","Chittoor",17,0,0
517127,"AP","Chittoor",17,0,0
517419,"AP","Chittoor",17,0,0
517419,"AP","Chittoor",17,0,0
517432,"AP","Chittoor",17,0,0
517124,"AP","Chittoor",17,0,0
517415,"AP","Chittoor",17,0,0
517004,"AP","Chittoor",17,0,0
517280,"AP","Chittoor",17,0,0
517421,"AP","Chittoor",17,0,0
517421,"AP","Chittoor",17,0,0
517125,"AP","Chittoor",17,0,0
517432,"AP","Chittoor",17,0,0
517125,"AP","Chittoor",17,0,0
517424,"AP","Chittoor",17,0,0
517425,"AP","Chittoor",17,0,0
517408,"AP","Chittoor",17,0,0
517126,"AP","Chittoor",17,0,0
517429,"AP","Chittoor",17,0,0
517123,"AP","Chittoor",17,0,0
517424,"AP","Chittoor",17,0,0
517126,"AP","Chittoor",17,0,0
517390,"AP","Chittoor",17,0,0
517425,"AP","Chittoor",17,0,0
517257,"AP","Chittoor",17,0,0
517391,"AP","Chittoor",17,0,0
517124,"AP","Chittoor",17,0,0
517425,"AP","Chittoor",17,0,0
517421,"AP","Chittoor",17,0,0
517418,"AP","Chittoor",17,0,0
517247,"AP","Chittoor",17,0,0
517429,"AP","Chittoor",17,0,0
517167,"AP","Chittoor",17,0,0
517422,"AP","Chittoor",17,0,0
517599,"AP","Chittoor",17,0,0
517132,"AP","Chittoor",17,0,0
517422,"AP","Chittoor",17,0,0
517424,"AP","Chittoor",17,0,0
517432,"AP","Chittoor",17,0,0
517423,"AP","Chittoor",17,0,0
517425,"AP","Chittoor",17,0,0
517167,"AP","Chittoor",17,0,0
517247,"AP","Chittoor",17,0,0
517350,"AP","Chittoor",17,0,0
517004,"AP","Chittoor",17,0,0
517131,"AP","Chittoor",17,0,0
517131,"AP","Chittoor",17,0,0
517257,"AP","Chittoor",17,0,0
517419,"AP","Chittoor",17,0,0
517408,"AP","Chittoor",17,0,0
517167,"AP","Chittoor",17,0,0
517351,"AP","Chittoor",17,0,0
517123,"AP","Chittoor",17,0,0
517319,"AP","Chittoor",17,0,0
517401,"AP","Chittoor",17,0,0
517417,"AP","Chittoor",17,0,0
517132,"AP","Chittoor",17,0,0
517001,"AP","Chittoor",17,0,0
517414,"AP","Chittoor",17,0,0
517425,"AP","Chittoor",17,0,0
517432,"AP","Chittoor",17,0,0
517125,"AP","Chittoor",17,0,0
517418,"AP","Chittoor",17,0,0
517125,"AP","Chittoor",17,0,0
517401,"AP","Chittoor",17,0,0
517422,"AP","Chittoor",17,0,0
517401,"AP","Chittoor",17,0,0
517426,"AP","Chittoor",17,0,0
517425,"AP","Chittoor",17,0,0
517130,"AP","Chittoor",17,0,0
517370,"AP","Chittoor",17,0,0
517280,"AP","Chittoor",17,0,0
517129,"AP","Chittoor",17,0,0
517001,"AP","Chittoor",17,0,0
517418,"AP","Chittoor",17,0,0
517422,"AP","Chittoor",17,0,0
517429,"AP","Chittoor",17,0,0
517129,"AP","Chittoor",17,0,0
517370,"AP","Chittoor",17,0,0
517408,"AP","Chittoor",17,0,0
517419,"AP","Chittoor",17,0,0
517422,"AP","Chittoor",17,0,0
517424,"AP","Chittoor",17,0,0
517426,"AP","Chittoor",17,0,0
517432,"AP","Chittoor",17,0,0
517417,"AP","Chittoor",17,0,0
517432,"AP","Chittoor",17,0,0
517325,"AP","Chittoor",17,0,0
517132,"AP","Chittoor",17,0,0
517167,"AP","Chittoor",17,0,0
517425,"AP","Chittoor",17,0,0
517124,"AP","Chittoor",17,0,0
517419,"AP","Chittoor",17,0,0
517129,"AP","Chittoor",17,0,0
517129,"AP","Chittoor",17,0,0
517257,"AP","Chittoor",17,0,0
517257,"AP","Chittoor",17,0,0
517423,"AP","Chittoor",17,0,0
517391,"AP","Chittoor",17,0,0
517408,"AP","Chittoor",17,0,0
517167,"AP","Chittoor",17,0,0
517391,"AP","Chittoor",17,0,0
517352,"AP","Chittoor",17,0,0
517127,"AP","Chittoor",17,0,0
517416,"AP","Chittoor",17,0,0
517004,"AP","Chittoor",17,0,0
517001,"AP","Chittoor",17,0,0
517418,"AP","Chittoor",17,0,0
517424,"AP","Chittoor",17,0,0
517416,"AP","Chittoor",17,0,0
517390,"AP","Chittoor",17,0,0
517418,"AP","Chittoor",17,0,0
517124,"AP","Chittoor",17,0,0
517408,"AP","Chittoor",17,0,0
517416,"AP","Chittoor",17,0,0
517599,"AP","Chittoor",17,0,0
517351,"AP","Chittoor",17,0,0
517408,"AP","Chittoor",17,0,0
517129,"AP","Chittoor",17,0,0
517129,"AP","Chittoor",17,0,0
517123,"AP","Chittoor",17,0,0
517599,"AP","Chittoor",17,0,0
517416,"AP","Chittoor",17,0,0
517401,"AP","Chittoor",17,0,0
517127,"AP","Chittoor",17,0,0
517247,"AP","Chittoor",17,0,0
517319,"AP","Chittoor",17,0,0
517257,"AP","Chittoor",17,0,0
517408,"AP","Chittoor",17,0,0
517132,"AP","Chittoor",17,0,0
517131,"AP","Chittoor",17,0,0
517132,"AP","Chittoor",17,0,0
517129,"AP","Chittoor",17,0,0
517247,"AP","Chittoor",17,0,0
517280,"AP","Chittoor",17,0,0
517125,"AP","Chittoor",17,0,0
517128,"AP","Chittoor",17,0,0
517351,"AP","Chittoor",17,0,0
517418,"AP","Chittoor",17,0,0
517419,"AP","Chittoor",17,0,0
517425,"AP","Chittoor",17,0,0
517130,"AP","Chittoor",17,0,0
517247,"AP","Chittoor",17,0,0
517351,"AP","Chittoor",17,0,0
517432,"AP","Chittoor",17,0,0
517401,"AP","Chittoor",17,0,0
517129,"AP","Chittoor",17,0,0
517350,"AP","Chittoor",17,0,0
517127,"AP","Chittoor",17,0,0
517414,"AP","Chittoor",17,0,0
517370,"AP","Chittoor",17,0,0
517391,"AP","Chittoor",17,0,0
517425,"AP","Chittoor",17,0,0
517426,"AP","Chittoor",17,0,0
517426,"AP","Chittoor",17,0,0
517127,"AP","Chittoor",17,0,0
517599,"AP","Chittoor",17,0,0
517167,"AP","Chittoor",17,0,0
517432,"AP","Chittoor",17,0,0
517432,"AP","Chittoor",17,0,0
517167,"AP","Chittoor",17,0,0
517131,"AP","Chittoor",17,0,0
517127,"AP","Chittoor",17,0,0
517425,"AP","Chittoor",17,0,0
517247,"AP","Chittoor",17,0,0
517257,"AP","Chittoor",17,0,0
517418,"AP","Chittoor",17,0,0
517131,"AP","Chittoor",17,0,0
517167,"AP","Chittoor",17,0,0
517132,"AP","Chittoor",17,0,0
517247,"AP","Chittoor",17,0,0
517419,"AP","Chittoor",17,0,0
517391,"AP","Chittoor",17,0,0
517247,"AP","Chittoor",17,0,0
517257,"AP","Chittoor",17,0,0
517390,"AP","Chittoor",17,0,0
517424,"AP","Chittoor",17,0,0
534313,"AP","West Godavari",15,0,0
517167,"AP","Chittoor",17,0,0
534211,"AP","West Godavari",15,0,0
534218,"AP","West Godavari",15,0,0
534245,"AP","West Godavari",15,0,0
534275,"AP","West Godavari",15,0,0
534217,"AP","West Godavari",15,0,0
534342,"AP","West Godavari",15,0,0
534156,"AP","West Godavari",15,0,0
518465,"AP","Kurnool",53,0,0
518442,"AP","Kurnool",53,0,0
518004,"AP","Kurnool",53,0,0
534275,"AP","West Godavari",15,0,0
534268,"AP","West Godavari",15,0,0
534198,"AP","West Godavari",15,0,0
534216,"AP","West Godavari",15,0,0
534269,"AP","West Godavari",15,0,0
534266,"AP","West Godavari",15,0,0
534315,"AP","West Godavari",15,0,0
534199,"AP","West Godavari",15,0,0
534328,"AP","West Godavari",15,0,0
534176,"AP","West Godavari",15,0,0
531083,"AP","Visakhapatnam",14,0,1
531077,"AP","Visakhapatnam",14,0,1
534202,"AP","West Godavari",15,0,0
534146,"AP","West Godavari",15,0,0
534165,"AP","West Godavari",15,0,0
534146,"AP","West Godavari",15,0,0
534316,"AP","West Godavari",15,0,0
534280,"AP","West Godavari",15,0,0
534237,"AP","West Godavari",15,0,0
534237,"AP","West Godavari",15,0,0
534341,"AP","West Godavari",15,0,0
534280,"AP","West Godavari",15,0,0
534199,"AP","West Godavari",15,0,0
534222,"AP","West Godavari",15,0,0
534208,"AP","West Godavari",15,0,0
534230,"AP","West Godavari",15,0,0
534265,"AP","West Godavari",15,0,0
534227,"AP","West Godavari",15,0,0
534302,"AP","West Godavari",15,0,0
534134,"AP","West Godavari",15,0,0
534265,"AP","West Godavari",15,0,0
534266,"AP","West Godavari",15,0,0
534238,"AP","West Godavari",15,0,0
534301,"AP","West Godavari",15,0,0
534235,"AP","West Godavari",15,0,0
534202,"AP","West Godavari",15,0,0
534268,"AP","West Godavari",15,0,0
534411,"AP","West Godavari",15,0,0
534301,"AP","West Godavari",15,0,0
534318,"AP","West Godavari",15,0,0
534324,"AP","West Godavari",15,0,0
534199,"AP","West Godavari",15,0,0
534238,"AP","West Godavari",15,0,0
534313,"AP","West Godavari",15,0,0
534269,"AP","West Godavari",15,0,0
534268,"AP","West Godavari",15,0,0
534225,"AP","West Godavari",15,0,0
534208,"AP","West Godavari",15,0,0
534236,"AP","West Godavari",15,0,0
518346,"AP","Kurnool",53,0,0
518452,"AP","Kurnool",53,0,0
518347,"AP","Kurnool",53,0,0
518347,"AP","Kurnool",53,0,0
518432,"AP","Kurnool",53,0,0
518360,"AP","Kurnool",53,0,0
518313,"AP","Kurnool",53,0,0
534201,"AP","West Godavari",15,0,0
518222,"AP","Kurnool",53,0,0
534186,"AP","West Godavari",15,0,0
534235,"AP","West Godavari",15,0,0
534245,"AP","West Godavari",15,0,0
534326,"AP","West Godavari",15,0,0
534313,"AP","West Godavari",15,0,0
534123,"AP","West Godavari",15,0,0
534215,"AP","West Godavari",15,0,0
534243,"AP","West Godavari",15,0,0
534281,"AP","West Godavari",15,0,0
534330,"AP","West Godavari",15,0,0
534196,"AP","West Godavari",15,0,0
534235,"AP","West Godavari",15,0,0
534318,"AP","West Godavari",15,0,0
534326,"AP","West Godavari",15,0,0
534207,"AP","West Godavari",15,0,0
534265,"AP","West Godavari",15,0,0
534239,"AP","West Godavari",15,0,0
534247,"AP","West Godavari",15,0,0
534320,"AP","West Godavari",15,0,0
534280,"AP","West Godavari",15,0,0
534176,"AP","West Godavari",15,0,0
521331,"AP","Krishna",28,0,0
521150,"AP","Krishna",28,0,0
521157,"AP","Krishna",28,0,0
521001,"AP","Krishna",28,0,0
521132,"AP","Krishna",28,0,0
521131,"AP","Krishna",28,0,0
521126,"AP","Krishna",28,0,0
521120,"AP","Krishna",28,0,0
521122,"AP","Krishna",28,0,0
521369,"AP","Krishna",28,0,0
521121,"AP","Krishna",28,0,0
521133,"AP","Krishna",28,0,0
521138,"AP","Krishna",28,0,0
521122,"AP","Krishna",28,0,0
521120,"AP","Krishna",28,0,0
521157,"AP","Krishna",28,0,0
521122,"AP","Krishna",28,0,0
521131,"AP","Krishna",28,0,0
521158,"AP","Krishna",28,0,0
521331,"AP","Krishna",28,0,0
521150,"AP","Krishna",28,0,0
521366,"AP","Krishna",28,0,0
521138,"AP","Krishna",28,0,0
521162,"AP","Krishna",28,0,0
521135,"AP","Krishna",28,0,0
521002,"AP","Krishna",28,0,0
521131,"AP","Krishna",28,0,0
521162,"AP","Krishna",28,0,0
518396,"AP","Kurnool",53,0,0
518465,"AP","Kurnool",53,0,0
521122,"AP","Krishna",28,0,0
521120,"AP","Krishna",28,0,0
521366,"AP","Krishna",28,0,0
521125,"AP","Krishna",28,0,0
521150,"AP","Krishna",28,0,0
521001,"AP","Krishna",28,0,0
521366,"AP","Krishna",28,0,0
521158,"AP","Krishna",28,0,0
521120,"AP","Krishna",28,0,0
521120,"AP","Krishna",28,0,0
521120,"AP","Krishna",28,0,0
521369,"AP","Krishna",28,0,0
521120,"AP","Krishna",28,0,0
521002,"AP","Krishna",28,0,0
521157,"AP","Krishna",28,0,0
521366,"AP","Krishna",28,0,0
521001,"AP","Krishna",28,0,0
521122,"AP","Krishna",28,0,0
521133,"AP","Krishna",28,0,0
521184,"AP","Krishna",28,0,0
521157,"AP","Krishna",28,0,0
521328,"AP","Krishna",28,0,0
521001,"AP","Krishna",28,0,0
521131,"AP","Krishna",28,0,0
521001,"AP","Krishna",28,0,0
521356,"AP","Krishna",28,0,0
521002,"AP","Krishna",28,0,0
521002,"AP","Krishna",28,0,0
521156,"AP","Krishna",28,0,0
521002,"AP","Krishna",28,0,0
521150,"AP","Krishna",28,0,0
521002,"AP","Krishna",28,0,0
521149,"AP","Krishna",28,0,0
521003,"AP","Krishna",28,0,0
521366,"AP","Krishna",28,0,0
521366,"AP","Krishna",28,0,0
521122,"AP","Krishna",28,0,0
521332,"AP","Krishna",28,0,0
521356,"AP","Krishna",28,0,0
521162,"AP","Krishna",28,0,0
521162,"AP","Krishna",28,0,0
521120,"AP","Krishna",28,0,0
521125,"AP","Krishna",28,0,0
521356,"AP","Krishna",28,0,0
521136,"AP","Krishna",28,0,0
521136,"AP","Krishna",28,0,0
521366,"AP","Krishna",28,0,0
521369,"AP","Krishna",28,0,0
521157,"AP","Krishna",28,0,0
521149,"AP","Krishna",28,0,0
521125,"AP","Krishna",28,0,0
521122,"AP","Krishna",28,0,0
521156,"AP","Krishna",28,0,0
521126,"AP","Krishna",28,0,0
521131,"AP","Krishna",28,0,0
521131,"AP","Krishna",28,0,0
521135,"AP","Krishna",28,0,0
521369,"AP","Krishna",28,0,0
521125,"AP","Krishna",28,0,0
521132,"AP","Krishna",28,0,0
521356,"AP","Krishna",28,0,0
521136,"AP","Krishna",28,0,0
521122,"AP","Krishna",28,0,0
521366,"AP","Krishna",28,0,0
521366,"AP","Krishna",28,0,0
534112,"AP","West Godavari",15,0,0
534124,"AP","West Godavari",15,0,0
534330,"AP","West Godavari",15,0,0
534269,"AP","West Godavari",15,0,0
534198,"AP","West Godavari",15,0,0
534237,"AP","West Godavari",15,0,0
534217,"AP","West Godavari",15,0,0
534320,"AP","West Godavari",15,0,0
534196,"AP","West Godavari",15,0,0
534123,"AP","West Godavari",15,0,0
534156,"AP","West Godavari",15,0,0
534210,"AP","West Godavari",15,0,0
534328,"AP","West Godavari",15,0,0
534315,"AP","West Godavari",15,0,0
534216,"AP","West Godavari",15,0,0
534204,"AP","West Godavari",15,0,0
534281,"AP","West Godavari",15,0,0
534350,"AP","West Godavari",15,0,0
534199,"AP","West Godavari",15,0,0
534266,"AP","West Godavari",15,0,0
534315,"AP","West Godavari",15,0,0
534280,"AP","West Godavari",15,0,0
534302,"AP","West Godavari",15,0,0
534198,"AP","West Godavari",15,0,0
534318,"AP","West Godavari",15,0,0
534267,"AP","West Godavari",15,0,0
534126,"AP","West Godavari",15,0,0
518442,"AP","Kurnool",53,0,0
518313,"AP","Kurnool",53,0,0
534166,"AP","West Godavari",15,0,0
534166,"AP","West Godavari",15,0,0
534225,"AP","West Godavari",15,0,0
534275,"AP","West Godavari",15,0,0
534328,"AP","West Godavari",15,0,0
534122,"AP","West Godavari",15,0,0
534230,"AP","West Godavari",15,0,0
534265,"AP","West Godavari",15,0,0
534247,"AP","West Godavari",15,0,0
534134,"AP","West Godavari",15,0,0
534238,"AP","West Godavari",15,0,0
534222,"AP","West Godavari",15,0,0
534411,"AP","West Godavari",15,0,0
534207,"AP","West Godavari",15,0,0
534250,"AP","West Godavari",15,0,0
534318,"AP","West Godavari",15,0,0
534134,"AP","West Godavari",15,0,0
534146,"AP","West Godavari",15,0,0
534243,"AP","West Godavari",15,0,0
534206,"AP","West Godavari",15,0,0
534281,"AP","West Godavari",15,0,0
534124,"AP","West Godavari",15,0,0
534324,"AP","West Godavari",15,0,0
534156,"AP","West Godavari",15,0,0
534330,"AP","West Godavari",15,0,0
534266,"AP","West Godavari",15,0,0
534217,"AP","West Godavari",15,0,0
534156,"AP","West Godavari",15,0,0
534315,"AP","West Godavari",15,0,0
534198,"AP","West Godavari",15,0,0
534112,"AP","West Godavari",15,0,0
534217,"AP","West Godavari",15,0,0
534315,"AP","West Godavari",15,0,0
534250,"AP","West Godavari",15,0,0
534101,"AP","West Godavari",15,0,0
534166,"AP","West Godavari",15,0,0
534342,"AP","West Godavari",15,0,0
534305,"AP","West Godavari",15,0,0
534329,"AP","West Godavari",15,0,0
534342,"AP","West Godavari",15,0,0
534206,"AP","West Godavari",15,0,0
534210,"AP","West Godavari",15,0,0
534237,"AP","West Godavari",15,0,0
534206,"AP","West Godavari",15,0,0
534341,"AP","West Godavari",15,0,0
534176,"AP","West Godavari",15,0,0
521328,"AP","Krishna",28,0,0
521150,"AP","Krishna",28,0,0
521002,"AP","Krishna",28,0,0
534301,"AP","West Godavari",15,0,0
534134,"AP","West Godavari",15,0,0
534195,"AP","West Godavari",15,0,0
521130,"AP","Krishna",28,0,0
534235,"AP","West Godavari",15,0,0
534329,"AP","West Godavari",15,0,0
534316,"AP","West Godavari",15,0,0
534338,"AP","West Godavari",15,0,0
534202,"AP","West Godavari",15,0,0
534156,"AP","West Godavari",15,0,0
534196,"AP","West Godavari",15,0,0
534197,"AP","West Godavari",15,0,0
534112,"AP","West Godavari",15,0,0
534266,"AP","West Godavari",15,0,0
534198,"AP","West Godavari",15,0,0
534146,"AP","West Godavari",15,0,0
534302,"AP","West Godavari",15,0,0
534126,"AP","West Godavari",15,0,0
534313,"AP","West Godavari",15,0,0
534324,"AP","West Godavari",15,0,0
534236,"AP","West Godavari",15,0,0
534225,"AP","West Godavari",15,0,0
534350,"AP","West Godavari",15,0,0
534195,"AP","West Godavari",15,0,0
534166,"AP","West Godavari",15,0,0
534186,"AP","West Godavari",15,0,0
534236,"AP","West Godavari",15,0,0
534350,"AP","West Godavari",15,0,0
534260,"AP","West Godavari",15,0,0
534318,"AP","West Godavari",15,0,0
534198,"AP","West Godavari",15,0,0
534342,"AP","West Godavari",15,0,0
534227,"AP","West Godavari",15,0,0
534250,"AP","West Godavari",15,0,0
523327,"AP","Prakasam",23,0,0
534302,"AP","West Godavari",15,0,0
534235,"AP","West Godavari",15,0,0
534211,"AP","West Godavari",15,0,0
534145,"AP","West Godavari",15,0,0
534318,"AP","West Godavari",15,0,0
534123,"AP","West Godavari",15,0,0
534134,"AP","West Godavari",15,0,0
534195,"AP","West Godavari",15,0,0
534122,"AP","West Godavari",15,0,0
534269,"AP","West Godavari",15,0,0
534266,"AP","West Godavari",15,0,0
534207,"AP","West Godavari",15,0,0
534145,"AP","West Godavari",15,0,0
534197,"AP","West Godavari",15,0,0
534267,"AP","West Godavari",15,0,0
534208,"AP","West Godavari",15,0,0
534328,"AP","West Godavari",15,0,0
534210,"AP","West Godavari",15,0,0
534112,"AP","West Godavari",15,0,0
534134,"AP","West Godavari",15,0,0
534411,"AP","West Godavari",15,0,0
534411,"AP","West Godavari",15,0,0
534350,"AP","West Godavari",15,0,0
534218,"AP","West Godavari",15,0,0
534316,"AP","West Godavari",15,0,0
534315,"AP","West Godavari",15,0,0
534186,"AP","West Godavari",15,0,0
534267,"AP","West Godavari",15,0,0
534301,"AP","West Godavari",15,0,0
534313,"AP","West Godavari",15,0,0
534320,"AP","West Godavari",15,0,0
534411,"AP","West Godavari",15,0,0
534444,"AP","West Godavari",15,0,0
534320,"AP","West Godavari",15,0,0
534209,"AP","West Godavari",15,0,0
534315,"AP","West Godavari",15,0,0
534260,"AP","West Godavari",15,0,0
534196,"AP","West Godavari",15,0,0
534301,"AP","West Godavari",15,0,0
534260,"AP","West Godavari",15,0,0
534244,"AP","West Godavari",15,0,0
534218,"AP","West Godavari",15,0,0
534315,"AP","West Godavari",15,0,0
534316,"AP","West Godavari",15,0,0
534111,"AP","West Godavari",15,0,0
534122,"AP","West Godavari",15,0,0
534301,"AP","West Godavari",15,0,0
534316,"AP","West Godavari",15,0,0
534196,"AP","West Godavari",15,0,0
534204,"AP","West Godavari",15,0,0
534342,"AP","West Godavari",15,0,0
534268,"AP","West Godavari",15,0,0
534265,"AP","West Godavari",15,0,0
534166,"AP","West Godavari",15,0,0
534197,"AP","West Godavari",15,0,0
534275,"AP","West Godavari",15,0,0
534209,"AP","West Godavari",15,0,0
534186,"AP","West Godavari",15,0,0
534301,"AP","West Godavari",15,0,0
534227,"AP","West Godavari",15,0,0
518401,"AP","Kurnool",53,0,0
534198,"AP","West Godavari",15,0,0
534268,"AP","West Godavari",15,0,0
534324,"AP","West Godavari",15,0,0
534305,"AP","West Godavari",15,0,0
518390,"AP","Kurnool",53,0,0
534301,"AP","West Godavari",15,0,0
518221,"AP","Kurnool",53,0,0
518465,"AP","Kurnool",53,0,0
518308,"AP","Kurnool",53,0,0
518422,"AP","Kurnool",53,0,0
518385,"AP","Kurnool",53,0,0
518002,"AP","Kurnool",53,0,0
518225,"AP","Kurnool",53,0,0
518380,"AP","Kurnool",53,0,0
534237,"AP","West Godavari",15,0,0
534122,"AP","West Godavari",15,0,0
534198,"AP","West Godavari",15,0,0
518313,"AP","Kurnool",53,0,0
518313,"AP","Kurnool",53,0,0
518302,"AP","Kurnool",53,0,0
518216,"AP","Kurnool",53,0,0
518302,"AP","Kurnool",53,0,0
518432,"AP","Kurnool",53,0,0
518222,"AP","Kurnool",53,0,0
518380,"AP","Kurnool",53,0,0
518464,"AP","Kurnool",53,0,0
534280,"AP","West Godavari",15,0,0
534165,"AP","West Godavari",15,0,0
534146,"AP","West Godavari",15,0,0
534268,"AP","West Godavari",15,0,0
534301,"AP","West Godavari",15,0,0
534239,"AP","West Godavari",15,0,0
534329,"AP","West Godavari",15,0,0
534266,"AP","West Godavari",15,0,0
534244,"AP","West Godavari",15,0,0
534305,"AP","West Godavari",15,0,0
534176,"AP","West Godavari",15,0,0
534186,"AP","West Godavari",15,0,0
534235,"AP","West Godavari",15,0,0
534318,"AP","West Godavari",15,0,0
534202,"AP","West Godavari",15,0,0
534216,"AP","West Godavari",15,0,0
534324,"AP","West Godavari",15,0,0
534198,"AP","West Godavari",15,0,0
534211,"AP","West Godavari",15,0,0
534316,"AP","West Godavari",15,0,0
534301,"AP","West Godavari",15,0,0
534275,"AP","West Godavari",15,0,0
534209,"AP","West Godavari",15,0,0
534328,"AP","West Godavari",15,0,0
534341,"AP","West Godavari",15,0,0
534198,"AP","West Godavari",15,0,0
534318,"AP","West Godavari",15,0,0
534146,"AP","West Godavari",15,0,0
534134,"AP","West Godavari",15,0,0
534275,"AP","West Godavari",15,0,0
534315,"AP","West Godavari",15,0,0
518390,"AP","Kurnool",53,0,0
518467,"AP","Kurnool",53,0,0
518466,"AP","Kurnool",53,0,0
518396,"AP","Kurnool",53,0,0
518302,"AP","Kurnool",53,0,0
518222,"AP","Kurnool",53,0,0
518218,"AP","Kurnool",53,0,0
518360,"AP","Kurnool",53,0,0
534217,"AP","West Godavari",15,0,0
534275,"AP","West Godavari",15,0,0
534124,"AP","West Godavari",15,0,0
534210,"AP","West Godavari",15,0,0
534338,"AP","West Godavari",15,0,0
534112,"AP","West Godavari",15,0,0
534207,"AP","West Godavari",15,0,0
518302,"AP","Kurnool",53,0,0
534313,"AP","West Godavari",15,0,0
518004,"AP","Kurnool",53,0,0
518468,"AP","Kurnool",53,0,0
518222,"AP","Kurnool",53,0,0
518390,"AP","Kurnool",53,0,0
518422,"AP","Kurnool",53,0,0
518002,"AP","Kurnool",53,0,0
518333,"AP","Kurnool",53,0,0
518401,"AP","Kurnool",53,0,0
518465,"AP","Kurnool",53,0,0
518390,"AP","Kurnool",53,0,0
518222,"AP","Kurnool",53,0,0
518412,"AP","Kurnool",53,0,0
518344,"AP","Kurnool",53,0,0
518222,"AP","Kurnool",53,0,0
518462,"AP","Kurnool",53,0,0
518405,"AP","Kurnool",53,0,0
518301,"AP","Kurnool",53,0,0
518464,"AP","Kurnool",53,0,0
518217,"AP","Kurnool",53,0,0
518348,"AP","Kurnool",53,0,0
518508,"AP","Kurnool",53,0,0
518411,"AP","Kurnool",53,0,0
518302,"AP","Kurnool",53,0,0
518533,"AP","Kurnool",53,0,0
518467,"AP","Kurnool",53,0,0
518462,"AP","Kurnool",53,0,0
518395,"AP","Kurnool",53,0,0
518217,"AP","Kurnool",53,0,0
518218,"AP","Kurnool",53,0,0
518004,"AP","Kurnool",53,0,0
518221,"AP","Kurnool",53,0,0
518360,"AP","Kurnool",53,0,0
518308,"AP","Kurnool",53,0,0
518010,"AP","Kurnool",53,0,0
518220,"AP","Kurnool",53,0,0
518508,"AP","Kurnool",53,0,0
518221,"AP","Kurnool",53,0,0
518220,"AP","Kurnool",53,0,0
518422,"AP","Kurnool",53,0,0
518467,"AP","Kurnool",53,0,0
518344,"AP","Kurnool",53,0,0
518465,"AP","Kurnool",53,0,0
518001,"AP","Kurnool",53,0,0
518003,"AP","Kurnool",53,0,0
518598,"AP","Kurnool",53,0,0
518452,"AP","Kurnool",53,0,0
518452,"AP","Kurnool",53,0,0
518222,"AP","Kurnool",53,0,0
518217,"AP","Kurnool",53,0,0
534326,"AP","West Godavari",15,0,0
534281,"AP","West Godavari",15,0,0
518412,"AP","Kurnool",53,0,0
518221,"AP","Kurnool",53,0,0
518462,"AP","Kurnool",53,0,0
518396,"AP","Kurnool",53,0,0
518347,"AP","Kurnool",53,0,0
518468,"AP","Kurnool",53,0,0
518301,"AP","Kurnool",53,0,0
518347,"AP","Kurnool",53,0,0
518346,"AP","Kurnool",53,0,0
518422,"AP","Kurnool",53,0,0
518462,"AP","Kurnool",53,0,0
518390,"AP","Kurnool",53,0,0
518004,"AP","Kurnool",53,0,0
522264,"AP","Guntur",30,0,0
522213,"AP","Guntur",30,0,0
522330,"AP","Guntur",30,0,0
522309,"AP","Guntur",30,0,0
522316,"AP","Guntur",30,0,0
522262,"AP","Guntur",30,0,0
522268,"AP","Guntur",30,0,0
522268,"AP","Guntur",30,0,0
522202,"AP","Guntur",30,0,0
518401,"AP","Kurnool",53,0,0
518347,"AP","Kurnool",53,0,0
518401,"AP","Kurnool",53,0,0
518344,"AP","Kurnool",53,0,0
518302,"AP","Kurnool",53,0,0
518462,"AP","Kurnool",53,0,0
518217,"AP","Kurnool",53,0,0
518350,"AP","Kurnool",53,0,0
518222,"AP","Kurnool",53,0,0
518301,"AP","Kurnool",53,0,0
518346,"AP","Kurnool",53,0,0
518004,"AP","Kurnool",53,0,0
518412,"AP","Kurnool",53,0,0
518002,"AP","Kurnool",53,0,0
518349,"AP","Kurnool",53,0,0
518350,"AP","Kurnool",53,0,0
518462,"AP","Kurnool",53,0,0
518347,"AP","Kurnool",53,0,0
518411,"AP","Kurnool",53,0,0
518004,"AP","Kurnool",53,0,0
518401,"AP","Kurnool",53,0,0
518218,"AP","Kurnool",53,0,0
518220,"AP","Kurnool",53,0,0
518422,"AP","Kurnool",53,0,0
518464,"AP","Kurnool",53,0,0
518001,"AP","Kurnool",53,0,0
518422,"AP","Kurnool",53,0,0
518401,"AP","Kurnool",53,0,0
518343,"AP","Kurnool",53,0,0
518432,"AP","Kurnool",53,0,0
518218,"AP","Kurnool",53,0,0
518390,"AP","Kurnool",53,0,0
518323,"AP","Kurnool",53,0,0
518396,"AP","Kurnool",53,0,0
518349,"AP","Kurnool",53,0,0
518533,"AP","Kurnool",53,0,0
518360,"AP","Kurnool",53,0,0
518222,"AP","Kurnool",53,0,0
518222,"AP","Kurnool",53,0,0
518395,"AP","Kurnool",53,0,0
518221,"AP","Kurnool",53,0,0
518221,"AP","Kurnool",53,0,0
518465,"AP","Kurnool",53,0,0
518401,"AP","Kurnool",53,0,0
518360,"AP","Kurnool",53,0,0
518216,"AP","Kurnool",53,0,0
518348,"AP","Kurnool",53,0,0
518221,"AP","Kurnool",53,0,0
518350,"AP","Kurnool",53,0,0
518385,"AP","Kurnool",53,0,0
518422,"AP","Kurnool",53,0,0
518313,"AP","Kurnool",53,0,0
518508,"AP","Kurnool",53,0,0
518221,"AP","Kurnool",53,0,0
518466,"AP","Kurnool",53,0,0
518349,"AP","Kurnool",53,0,0
518218,"AP","Kurnool",53,0,0
518002,"AP","Kurnool",53,0,0
518225,"AP","Kurnool",53,0,0
518218,"AP","Kurnool",53,0,0
518348,"AP","Kurnool",53,0,0
518442,"AP","Kurnool",53,0,0
518216,"AP","Kurnool",53,0,0
518432,"AP","Kurnool",53,0,0
518360,"AP","Kurnool",53,0,0
518598,"AP","Kurnool",53,0,0
518598,"AP","Kurnool",53,0,0
518360,"AP","Kurnool",53,0,0
518349,"AP","Kurnool",53,0,0
518452,"AP","Kurnool",53,0,0
522318,"AP","Guntur",30,0,0
522262,"AP","Guntur",30,0,0
518422,"AP","Kurnool",53,0,0
518225,"AP","Kurnool",53,0,0
518463,"AP","Kurnool",53,0,0
518464,"AP","Kurnool",53,0,0
518217,"AP","Kurnool",53,0,0
518216,"AP","Kurnool",53,0,0
518216,"AP","Kurnool",53,0,0
518380,"AP","Kurnool",53,0,0
518346,"AP","Kurnool",53,0,0
518308,"AP","Kurnool",53,0,0
518401,"AP","Kurnool",53,0,0
518010,"AP","Kurnool",53,0,0
518463,"AP","Kurnool",53,0,0
518405,"AP","Kurnool",53,0,0
518003,"AP","Kurnool",53,0,0
518217,"AP","Kurnool",53,0,0
518463,"AP","Kurnool",53,0,0
518463,"AP","Kurnool",53,0,0
518344,"AP","Kurnool",53,0,0
518360,"AP","Kurnool",53,0,0
518007,"AP","Kurnool",53,0,0
518465,"AP","Kurnool",53,0,0
518401,"AP","Kurnool",53,0,0
518422,"AP","Kurnool",53,0,0
518002,"AP","Kurnool",53,0,0
518220,"AP","Kurnool",53,0,0
518405,"AP","Kurnool",53,0,0
534316,"AP","West Godavari",15,0,0
518396,"AP","Kurnool",53,0,0
534302,"AP","West Godavari",15,0,0
534280,"AP","West Godavari",15,0,0
534124,"AP","West Godavari",15,0,0
534124,"AP","West Godavari",15,0,0
534236,"AP","West Godavari",15,0,0
534111,"AP","West Godavari",15,0,0
534156,"AP","West Godavari",15,0,0
534145,"AP","West Godavari",15,0,0
518395,"AP","Kurnool",53,0,0
522202,"AP","Guntur",30,0,0
522212,"AP","Guntur",30,0,0
534324,"AP","West Godavari",15,0,0
534217,"AP","West Godavari",15,0,0
534275,"AP","West Godavari",15,0,0
534134,"AP","West Godavari",15,0,0
534318,"AP","West Godavari",15,0,0
534240,"AP","West Godavari",15,0,0
534268,"AP","West Godavari",15,0,0
534199,"AP","West Godavari",15,0,0
534199,"AP","West Godavari",15,0,0
522310,"AP","Guntur",30,0,0
522111,"AP","Guntur",30,0,0
522329,"AP","Guntur",30,0,0
522265,"AP","Guntur",30,0,0
522264,"AP","Guntur",30,0,0
522201,"AP","Guntur",30,0,0
522341,"AP","Guntur",30,0,0
522111,"AP","Guntur",30,0,0
522311,"AP","Guntur",30,0,0
522212,"AP","Guntur",30,0,0
522313,"AP","Guntur",30,0,0
522317,"AP","Guntur",30,0,0
522101,"AP","Guntur",30,0,0
522124,"AP","Guntur",30,0,0
522261,"AP","Guntur",30,0,0
522268,"AP","Guntur",30,0,0
522212,"AP","Guntur",30,0,0
522124,"AP","Guntur",30,0,0
522262,"AP","Guntur",30,0,0
522310,"AP","Guntur",30,0,0
522124,"AP","Guntur",30,0,0
522261,"AP","Guntur",30,0,0
522306,"AP","Guntur",30,0,0
522324,"AP","Guntur",30,0,0
522341,"AP","Guntur",30,0,0
522308,"AP","Guntur",30,0,0
522101,"AP","Guntur",30,0,0
522212,"AP","Guntur",30,0,0
522113,"AP","Guntur",30,0,0
522261,"AP","Guntur",30,0,0
522309,"AP","Guntur",30,0,0
522101,"AP","Guntur",30,0,0
522212,"AP","Guntur",30,0,0
522202,"AP","Guntur",30,0,0
522318,"AP","Guntur",30,0,0
522113,"AP","Guntur",30,0,0
522316,"AP","Guntur",30,0,0
522261,"AP","Guntur",30,0,0
522212,"AP","Guntur",30,0,0
522213,"AP","Guntur",30,0,0
522325,"AP","Guntur",30,0,0
522306,"AP","Guntur",30,0,0
522265,"AP","Guntur",30,0,0
522202,"AP","Guntur",30,0,0
522111,"AP","Guntur",30,0,0
522113,"AP","Guntur",30,0,0
522124,"AP","Guntur",30,0,0
522264,"AP","Guntur",30,0,0
522113,"AP","Guntur",30,0,0
522306,"AP","Guntur",30,0,0
522315,"AP","Guntur",30,0,0
522111,"AP","Guntur",30,0,0
522201,"AP","Guntur",30,0,0
522313,"AP","Guntur",30,0,0
522304,"AP","Guntur",30,0,0
522304,"AP","Guntur",30,0,0
522257,"AP","Guntur",30,0,0
522307,"AP","Guntur",30,0,0
522212,"AP","Guntur",30,0,0
522265,"AP","Guntur",30,0,0
522268,"AP","Guntur",30,0,0
522259,"AP","Guntur",30,0,0
522330,"AP","Guntur",30,0,0
522262,"AP","Guntur",30,0,0
522265,"AP","Guntur",30,0,0
522261,"AP","Guntur",30,0,0
522258,"AP","Guntur",30,0,0
522316,"AP","Guntur",30,0,0
522256,"AP","Guntur",30,0,0
522301,"AP","Guntur",30,0,0
522259,"AP","Guntur",30,0,0
522265,"AP","Guntur",30,0,0
522259,"AP","Guntur",30,0,0
522329,"AP","Guntur",30,0,0
522304,"AP","Guntur",30,0,0
522113,"AP","Guntur",30,0,0
522201,"AP","Guntur",30,0,0
534315,"AP","West Godavari",15,0,0
534225,"AP","West Godavari",15,0,0
534281,"AP","West Godavari",15,0,0
534250,"AP","West Godavari",15,0,0
534222,"AP","West Godavari",15,0,0
534145,"AP","West Godavari",15,0,0
534146,"AP","West Godavari",15,0,0
534101,"AP","West Godavari",15,0,0
534111,"AP","West Godavari",15,0,0
534312,"AP","West Godavari",15,0,0
534238,"AP","West Godavari",15,0,0
534327,"AP","West Godavari",15,0,0
534126,"AP","West Godavari",15,0,0
534329,"AP","West Godavari",15,0,0
534275,"AP","West Godavari",15,0,0
534225,"AP","West Godavari",15,0,0
534340,"AP","West Godavari",15,0,0
534216,"AP","West Godavari",15,0,0
534199,"AP","West Godavari",15,0,0
534411,"AP","West Godavari",15,0,0
534134,"AP","West Godavari",15,0,0
534302,"AP","West Godavari",15,0,0
522301,"AP","Guntur",30,0,0
534239,"AP","West Godavari",15,0,0
522212,"AP","Guntur",30,0,0
522310,"AP","Guntur",30,0,0
522268,"AP","Guntur",30,0,0
522301,"AP","Guntur",30,0,0
522265,"AP","Guntur",30,0,0
522111,"AP","Guntur",30,0,0
522324,"AP","Guntur",30,0,0
522330,"AP","Guntur",30,0,0
534280,"AP","West Godavari",15,0,0
534247,"AP","West Godavari",15,0,0
534225,"AP","West Godavari",15,0,0
534318,"AP","West Godavari",15,0,0
534197,"AP","West Godavari",15,0,0
534240,"AP","West Godavari",15,0,0
534341,"AP","West Godavari",15,0,0
534318,"AP","West Godavari",15,0,0
534329,"AP","West Godavari",15,0,0
534239,"AP","West Godavari",15,0,0
534340,"AP","West Godavari",15,0,0
534134,"AP","West Godavari",15,0,0
534315,"AP","West Godavari",15,0,0
534328,"AP","West Godavari",15,0,0
534112,"AP","West Godavari",15,0,0
534302,"AP","West Godavari",15,0,0
534218,"AP","West Godavari",15,0,0
534165,"AP","West Godavari",15,0,0
534145,"AP","West Godavari",15,0,0
534202,"AP","West Godavari",15,0,0
534199,"AP","West Godavari",15,0,0
534207,"AP","West Godavari",15,0,0
534267,"AP","West Godavari",15,0,0
534320,"AP","West Godavari",15,0,0
534250,"AP","West Godavari",15,0,0
534211,"AP","West Godavari",15,0,0
522261,"AP","Guntur",30,0,0
522265,"AP","Guntur",30,0,0
522318,"AP","Guntur",30,0,0
522124,"AP","Guntur",30,0,0
522259,"AP","Guntur",30,0,0
522317,"AP","Guntur",30,0,0
522259,"AP","Guntur",30,0,0
522257,"AP","Guntur",30,0,0
522201,"AP","Guntur",30,0,0
522315,"AP","Guntur",30,0,0
522314,"AP","Guntur",30,0,0
522265,"AP","Guntur",30,0,0
522315,"AP","Guntur",30,0,0
522314,"AP","Guntur",30,0,0
522306,"AP","Guntur",30,0,0
522304,"AP","Guntur",30,0,0
522256,"AP","Guntur",30,0,0
522259,"AP","Guntur",30,0,0
522258,"AP","Guntur",30,0,0
534126,"AP","West Godavari",15,0,0
534123,"AP","West Godavari",15,0,0
534267,"AP","West Godavari",15,0,0
534239,"AP","West Godavari",15,0,0
534250,"AP","West Godavari",15,0,0
534101,"AP","West Godavari",15,0,0
534331,"AP","West Godavari",15,0,0
522314,"AP","Guntur",30,0,0
522211,"AP","Guntur",30,0,0
522211,"AP","Guntur",30,0,0
522213,"AP","Guntur",30,0,0
522325,"AP","Guntur",30,0,0
522124,"AP","Guntur",30,0,0
522258,"AP","Guntur",30,0,0
534166,"AP","West Godavari",15,0,0
522310,"AP","Guntur",30,0,0
534269,"AP","West Godavari",15,0,0
534236,"AP","West Godavari",15,0,0
534111,"AP","West Godavari",15,0,0
534301,"AP","West Godavari",15,0,0
534313,"AP","West Godavari",15,0,0
534302,"AP","West Godavari",15,0,0
534327,"AP","West Godavari",15,0,0
534243,"AP","West Godavari",15,0,0
534330,"AP","West Godavari",15,0,0
534202,"AP","West Godavari",15,0,0
534244,"AP","West Godavari",15,0,0
534302,"AP","West Godavari",15,0,0
534146,"AP","West Godavari",15,0,0
534240,"AP","West Godavari",15,0,0
534340,"AP","West Godavari",15,0,0
534195,"AP","West Godavari",15,0,0
534320,"AP","West Godavari",15,0,0
534313,"AP","West Godavari",15,0,0
534411,"AP","West Godavari",15,0,0
534316,"AP","West Godavari",15,0,0
534315,"AP","West Godavari",15,0,0
534313,"AP","West Godavari",15,0,0
534230,"AP","West Godavari",15,0,0
534275,"AP","West Godavari",15,0,0
534126,"AP","West Godavari",15,0,0
534199,"AP","West Godavari",15,0,0
534201,"AP","West Godavari",15,0,0
534218,"AP","West Godavari",15,0,0
522314,"AP","Guntur",30,0,0
522313,"AP","Guntur",30,0,0
522265,"AP","Guntur",30,0,0
522341,"AP","Guntur",30,0,0
522318,"AP","Guntur",30,0,0
522312,"AP","Guntur",30,0,0
522259,"AP","Guntur",30,0,0
522317,"AP","Guntur",30,0,0
522237,"AP","Guntur",30,0,0
522212,"AP","Guntur",30,0,0
522330,"AP","Guntur",30,0,0
522261,"AP","Guntur",30,0,0
522261,"AP","Guntur",30,0,0
522111,"AP","Guntur",30,0,0
522311,"AP","Guntur",30,0,0
522315,"AP","Guntur",30,0,0
522301,"AP","Guntur",30,0,0
522259,"AP","Guntur",30,0,0
522124,"AP","Guntur",30,0,0
534329,"AP","West Godavari",15,0,0
522268,"AP","Guntur",30,0,0
522309,"AP","Guntur",30,0,0
534245,"AP","West Godavari",15,0,0
522341,"AP","Guntur",30,0,0
534301,"AP","West Godavari",15,0,0
534250,"AP","West Godavari",15,0,0
534315,"AP","West Godavari",15,0,0
534235,"AP","West Godavari",15,0,0
534201,"AP","West Godavari",15,0,0
534329,"AP","West Godavari",15,0,0
534305,"AP","West Godavari",15,0,0
534315,"AP","West Godavari",15,0,0
522202,"AP","Guntur",30,0,0
522212,"AP","Guntur",30,0,0
534275,"AP","West Godavari",15,0,0
534340,"AP","West Godavari",15,0,0
534281,"AP","West Godavari",15,0,0
522302,"AP","Guntur",30,0,0
522306,"AP","Guntur",30,0,0
522124,"AP","Guntur",30,0,0
522213,"AP","Guntur",30,0,0
522262,"AP","Guntur",30,0,0
522264,"AP","Guntur",30,0,0
534243,"AP","West Godavari",15,0,0
534331,"AP","West Godavari",15,0,0
534342,"AP","West Godavari",15,0,0
534102,"AP","West Godavari",15,0,0
534186,"AP","West Godavari",15,0,0
534340,"AP","West Godavari",15,0,0
534338,"AP","West Godavari",15,0,0
534268,"AP","West Godavari",15,0,0
522256,"AP","Guntur",30,0,0
534206,"AP","West Godavari",15,0,0
522311,"AP","Guntur",30,0,0
522212,"AP","Guntur",30,0,0
522324,"AP","Guntur",30,0,0
522265,"AP","Guntur",30,0,0
522330,"AP","Guntur",30,0,0
522341,"AP","Guntur",30,0,0
534235,"AP","West Godavari",15,0,0
534266,"AP","West Godavari",15,0,0
534124,"AP","West Godavari",15,0,0
522324,"AP","Guntur",30,0,0
534199,"AP","West Godavari",15,0,0
534206,"AP","West Godavari",15,0,0
534122,"AP","West Godavari",15,0,0
534186,"AP","West Godavari",15,0,0
534341,"AP","West Godavari",15,0,0
534247,"AP","West Godavari",15,0,0
534411,"AP","West Godavari",15,0,0
534196,"AP","West Godavari",15,0,0
534134,"AP","West Godavari",15,0,0
534320,"AP","West Godavari",15,0,0
534313,"AP","West Godavari",15,0,0
534235,"AP","West Godavari",15,0,0
534126,"AP","West Godavari",15,0,0
534101,"AP","West Godavari",15,0,0
522325,"AP","Guntur",30,0,0
522212,"AP","Guntur",30,0,0
522265,"AP","Guntur",30,0,0
522102,"AP","Guntur",30,0,0
534340,"AP","West Godavari",15,0,0
534265,"AP","West Godavari",15,0,0
522324,"AP","Guntur",30,0,0
534330,"AP","West Godavari",15,0,0
534197,"AP","West Godavari",15,0,0
534269,"AP","West Godavari",15,0,0
534225,"AP","West Godavari",15,0,0
522312,"AP","Guntur",30,0,0
534146,"AP","West Godavari",15,0,0
522308,"AP","Guntur",30,0,0
534320,"AP","West Godavari",15,0,0
522325,"AP","Guntur",30,0,0
534316,"AP","West Godavari",15,0,0
534315,"AP","West Godavari",15,0,0
534320,"AP","West Godavari",15,0,0
534240,"AP","West Godavari",15,0,0
534101,"AP","West Godavari",15,0,0
534102,"AP","West Godavari",15,0,0
522265,"AP","Guntur",30,0,0
522311,"AP","Guntur",30,0,0
522262,"AP","Guntur",30,0,0
534206,"AP","West Godavari",15,0,0
534301,"AP","West Godavari",15,0,0
522212,"AP","Guntur",30,0,0
534275,"AP","West Godavari",15,0,0
522301,"AP","Guntur",30,0,0
522262,"AP","Guntur",30,0,0
522313,"AP","Guntur",30,0,0
522257,"AP","Guntur",30,0,0
522313,"AP","Guntur",30,0,0
522261,"AP","Guntur",30,0,0
522257,"AP","Guntur",30,0,0
522258,"AP","Guntur",30,0,0
534315,"AP","West Godavari",15,0,0
534198,"AP","West Godavari",15,0,0
534227,"AP","West Godavari",15,0,0
534230,"AP","West Godavari",15,0,0
534126,"AP","West Godavari",15,0,0
534237,"AP","West Godavari",15,0,0
534204,"AP","West Godavari",15,0,0
534196,"AP","West Godavari",15,0,0
534112,"AP","West Godavari",15,0,0
534315,"AP","West Godavari",15,0,0
534239,"AP","West Godavari",15,0,0
534301,"AP","West Godavari",15,0,0
534341,"AP","West Godavari",15,0,0
522310,"AP","Guntur",30,0,0
534211,"AP","West Godavari",15,0,0
534331,"AP","West Godavari",15,0,0
534340,"AP","West Godavari",15,0,0
534235,"AP","West Godavari",15,0,0
534222,"AP","West Godavari",15,0,0
534166,"AP","West Godavari",15,0,0
534305,"AP","West Godavari",15,0,0
534225,"AP","West Godavari",15,0,0
534305,"AP","West Godavari",15,0,0
534341,"AP","West Godavari",15,0,0
534330,"AP","West Godavari",15,0,0
792103,"AR","Lohit",1,0,0
792001,"AR","Lohit",1,0,0
792105,"AR","Lohit",1,0,0
792111,"AR","Lohit",1,0,0
792103,"AR","Lohit",1,0,0
792111,"AR","Lohit",1,0,0
792001,"AR","Lohit",1,0,0
792105,"AR","Lohit",1,0,0
792001,"AR","Lohit",1,0,0
792103,"AR","Lohit",1,0,0
792103,"AR","Lohit",1,0,0
792102,"AR","Lohit",1,0,0
792001,"AR","Lohit",1,0,0
792103,"AR","Lohit",1,0,0
792103,"AR","Lohit",1,0,0
792102,"AR","Lohit",1,0,0
792105,"AR","Lohit",1,0,0
792102,"AR","Lohit",1,0,0
792102,"AR","Lohit",1,0,0
792001,"AR","Lohit",1,0,0
792102,"AR","Lohit",1,0,0
792001,"AR","Lohit",1,0,0
792104,"AR","Lohit",1,0,0
792103,"AR","Lohit",1,0,0
792001,"AR","Lohit",1,0,0
792102,"AR","Lohit",1,0,0
792102,"AR","Lohit",1,0,0
792103,"AR","Lohit",1,0,0
792102,"AR","Lohit",1,0,0
792001,"AR","Lohit",1,0,0
792001,"AR","Lohit",1,0,0
792103,"AR","Lohit",1,0,0
792103,"AR","Lohit",1,0,0
801505,"BR","Patna",4,0,0
811104,"BR","Patna",4,0,0
800009,"BR","Patna",4,0,0
801503,"BR","Patna",4,0,0
800020,"BR","Patna",4,0,0
804453,"BR","Patna",4,0,0
801110,"BR","Patna",4,0,0
800002,"BR","Patna",4,0,0
800012,"BR","Patna",4,0,0
801104,"BR","Patna",4,0,0
811104,"BR","Nalanda",2,0,0
804452,"BR","Patna",4,0,0
801103,"BR","Patna",4,0,0
801102,"BR","Patna",4,0,0
811104,"BR","Nalanda",2,0,0
811104,"BR","Nalanda",2,0,0
811104,"BR","Nalanda",2,0,0
811104,"BR","Nalanda",2,0,0
811104,"BR","Nalanda",2,0,0
803201,"BR","Patna",4,0,0
800024,"BR","Patna",4,0,0
801108,"BR","Patna",4,0,0
800007,"BR","Patna",4,0,0
801113,"BR","Patna",4,0,0
811104,"BR","Nalanda",2,0,0
803114,"BR","Nalanda",2,0,0
811104,"BR","Nalanda",2,0,0
804453,"BR","Patna",4,0,0
801105,"BR","Patna",4,0,0
801112,"BR","Patna",4,0,0
801503,"BR","Patna",4,0,0
801111,"BR","Patna",4,0,0
801506,"BR","Patna",4,0,0
804454,"BR","Patna",4,0,0
110002,"DL","New Delhi",5,0,0
382722,"GJ","Gandhinagar",13,0,0
363623,"GJ","Morbi",1,0,0
394550,"GJ","Surat",15,1,0
362650,"GJ","Porbandar",3,0,0
133008,"HR","Ambala",3,0,0
134007,"HR","Ambala",3,0,0
127026,"HR","Bhiwani",2,0,0
136027,"HR","Kaithal",1,0,0
132106,"HR","Panipat",4,0,0
194103,"JK","Kargil",3,0,0
194103,"JK","Kargil",3,0,0
194103,"JK","Kargil",3,0,0
194302,"JK","Kargil",3,0,0
194301,"JK","Kargil",3,0,0
194102,"JK","Kargil",3,0,0
194303,"JK","Kargil",3,0,0
194103,"JK","Kargil",3,0,0
194103,"JK","Kargil",3,0,0
194303,"JK","Kargil",3,0,0
194109,"JK","Kargil",3,0,0
194103,"JK","Kargil",3,0,0
194202,"JK","Leh",11,0,0
194109,"JK","Kargil",3,0,0
194103,"JK","Kargil",3,0,0
194102,"JK","Kargil",3,0,0
194303,"JK","Kargil",3,0,0
194109,"JK","Kargil",3,0,0
194109,"JK","Kargil",3,0,0
194103,"JK","Kargil",3,0,0
194201,"JK","Leh",11,0,0
194401,"JK","Leh",11,0,0
194107,"JK","Leh",11,0,0
194102,"JK","Kargil",3,0,0
194102,"JK","Kargil",3,0,0
194303,"JK","Kargil",3,0,0
194103,"JK","Kargil",3,0,0
194301,"JK","Kargil",3,0,0
194109,"JK","Kargil",3,0,0
194301,"JK","Kargil",3,0,0
194301,"JK","Kargil",3,0,0
194103,"JK","Kargil",3,0,0
194103,"JK","Kargil",3,0,0
194109,"JK","Kargil",3,0,0
194103,"JK","Kargil",3,0,0
194104,"JK","Leh",11,0,0
194103,"JK","Kargil",3,0,0
194201,"JK","Leh",11,0,0
194302,"JK","Kargil",3,0,0
194109,"JK","Kargil",3,0,0
194102,"JK","Kargil",3,0,0
194103,"JK","Kargil",3,0,0
194302,"JK","Kargil",3,0,0
194109,"JK","Kargil",3,0,0
194109,"JK","Kargil",3,0,0
194302,"JK","Kargil",3,0,0
194101,"JK","Leh",11,0,0
194101,"JK","Leh",11,0,0
194105,"JK","Kargil",3,0,0
194107,"JK","Leh",11,0,0
194107,"JK","Leh",11,0,0
194303,"JK","Kargil",3,0,0
194109,"JK","Kargil",3,0,0
194103,"JK","Kargil",3,0,0
194102,"JK","Kargil",3,0,0
194301,"JK","Kargil",3,0,0
194109,"JK","Kargil",3,0,0
194103,"JK","Kargil",3,0,0
194301,"JK","Kargil",3,0,0
194101,"JK","Leh",11,0,0
194103,"JK","Kargil",3,0,0
194101,"JK","Leh",11,0,0
194104,"JK","Leh",11,0,0
194105,"JK","Leh",11,0,0
194201,"JK","Leh",11,0,0
194106,"JK","Leh",11,0,0
194106,"JK","Leh",11,0,0
194106,"JK","Leh",11,0,0
194104,"JK","Leh",11,0,0
194106,"JK","Leh",11,0,0
194401,"JK","Leh",11,0,0
194106,"JK","Leh",11,0,0
194202,"JK","Leh",11,0,0
194202,"JK","Leh",11,0,0
194404,"JK","Leh",11,0,0
194106,"JK","Leh",11,0,0
194106,"JK","Leh",11,0,0
194201,"JK","Leh",11,0,0
194106,"JK","Leh",11,0,0
194201,"JK","Leh",11,0,0
194101,"JK","Leh",11,0,0
194202,"JK","Leh",11,0,0
194201,"JK","Leh",11,0,0
194401,"JK","Leh",11,0,0
194401,"JK","Leh",11,0,0
194401,"JK","Leh",11,0,0
194401,"JK","Leh",11,0,0
194104,"JK","Leh",11,0,0
194106,"JK","Leh",11,0,0
194202,"JK","Leh",11,0,0
194107,"JK","Leh",11,0,0
194402,"JK","Leh",11,0,0
194201,"JK","Leh",11,0,0
194103,"JK","Kargil",3,0,0
194301,"JK","Kargil",3,0,0
194103,"JK","Kargil",3,0,0
194109,"JK","Kargil",3,0,0
194104,"JK","Leh",11,0,0
194104,"JK","Leh",11,0,0
194201,"JK","Leh",11,0,0
194101,"JK","Leh",11,0,0
194107,"JK","Leh",11,0,0
194106,"JK","Leh",11,0,0
194401,"JK","Leh",11,0,0
194401,"JK","Leh",11,0,0
194106,"JK","Leh",11,0,0
194107,"JK","Leh",11,0,0
194104,"JK","Leh",11,0,0
194201,"JK","Leh",11,0,0
194101,"JK","Leh",11,0,0
194106,"JK","Leh",11,0,0
194401,"JK","Leh",11,0,0
825405,"JH","Hazaribagh",1,0,0
825323,"JH","Hazaribagh",1,0,0
825411,"JH","Hazaribagh",1,0,0
825323,"JH","Hazaribagh",1,0,0
825411,"JH","Hazaribagh",1,0,0
825405,"JH","Hazaribagh",1,0,0
825323,"JH","Hazaribagh",1,0,0
825323,"JH","Hazaribagh",1,0,0
825405,"JH","Hazaribagh",1,0,0
825405,"JH","Hazaribagh",1,0,0
825405,"JH","Hazaribagh",1,0,0
585436,"KA","Bidar",10,0,0
585443,"KA","Bidar",10,0,0
585328,"KA","Bidar",10,0,0
585437,"KA","Bidar",10,0,0
585419,"KA","Bidar",10,0,0
585419,"KA","Bidar",10,0,0
585327,"KA","Bidar",10,0,0
585329,"KA","Bidar",10,0,0
585418,"KA","Bidar",10,0,0
585417,"KA","Bidar",10,0,0
585436,"KA","Bidar",10,0,0
585227,"KA","Bidar",10,0,0
585415,"KA","Bidar",10,0,0
585418,"KA","Bidar",10,0,0
585437,"KA","Bidar",10,0,0
585226,"KA","Bidar",10,0,0
585416,"KA","Bidar",10,0,0
585403,"KA","Bidar",10,0,0
585413,"KA","Bidar",10,0,0
585421,"KA","Bidar",10,0,0
585416,"KA","Bidar",10,0,0
585403,"KA","Bidar",10,0,0
585413,"KA","Bidar",10,0,0
585414,"KA","Bidar",10,0,0
585444,"KA","Bidar",10,0,0
585418,"KA","Bidar",10,0,0
585411,"KA","Bidar",10,0,0
585327,"KA","Bidar",10,0,0
585227,"KA","Bidar",10,0,0
585328,"KA","Bidar",10,0,0
585412,"KA","Bidar",10,0,0
585437,"KA","Bidar",10,0,0
585436,"KA","Bidar",10,0,0
585403,"KA","Bidar",10,0,0
585403,"KA","Bidar",10,0,0
585411,"KA","Bidar",10,0,0
585226,"KA","Bidar",10,0,0
585437,"KA","Bidar",10,0,0
585227,"KA","Bidar",10,0,0
585226,"KA","Bidar",10,0,0
585417,"KA","Bidar",10,0,0
585437,"KA","Bidar",10,0,0
585444,"KA","Bidar",10,0,0
585328,"KA","Bidar",10,0,0
585227,"KA","Bidar",10,0,0
585329,"KA","Bidar",10,0,0
585417,"KA","Bidar",10,0,0
585413,"KA","Bidar",10,0,0
585417,"KA","Bidar",10,0,0
585412,"KA","Bidar",10,0,0
585437,"KA","Bidar",10,0,0
585327,"KA","Bidar",10,0,0
585421,"KA","Bidar",10,0,0
585226,"KA","Bidar",10,0,0
585403,"KA","Bidar",10,0,0
585329,"KA","Bidar",10,0,0
585415,"KA","Bidar",10,0,0
585329,"KA","Bidar",10,0,0
585418,"KA","Bidar",10,0,0
585414,"KA","Bidar",10,0,0
585417,"KA","Bidar",10,0,0
585412,"KA","Bidar",10,0,0
585421,"KA","Bidar",10,0,0
560018,"KA","Bengaluru",44,0,9
560073,"KA","Bengaluru",44,0,9
560098,"KA","Bengaluru",44,0,9
560072,"KA","Bengaluru",44,0,9
560007,"KA","Bengaluru",44,0,9
585326,"KA","Bidar",10,0,0
585402,"KA","Bidar",10,0,0
585226,"KA","Bidar",10,0,0
585328,"KA","Bidar",10,0,0
585327,"KA","Bidar",10,0,0
585403,"KA","Bidar",10,0,0
585326,"KA","Bidar",10,0,0
585403,"KA","Bidar",10,0,0
585411,"KA","Bidar",10,0,0
585328,"KA","Bidar",10,0,0
585227,"KA","Bidar",10,0,0
585437,"KA","Bidar",10,0,0
585327,"KA","Bidar",10,0,0
585416,"KA","Bidar",10,0,0
585413,"KA","Bidar",10,0,0
585326,"KA","Bidar",10,0,0
585331,"KA","Bidar",10,0,0
585227,"KA","Bidar",10,0,0
585326,"KA","Bidar",10,0,0
585444,"KA","Bidar",10,0,0
585402,"KA","Bidar",10,0,0
585401,"KA","Bidar",10,0,0
585443,"KA","Bidar",10,0,0
585403,"KA","Bidar",10,0,0
585417,"KA","Bidar",10,0,0
585443,"KA","Bidar",10,0,0
585326,"KA","Bidar",10,0,0
585412,"KA","Bidar",10,0,0
585326,"KA","Bidar",10,0,0
585329,"KA","Bidar",10,0,0
585443,"KA","Bidar",10,0,0
585403,"KA","Bidar",10,0,0
585402,"KA","Bidar",10,0,0
585326,"KA","Bidar",10,0,0
585403,"KA","Bidar",10,0,0
585413,"KA","Bidar",10,0,0
585411,"KA","Bidar",10,0,0
585331,"KA","Bidar",10,0,0
585329,"KA","Bidar",10,0,0
585227,"KA","Bidar",10,0,0
585437,"KA","Bidar",10,0,0
585330,"KA","Bidar",10,0,0
585329,"KA","Bidar",10,0,0
585402,"KA","Bidar",10,0,0
585445,"KA","Bidar",10,0,0
585328,"KA","Bidar",10,0,0
585353,"KA","Bidar",10,0,0
585401,"KA","Bidar",10,0,0
585353,"KA","Bidar",10,0,0
585413,"KA","Bidar",10,0,0
585227,"KA","Bidar",10,0,0
585326,"KA","Bidar",10,0,0
585326,"KA","Bidar",10,0,0
585418,"KA","Bidar",10,0,0
585416,"KA","Bidar",10,0,0
585403,"KA","Bidar",10,0,0
585402,"KA","Bidar",10,0,0
585226,"KA","Bidar",10,0,0
585326,"KA","Bidar",10,0,0
585419,"KA","Bidar",10,0,0
585402,"KA","Bidar",10,0,0
585413,"KA","Bidar",10,0,0
585412,"KA","Bidar",10,0,0
585327,"KA","Bidar",10,0,0
585412,"KA","Bidar",10,0,0
585326,"KA","Bidar",10,0,0
585403,"KA","Bidar",10,0,0
585418,"KA","Bidar",10,0,0
585419,"KA","Bidar",10,0,0
585416,"KA","Bidar",10,0,0
585328,"KA","Bidar",10,0,0
585414,"KA","Bidar",10,0,0
585421,"KA","Bidar",10,0,0
585328,"KA","Bidar",10,0,0
585328,"KA","Bidar",10,0,0
585330,"KA","Bidar",10,0,0
585418,"KA","Bidar",10,0,0
585327,"KA","Bidar",10,0,0
585402,"KA","Bidar",10,0,0
585419,"KA","Bidar",10,0,0
585403,"KA","Bidar",10,0,0
585445,"KA","Bidar",10,0,0
585327,"KA","Bidar",10,0,0
585402,"KA","Bidar",10,0,0
585330,"KA","Bidar",10,0,0
585413,"KA","Bidar",10,0,0
585413,"KA","Bidar",10,0,0
585329,"KA","Bidar",10,0,0
585331,"KA","Bidar",10,0,0
585226,"KA","Bidar",10,0,0
585401,"KA","Bidar",10,0,0
585403,"KA","Bidar",10,0,0
585401,"KA","Bidar",10,0,0
585421,"KA","Bidar",10,0,0
585328,"KA","Bidar",10,0,0
585327,"KA","Bidar",10,0,0
585402,"KA","Bidar",10,0,0
585445,"KA","Bidar",10,0,0
585436,"KA","Bidar",10,0,0
585421,"KA","Bidar",10,0,0
585421,"KA","Bidar",10,0,0
585326,"KA","Bidar",10,0,0
585416,"KA","Bidar",10,0,0
585444,"KA","Bidar",10,0,0
585444,"KA","Bidar",10,0,0
585417,"KA","Bidar",10,0,0
585444,"KA","Bidar",10,0,0
585227,"KA","Bidar",10,0,0
585227,"KA","Bidar",10,0,0
585327,"KA","Bidar",10,0,0
585326,"KA","Bidar",10,0,0
585421,"KA","Bidar",10,0,0
585402,"KA","Bidar",10,0,0
585436,"KA","Bidar",10,0,0
585329,"KA","Bidar",10,0,0
585327,"KA","Bidar",10,0,0
585331,"KA","Bidar",10,0,0
585330,"KA","Bidar",10,0,0
585227,"KA","Bidar",10,0,0
585417,"KA","Bidar",10,0,0
585353,"KA","Bidar",10,0,0
585226,"KA","Bidar",10,0,0
585402,"KA","Bidar",10,0,0
585403,"KA","Bidar",10,0,0
585436,"KA","Bidar",10,0,0
585328,"KA","Bidar",10,0,0
585227,"KA","Bidar",10,0,0
585327,"KA","Bidar",10,0,0
585421,"KA","Bidar",10,0,0
585226,"KA","Bidar",10,0,0
585421,"KA","Bidar",10,0,0
585445,"KA","Bidar",10,0,0
585326,"KA","Bidar",10,0,0
585402,"KA","Bidar",10,0,0
585437,"KA","Bidar",10,0,0
585226,"KA","Bidar",10,0,0
585412,"KA","Bidar",10,0,0
585443,"KA","Bidar",10,0,0
585402,"KA","Bidar",10,0,0
585403,"KA","Bidar",10,0,0
585326,"KA","Bidar",10,0,0
585402,"KA","Bidar",10,0,0
585411,"KA","Bidar",10,0,0
585437,"KA","Bidar",10,0,0
585328,"KA","Bidar",10,0,0
585418,"KA","Bidar",10,0,0
585418,"KA","Bidar",10,0,0
585414,"KA","Bidar",10,0,0
585328,"KA","Bidar",10,0,0
585327,"KA","Bidar",10,0,0
585421,"KA","Bidar",10,0,0
585415,"KA","Bidar",10,0,0
585327,"KA","Bidar",10,0,0
585328,"KA","Bidar",10,0,0
585413,"KA","Bidar",10,0,0
585437,"KA","Bidar",10,0,0
585445,"KA","Bidar",10,0,0
585436,"KA","Bidar",10,0,0
585331,"KA","Bidar",10,0,0
585419,"KA","Bidar",10,0,0
585417,"KA","Bidar",10,0,0
585403,"KA","Bidar",10,0,0
585418,"KA","Bidar",10,0,0
585403,"KA","Bidar",10,0,0
585437,"KA","Bidar",10,0,0
585226,"KA","Bidar",10,0,0
585417,"KA","Bidar",10,0,0
585403,"KA","Bidar",10,0,0
585330,"KA","Bidar",10,0,0
585328,"KA","Bidar",10,0,0
585414,"KA","Bidar",10,0,0
585327,"KA","Bidar",10,0,0
585414,"KA","Bidar",10,0,0
585327,"KA","Bidar",10,0,0
585226,"KA","Bidar",10,0,0
585403,"KA","Bidar",10,0,0
585326,"KA","Bidar",10,0,0
585411,"KA","Bidar",10,0,0
585329,"KA","Bidar",10,0,0
585416,"KA","Bidar",10,0,0
585328,"KA","Bidar",10,0,0
585353,"KA","Bidar",10,0,0
585402,"KA","Bidar",10,0,0
585327,"KA","Bidar",10,0,0
585415,"KA","Bidar",10,0,0
585413,"KA","Bidar",10,0,0
585443,"KA","Bidar",10,0,0
571102,"KA","Mysuru",28,0,0
571124,"KA","Mysuru",28,0,0
571129,"KA","Mysuru",28,0,0
571129,"KA","Mysuru",28,0,0
570004,"KA","Mysuru",28,0,0
571124,"KA","Mysuru",28,0,0
570026,"KA","Mysuru",28,0,0
571121,"KA","Mysuru",28,0,0
570016,"KA","Mysuru",28,0,0
571130,"KA","Mysuru",28,0,0
571114,"KA","Mysuru",28,0,0
571315,"KA","Mysuru",28,0,0
570008,"KA","Mysuru",28,0,0
571102,"KA","Mysuru",28,0,0
571189,"KA","Mysuru",28,0,0
571134,"KA","Mysuru",28,0,0
571104,"KA","Mysuru",28,0,0
571118,"KA","Mysuru",28,0,0
571130,"KA","Mysuru",28,0,0
571101,"KA","Mysuru",28,0,0
571119,"KA","Mysuru",28,0,0
571107,"KA","Mysuru",28,0,0
571312,"KA","Mysuru",28,0,0
571102,"KA","Mysuru",28,0,0
571119,"KA","Mysuru",28,0,0
571610,"KA","Mysuru",28,0,0
570001,"KA","Mysuru",28,0,0
571122,"KA","Mysuru",28,0,0
570032,"KA","Mysuru",28,0,0
571601,"KA","Mysuru",28,0,0
571315,"KA","Mysuru",28,0,0
571103,"KA","Mysuru",28,0,0
570008,"KA","Mysuru",28,0,0
571105,"KA","Mysuru",28,0,0
571121,"KA","Mysuru",28,0,0
571129,"KA","Mysuru",28,0,0
570004,"KA","Mysuru",28,0,0
571105,"KA","Mysuru",28,0,0
571122,"KA","Mysuru",28,0,0
571114,"KA","Mysuru",28,0,0
571603,"KA","Mysuru",28,0,0
570004,"KA","Mysuru",28,0,0
571101,"KA","Mysuru",28,0,0
571311,"KA","Mysuru",28,0,0
571128,"KA","Mysuru",28,0,0
571315,"KA","Mysuru",28,0,0
571102,"KA","Mysuru",28,0,0
571116,"KA","Mysuru",28,0,0
571602,"KA","Mysuru",28,0,0
570034,"KA","Mysuru",28,0,0
571107,"KA","Mysuru",28,0,0
571110,"KA","Mysuru",28,0,0
570010,"KA","Mysuru",28,0,0
570002,"KA","Mysuru",28,0,0
570010,"KA","Mysuru",28,0,0
571103,"KA","Mysuru",28,0,0
570030,"KA","Mysuru",28,0,0
571302,"KA","Mysuru",28,0,0
571102,"KA","Mysuru",28,0,0
571105,"KA","Mysuru",28,0,0
571102,"KA","Mysuru",28,0,0
570001,"KA","Mysuru",28,0,0
571311,"KA","Mysuru",28,0,0
571120,"KA","Mysuru",28,0,0
571121,"KA","Mysuru",28,0,0
571302,"KA","Mysuru",28,0,0
571118,"KA","Mysuru",28,0,0
571124,"KA","Mysuru",28,0,0
571122,"KA","Mysuru",28,0,0
570005,"KA","Mysuru",28,0,0
570011,"KA","Mysuru",28,0,0
571125,"KA","Mysuru",28,0,0
570010,"KA","Mysuru",28,0,0
571121,"KA","Mysuru",28,0,0
571311,"KA","Mysuru",28,0,0
571121,"KA","Mysuru",28,0,0
571302,"KA","Mysuru",28,0,0
571124,"KA","Mysuru",28,0,0
570008,"KA","Mysuru",28,0,0
571602,"KA","Mysuru",28,0,0
570007,"KA","Mysuru",28,0,0
571187,"KA","Mysuru",28,0,0
571101,"KA","Mysuru",28,0,0
571314,"KA","Mysuru",28,0,0
571124,"KA","Mysuru",28,0,0
571101,"KA","Mysuru",28,0,0
571124,"KA","Mysuru",28,0,0
570026,"KA","Mysuru",28,0,0
571105,"KA","Mysuru",28,0,0
571602,"KA","Mysuru",28,0,0
570028,"KA","Mysuru",28,0,0
571617,"KA","Mysuru",28,0,0
571603,"KA","Mysuru",28,0,0
570016,"KA","Mysuru",28,0,0
571114,"KA","Mysuru",28,0,0
571312,"KA","Mysuru",28,0,0
571124,"KA","Mysuru",28,0,0
570017,"KA","Mysuru",28,0,0
571601,"KA","Mysuru",28,0,0
571114,"KA","Mysuru",28,0,0
571102,"KA","Mysuru",28,0,0
585331,"KA","Bidar",10,0,0
570004,"KA","Mysuru",28,0,0
571119,"KA","Mysuru",28,0,0
571102,"KA","Mysuru",28,0,0
571121,"KA","Mysuru",28,0,0
571124,"KA","Mysuru",28,0,0
571617,"KA","Mysuru",28,0,0
571602,"KA","Mysuru",28,0,0
571103,"KA","Mysuru",28,0,0
571122,"KA","Mysuru",28,0,0
571105,"KA","Mysuru",28,0,0
571604,"KA","Mysuru",28,0,0
571101,"KA","Mysuru",28,0,0
571130,"KA","Mysuru",28,0,0
571189,"KA","Mysuru",28,0,0
571189,"KA","Mysuru",28,0,0
571187,"KA","Mysuru",28,0,0
570003,"KA","Mysuru",28,0,0
571125,"KA","Mysuru",28,0,0
571134,"KA","Mysuru",28,0,0
571312,"KA","Mysuru",28,0,0
571311,"KA","Mysuru",28,0,0
571601,"KA","Mysuru",28,0,0
570006,"KA","Mysuru",28,0,0
571101,"KA","Mysuru",28,0,0
571121,"KA","Mysuru",28,0,0
571129,"KA","Mysuru",28,0,0
571189,"KA","Mysuru",28,0,0
570008,"KA","Mysuru",28,0,0
570010,"KA","Mysuru",28,0,0
571315,"KA","Mysuru",28,0,0
571102,"KA","Mysuru",28,0,0
571601,"KA","Mysuru",28,0,0
570007,"KA","Mysuru",28,0,0
571604,"KA","Mysuru",28,0,0
571120,"KA","Mysuru",28,0,0
571118,"KA","Mysuru",28,0,0
570022,"KA","Mysuru",28,0,0
571103,"KA","Mysuru",28,0,0
570026,"KA","Mysuru",28,0,0
571122,"KA","Mysuru",28,0,0
571134,"KA","Mysuru",28,0,0
570008,"KA","Mysuru",28,0,0
571118,"KA","Mysuru",28,0,0
571114,"KA","Mysuru",28,0,0
570008,"KA","Mysuru",28,0,0
571103,"KA","Mysuru",28,0,0
571110,"KA","Mysuru",28,0,0
571604,"KA","Mysuru",28,0,0
570029,"KA","Mysuru",28,0,0
571102,"KA","Mysuru",28,0,0
570004,"KA","Mysuru",28,0,0
571602,"KA","Mysuru",28,0,0
570005,"KA","Mysuru",28,0,0
571314,"KA","Mysuru",28,0,0
571124,"KA","Mysuru",28,0,0
571108,"KA","Mysuru",28,0,0
571119,"KA","Mysuru",28,0,0
571311,"KA","Mysuru",28,0,0
571105,"KA","Mysuru",28,0,0
571120,"KA","Mysuru",28,0,0
571108,"KA","Mysuru",28,0,0
571189,"KA","Mysuru",28,0,0
571120,"KA","Mysuru",28,0,0
571119,"KA","Mysuru",28,0,0
571314,"KA","Mysuru",28,0,0
571314,"KA","Mysuru",28,0,0
570008,"KA","Mysuru",28,0,0
570009,"KA","Mysuru",28,0,0
571124,"KA","Mysuru",28,0,0
570026,"KA","Mysuru",28,0,0
570002,"KA","Mysuru",28,0,0
571602,"KA","Mysuru",28,0,0
571102,"KA","Mysuru",28,0,0
571103,"KA","Mysuru",28,0,0
571102,"KA","Mysuru",28,0,0
570020,"KA","Mysuru",28,0,0
571602,"KA","Mysuru",28,0,0
571604,"KA","Mysuru",28,0,0
571124,"KA","Mysuru",28,0,0
571130,"KA","Mysuru",28,0,0
571602,"KA","Mysuru",28,0,0
571124,"KA","Mysuru",28,0,0
570031,"KA","Mysuru",28,0,0
571121,"KA","Mysuru",28,0,0
571601,"KA","Mysuru",28,0,0
571130,"KA","Mysuru",28,0,0
571301,"KA","Mysuru",28,0,0
571129,"KA","Mysuru",28,0,0
571315,"KA","Mysuru",28,0,0
571129,"KA","Mysuru",28,0,0
571125,"KA","Mysuru",28,0,0
585417,"KA","Bidar",10,0,0
571314,"KA","Mysuru",28,0,0
571311,"KA","Mysuru",28,0,0
571102,"KA","Mysuru",28,0,0
571114,"KA","Mysuru",28,0,0
571120,"KA","Mysuru",28,0,0
571101,"KA","Mysuru",28,0,0
571116,"KA","Mysuru",28,0,0
570028,"KA","Mysuru",28,0,0
571116,"KA","Mysuru",28,0,0
571121,"KA","Mysuru",28,0,0
570001,"KA","Mysuru",28,0,0
570026,"KA","Mysuru",28,0,0
571108,"KA","Mysuru",28,0,0
571311,"KA","Mysuru",28,0,0
570003,"KA","Mysuru",28,0,0
570026,"KA","Mysuru",28,0,0
571114,"KA","Mysuru",28,0,0
571118,"KA","Mysuru",28,0,0
570026,"KA","Mysuru",28,0,0
570020,"KA","Mysuru",28,0,0
570025,"KA","Mysuru",28,0,0
571610,"KA","Mysuru",28,0,0
571103,"KA","Mysuru",28,0,0
571118,"KA","Mysuru",28,0,0
571601,"KA","Mysuru",28,0,0
571617,"KA","Mysuru",28,0,0
571104,"KA","Mysuru",28,0,0
571122,"KA","Mysuru",28,0,0
571120,"KA","Mysuru",28,0,0
571119,"KA","Mysuru",28,0,0
571105,"KA","Mysuru",28,0,0
571105,"KA","Mysuru",28,0,0
571121,"KA","Mysuru",28,0,0
571107,"KA","Mysuru",28,0,0
571301,"KA","Mysuru",28,0,0
571129,"KA","Mysuru",28,0,0
571114,"KA","Mysuru",28,0,0
570008,"KA","Mysuru",28,0,0
571617,"KA","Mysuru",28,0,0
571315,"KA","Mysuru",28,0,0
571602,"KA","Mysuru",28,0,0
570023,"KA","Mysuru",28,0,0
571102,"KA","Mysuru",28,0,0
571107,"KA","Mysuru",28,0,0
571102,"KA","Mysuru",28,0,0
571124,"KA","Mysuru",28,0,0
571315,"KA","Mysuru",28,0,0
570028,"KA","Mysuru",28,0,0
571601,"KA","Mysuru",28,0,0
571105,"KA","Mysuru",28,0,0
570015,"KA","Mysuru",28,0,0
571311,"KA","Mysuru",28,0,0
571311,"KA","Mysuru",28,0,0
571604,"KA","Mysuru",28,0,0
571189,"KA","Mysuru",28,0,0
571187,"KA","Mysuru",28,0,0
571134,"KA","Mysuru",28,0,0
571107,"KA","Mysuru",28,0,0
571107,"KA","Mysuru",28,0,0
571314,"KA","Mysuru",28,0,0
571604,"KA","Mysuru",28,0,0
570019,"KA","Mysuru",28,0,0
571187,"KA","Mysuru",28,0,0
571617,"KA","Mysuru",28,0,0
571118,"KA","Mysuru",28,0,0
571101,"KA","Mysuru",28,0,0
571603,"KA","Mysuru",28,0,0
571617,"KA","Mysuru",28,0,0
571602,"KA","Mysuru",28,0,0
571108,"KA","Mysuru",28,0,0
571104,"KA","Mysuru",28,0,0
570027,"KA","Mysuru",28,0,0
571602,"KA","Mysuru",28,0,0
570023,"KA","Mysuru",28,0,0
570014,"KA","Mysuru",28,0,0
571120,"KA","Mysuru",28,0,0
571125,"KA","Mysuru",28,0,0
571314,"KA","Mysuru",28,0,0
570019,"KA","Mysuru",28,0,0
571129,"KA","Mysuru",28,0,0
571107,"KA","Mysuru",28,0,0
571617,"KA","Mysuru",28,0,0
571101,"KA","Mysuru",28,0,0
571114,"KA","Mysuru",28,0,0
571604,"KA","Mysuru",28,0,0
571602,"KA","Mysuru",28,0,0
571617,"KA","Mysuru",28,0,0
571189,"KA","Mysuru",28,0,0
571312,"KA","Mysuru",28,0,0
571125,"KA","Mysuru",28,0,0
570033,"KA","Mysuru",28,0,0
571114,"KA","Mysuru",28,0,0
571107,"KA","Mysuru",28,0,0
571118,"KA","Mysuru",28,0,0
571187,"KA","Mysuru",28,0,0
571108,"KA","Mysuru",28,0,0
571124,"KA","Mysuru",28,0,0
570006,"KA","Mysuru",28,0,0
570019,"KA","Mysuru",28,0,0
571108,"KA","Mysuru",28,0,0
571315,"KA","Mysuru",28,0,0
571312,"KA","Mysuru",28,0,0
570010,"KA","Mysuru",28,0,0
571101,"KA","Mysuru",28,0,0
570018,"KA","Mysuru",28,0,0
571114,"KA","Mysuru",28,0,0
570015,"KA","Mysuru",28,0,0
571103,"KA","Mysuru",28,0,0
571312,"KA","Mysuru",28,0,0
571604,"KA","Mysuru",28,0,0
571110,"KA","Mysuru",28,0,0
571116,"KA","Mysuru",28,0,0
571125,"KA","Mysuru",28,0,0
571604,"KA","Mysuru",28,0,0
570010,"KA","Mysuru",28,0,0
571114,"KA","Mysuru",28,0,0
571105,"KA","Mysuru",28,0,0
571101,"KA","Mysuru",28,0,0
570009,"KA","Mysuru",28,0,0
571108,"KA","Mysuru",28,0,0
571102,"KA","Mysuru",28,0,0
571312,"KA","Mysuru",28,0,0
571107,"KA","Mysuru",28,0,0
571610,"KA","Mysuru",28,0,0
570017,"KA","Mysuru",28,0,0
571124,"KA","Mysuru",28,0,0
571604,"KA","Mysuru",28,0,0
571617,"KA","Mysuru",28,0,0
570008,"KA","Mysuru",28,0,0
571121,"KA","Mysuru",28,0,0
570010,"KA","Mysuru",28,0,0
571101,"KA","Mysuru",28,0,0
571116,"KA","Mysuru",28,0,0
571315,"KA","Mysuru",28,0,0
571604,"KA","Mysuru",28,0,0
570026,"KA","Mysuru",28,0,0
570012,"KA","Mysuru",28,0,0
571101,"KA","Mysuru",28,0,0
570028,"KA","Mysuru",28,0,0
570008,"KA","Mysuru",28,0,0
571602,"KA","Mysuru",28,0,0
571118,"KA","Mysuru",28,0,0
571125,"KA","Mysuru",28,0,0
571105,"KA","Mysuru",28,0,0
571189,"KA","Mysuru",28,0,0
571124,"KA","Mysuru",28,0,0
571125,"KA","Mysuru",28,0,0
571312,"KA","Mysuru",28,0,0
571315,"KA","Mysuru",28,0,0
571107,"KA","Mysuru",28,0,0
571189,"KA","Mysuru",28,0,0
571121,"KA","Mysuru",28,0,0
571602,"KA","Mysuru",28,0,0
571110,"KA","Mysuru",28,0,0
571129,"KA","Mysuru",28,0,0
571312,"KA","Mysuru",28,0,0
571617,"KA","Mysuru",28,0,0
571130,"KA","Mysuru",28,0,0
571125,"KA","Mysuru",28,0,0
571312,"KA","Mysuru",28,0,0
571302,"KA","Mysuru",28,0,0
570003,"KA","Mysuru",28,0,0
571130,"KA","Mysuru",28,0,0
571124,"KA","Mysuru",28,0,0
571114,"KA","Mysuru",28,0,0
571129,"KA","Mysuru",28,0,0
571302,"KA","Mysuru",28,0,0
571116,"KA","Mysuru",28,0,0
571312,"KA","Mysuru",28,0,0
571601,"KA","Mysuru",28,0,0
571314,"KA","Mysuru",28,0,0
571314,"KA","Mysuru",28,0,0
571107,"KA","Mysuru",28,0,0
571134,"KA","Mysuru",28,0,0
571119,"KA","Mysuru",28,0,0
571105,"KA","Mysuru",28,0,0
570018,"KA","Mysuru",28,0,0
571315,"KA","Mysuru",28,0,0
571602,"KA","Mysuru",28,0,0
571302,"KA","Mysuru",28,0,0
571101,"KA","Mysuru",28,0,0
571617,"KA","Mysuru",28,0,0
570008,"KA","Mysuru",28,0,0
571125,"KA","Mysuru",28,0,0
570010,"KA","Mysuru",28,0,0
571114,"KA","Mysuru",28,0,0
571119,"KA","Mysuru",28,0,0
582208,"KA","Dharwad",1,0,0
580023,"KA","Dharwad",1,0,0
582201,"KA","Dharwad",1,0,0
580023,"KA","Dharwad",1,0,0
582208,"KA","Dharwad",1,0,0
580011,"KA","Dharwad",1,0,0
580030,"KA","Dharwad",1,0,0
582208,"KA","Dharwad",1,0,0
581201,"KA","Dharwad",1,0,0
580011,"KA","Dharwad",1,0,0
582208,"KA","Dharwad",1,0,0
581204,"KA","Dharwad",1,0,0
580008,"KA","Dharwad",1,0,0
581117,"KA","Dharwad",1,0,0
580118,"KA","Dharwad",1,0,0
581107,"KA","Dharwad",1,0,0
571236,"KA","Kodagu",1,0,0
571251,"KA","Kodagu",1,0,0
571217,"KA","Kodagu",1,0,0
571248,"KA","Kodagu",1,0,0
571218,"KA","Kodagu",1,0,0
571234,"KA","Kodagu",1,0,0
571213,"KA","Kodagu",1,0,0
571236,"KA","Kodagu",1,0,0
571218,"KA","Kodagu",1,0,0
571211,"KA","Kodagu",1,0,0
571237,"KA","Kodagu",1,0,0
571218,"KA","Kodagu",1,0,0
571234,"KA","Kodagu",1,0,0
571212,"KA","Kodagu",1,0,0
571253,"KA","Kodagu",1,0,0
571252,"KA","Kodagu",1,0,0
575018,"KA","Dakshina Kannada",10,0,0
575029,"KA","Dakshina Kannada",10,0,0
575017,"KA","Dakshina Kannada",10,0,0
575004,"KA","Dakshina Kannada",10,0,0
574144,"KA","Dakshina Kannada",10,0,0
574142,"KA","Dakshina Kannada",10,0,0
575019,"KA","Dakshina Kannada",10,0,0
574153,"KA","Dakshina Kannada",10,0,0
575010,"KA","Dakshina Kannada",10,0,0
574141,"KA","Dakshina Kannada",10,0,0
574151,"KA","Dakshina Kannada",10,0,0
574146,"KA","Dakshina Kannada",10,0,0
574141,"KA","Dakshina Kannada",10,0,0
575023,"KA","Dakshina Kannada",10,0,0
574146,"KA","Dakshina Kannada",10,0,0
575013,"KA","Dakshina Kannada",10,0,0
574142,"KA","Dakshina Kannada",10,0,0
574154,"KA","Dakshina Kannada",10,0,0
574142,"KA","Dakshina Kannada",10,0,0
574143,"KA","Dakshina Kannada",10,0,0
574154,"KA","Dakshina Kannada",10,0,0
574154,"KA","Dakshina Kannada",10,0,0
575007,"KA","Dakshina Kannada",10,0,0
574143,"KA","Dakshina Kannada",10,0,0
575023,"KA","Dakshina Kannada",10,0,0
575017,"KA","Dakshina Kannada",10,0,0
575028,"KA","Dakshina Kannada",10,0,0
575015,"KA","Dakshina Kannada",10,0,0
574151,"KA","Dakshina Kannada",10,0,0
574144,"KA","Dakshina Kannada",10,0,0
574146,"KA","Dakshina Kannada",10,0,0
575005,"KA","Dakshina Kannada",10,0,0
575003,"KA","Dakshina Kannada",10,0,0
575003,"KA","Dakshina Kannada",10,0,0
574145,"KA","Dakshina Kannada",10,0,0
574142,"KA","Dakshina Kannada",10,0,0
574153,"KA","Dakshina Kannada",10,0,0
574144,"KA","Dakshina Kannada",10,0,0
574144,"KA","Dakshina Kannada",10,0,0
574199,"KA","Dakshina Kannada",10,0,0
574154,"KA","Dakshina Kannada",10,0,0
574154,"KA","Dakshina Kannada",10,0,0
574199,"KA","Dakshina Kannada",10,0,0
574154,"KA","Dakshina Kannada",10,0,0
575014,"KA","Dakshina Kannada",10,0,0
575029,"KA","Dakshina Kannada",10,0,0
575015,"KA","Dakshina Kannada",10,0,0
574142,"KA","Dakshina Kannada",10,0,0
574146,"KA","Dakshina Kannada",10,0,0
574145,"KA","Dakshina Kannada",10,0,0
574154,"KA","Dakshina Kannada",10,0,0
574154,"KA","Dakshina Kannada",10,0,0
571604,"KA","Mysuru",28,0,0
575003,"KA","Dakshina Kannada",10,0,0
574141,"KA","Dakshina Kannada",10,0,0
575030,"KA","Dakshina Kannada",10,0,0
575030,"KA","Dakshina Kannada",10,0,0
575001,"KA","Dakshina Kannada",10,0,0
574154,"KA","Dakshina Kannada",10,0,0
575003,"KA","Dakshina Kannada",10,0,0
574153,"KA","Dakshina Kannada",10,0,0
575008,"KA","Dakshina Kannada",10,0,0
574146,"KA","Dakshina Kannada",10,0,0
575023,"KA","Dakshina Kannada",10,0,0
575014,"KA","Dakshina Kannada",10,0,0
575029,"KA","Dakshina Kannada",10,0,0
575030,"KA","Dakshina Kannada",10,0,0
574144,"KA","Dakshina Kannada",10,0,0
574146,"KA","Dakshina Kannada",10,0,0
574146,"KA","Dakshina Kannada",10,0,0
574150,"KA","Dakshina Kannada",10,0,0
575030,"KA","Dakshina Kannada",10,0,0
575001,"KA","Dakshina Kannada",10,0,0
575018,"KA","Dakshina Kannada",10,0,0
574153,"KA","Dakshina Kannada",10,0,0
575001,"KA","Dakshina Kannada",10,0,0
575022,"KA","Dakshina Kannada",10,0,0
575007,"KA","Dakshina Kannada",10,0,0
574199,"KA","Dakshina Kannada",10,0,0
575008,"KA","Dakshina Kannada",10,0,0
574154,"KA","Dakshina Kannada",10,0,0
575018,"KA","Dakshina Kannada",10,0,0
575022,"KA","Dakshina Kannada",10,0,0
574509,"KA","Dakshina Kannada",10,0,0
575028,"KA","Dakshina Kannada",10,0,0
574143,"KA","Dakshina Kannada",10,0,0
575001,"KA","Dakshina Kannada",10,0,0
574154,"KA","Dakshina Kannada",10,0,0
575025,"KA","Dakshina Kannada",10,0,0
574148,"KA","Dakshina Kannada",10,0,0
575013,"KA","Dakshina Kannada",10,0,0
574154,"KA","Dakshina Kannada",10,0,0
574153,"KA","Dakshina Kannada",10,0,0
575006,"KA","Dakshina Kannada",10,0,0
575030,"KA","Dakshina Kannada",10,0,0
574199,"KA","Dakshina Kannada",10,0,0
575007,"KA","Dakshina Kannada",10,0,0
574199,"KA","Dakshina Kannada",10,0,0
575029,"KA","Dakshina Kannada",10,0,0
574142,"KA","Dakshina Kannada",10,0,0
575020,"KA","Dakshina Kannada",10,0,0
574199,"KA","Dakshina Kannada",10,0,0
575007,"KA","Dakshina Kannada",10,0,0
575002,"KA","Dakshina Kannada",10,0,0
574150,"KA","Dakshina Kannada",10,0,0
574144,"KA","Dakshina Kannada",10,0,0
575002,"KA","Dakshina Kannada",10,0,0
574509,"KA","Dakshina Kannada",10,0,0
574142,"KA","Dakshina Kannada",10,0,0
574153,"KA","Dakshina Kannada",10,0,0
574150,"KA","Dakshina Kannada",10,0,0
575017,"KA","Dakshina Kannada",10,0,0
574144,"KA","Dakshina Kannada",10,0,0
575011,"KA","Dakshina Kannada",10,0,0
574151,"KA","Dakshina Kannada",10,0,0
575002,"KA","Dakshina Kannada",10,0,0
575013,"KA","Dakshina Kannada",10,0,0
575030,"KA","Dakshina Kannada",10,0,0
575019,"KA","Dakshina Kannada",10,0,0
575008,"KA","Dakshina Kannada",10,0,0
575029,"KA","Dakshina Kannada",10,0,0
575030,"KA","Dakshina Kannada",10,0,0
575028,"KA","Dakshina Kannada",10,0,0
575001,"KA","Dakshina Kannada",10,0,0
574143,"KA","Dakshina Kannada",10,0,0
575007,"KA","Dakshina Kannada",10,0,0
574145,"KA","Dakshina Kannada",10,0,0
574151,"KA","Dakshina Kannada",10,0,0
574142,"KA","Dakshina Kannada",10,0,0
574143,"KA","Dakshina Kannada",10,0,0
575002,"KA","Dakshina Kannada",10,0,0
574146,"KA","Dakshina Kannada",10,0,0
574144,"KA","Dakshina Kannada",10,0,0
575016,"KA","Dakshina Kannada",10,0,0
575010,"KA","Dakshina Kannada",10,0,0
574267,"KA","Dakshina Kannada",10,0,0
574154,"KA","Dakshina Kannada",10,0,0
574150,"KA","Dakshina Kannada",10,0,0
574199,"KA","Dakshina Kannada",10,0,0
574154,"KA","Dakshina Kannada",10,0,0
575011,"KA","Dakshina Kannada",10,0,0
575007,"KA","Dakshina Kannada",10,0,0
581204,"KA","Dharwad",1,0,0
580009,"KA","Dharwad",1,0,0
571107,"KA","Mysuru",28,0,0
581196,"KA","Dharwad",1,0,0
580007,"KA","Dharwad",1,0,0
580112,"KA","Dharwad",1,0,0
580029,"KA","Dharwad",1,0,0
582201,"KA","Dharwad",1,0,0
582208,"KA","Dharwad",1,0,0
582208,"KA","Dharwad",1,0,0
580031,"KA","Dharwad",1,0,0
580006,"KA","Dharwad",1,0,0
581204,"KA","Dharwad",1,0,0
582201,"KA","Dharwad",1,0,0
580020,"KA","Dharwad",1,0,0
581204,"KA","Dharwad",1,0,0
581201,"KA","Dharwad",1,0,0
580024,"KA","Dharwad",1,0,0
580001,"KA","Dharwad",1,0,0
580029,"KA","Dharwad",1,0,0
580020,"KA","Dharwad",1,0,0
580024,"KA","Dharwad",1,0,0
581196,"KA","Dharwad",1,0,0
580011,"KA","Dharwad",1,0,0
580020,"KA","Dharwad",1,0,0
581107,"KA","Dharwad",1,0,0
581113,"KA","Dharwad",1,0,0
580001,"KA","Dharwad",1,0,0
580027,"KA","Dharwad",1,0,0
581201,"KA","Dharwad",1,0,0
581117,"KA","Dharwad",1,0,0
580001,"KA","Dharwad",1,0,0
581103,"KA","Dharwad",1,0,0
581204,"KA","Dharwad",1,0,0
580030,"KA","Dharwad",1,0,0
581196,"KA","Dharwad",1,0,0
581105,"KA","Dharwad",1,0,0
580002,"KA","Dharwad",1,0,0
581209,"KA","Dharwad",1,0,0
581113,"KA","Dharwad",1,0,0
580026,"KA","Dharwad",1,0,0
582208,"KA","Dharwad",1,0,0
581207,"KA","Dharwad",1,0,0
580023,"KA","Dharwad",1,0,0
581206,"KA","Dharwad",1,0,0
580007,"KA","Dharwad",1,0,0
580007,"KA","Dharwad",1,0,0
580007,"KA","Dharwad",1,0,0
580024,"KA","Dharwad",1,0,0
580118,"KA","Dharwad",1,0,0
580007,"KA","Dharwad",1,0,0
580002,"KA","Dharwad",1,0,0
580028,"KA","Dharwad",1,0,0
581204,"KA","Dharwad",1,0,0
580024,"KA","Dharwad",1,0,0
580024,"KA","Dharwad",1,0,0
580007,"KA","Dharwad",1,0,0
581105,"KA","Dharwad",1,0,0
580021,"KA","Dharwad",1,0,0
580023,"KA","Dharwad",1,0,0
580023,"KA","Dharwad",1,0,0
580032,"KA","Dharwad",1,0,0
580002,"KA","Dharwad",1,0,0
580118,"KA","Dharwad",1,0,0
580028,"KA","Dharwad",1,0,0
580025,"KA","Dharwad",1,0,0
580005,"KA","Dharwad",1,0,0
581204,"KA","Dharwad",1,0,0
582208,"KA","Dharwad",1,0,0
581196,"KA","Dharwad",1,0,0
581207,"KA","Dharwad",1,0,0
582208,"KA","Dharwad",1,0,0
581204,"KA","Dharwad",1,0,0
581107,"KA","Dharwad",1,0,0
581206,"KA","Dharwad",1,0,0
581204,"KA","Dharwad",1,0,0
581113,"KA","Dharwad",1,0,0
581209,"KA","Dharwad",1,0,0
581201,"KA","Dharwad",1,0,0
582208,"KA","Dharwad",1,0,0
580001,"KA","Dharwad",1,0,0
580024,"KA","Dharwad",1,0,0
581117,"KA","Dharwad",1,0,0
580114,"KA","Dharwad",1,0,0
581113,"KA","Dharwad",1,0,0
581209,"KA","Dharwad",1,0,0
580006,"KA","Dharwad",1,0,0
580021,"KA","Dharwad",1,0,0
580020,"KA","Dharwad",1,0,0
580114,"KA","Dharwad",1,0,0
580011,"KA","Dharwad",1,0,0
582201,"KA","Dharwad",1,0,0
582201,"KA","Dharwad",1,0,0
580028,"KA","Dharwad",1,0,0
580009,"KA","Dharwad",1,0,0
581204,"KA","Dharwad",1,0,0
582208,"KA","Dharwad",1,0,0
580114,"KA","Dharwad",1,0,0
580114,"KA","Dharwad",1,0,0
581207,"KA","Dharwad",1,0,0
581206,"KA","Dharwad",1,0,0
581105,"KA","Dharwad",1,0,0
582201,"KA","Dharwad",1,0,0
580023,"KA","Dharwad",1,0,0
580024,"KA","Dharwad",1,0,0
581113,"KA","Dharwad",1,0,0
580118,"KA","Dharwad",1,0,0
580118,"KA","Dharwad",1,0,0
580028,"KA","Dharwad",1,0,0
582208,"KA","Dharwad",1,0,0
581103,"KA","Dharwad",1,0,0
580011,"KA","Dharwad",1,0,0
581204,"KA","Dharwad",1,0,0
580003,"KA","Dharwad",1,0,0
580007,"KA","Dharwad",1,0,0
581204,"KA","Dharwad",1,0,0
580114,"KA","Dharwad",1,0,0
580024,"KA","Dharwad",1,0,0
582208,"KA","Dharwad",1,0,0
580007,"KA","Dharwad",1,0,0
580007,"KA","Dharwad",1,0,0
580007,"KA","Dharwad",1,0,0
581113,"KA","Dharwad",1,0,0
580028,"KA","Dharwad",1,0,0
580114,"KA","Dharwad",1,0,0
580024,"KA","Dharwad",1,0,0
580024,"KA","Dharwad",1,0,0
580008,"KA","Dharwad",1,0,0
582201,"KA","Dharwad",1,0,0
580008,"KA","Dharwad",1,0,0
580023,"KA","Dharwad",1,0,0
580020,"KA","Dharwad",1,0,0
581107,"KA","Dharwad",1,0,0
581195,"KA","Dharwad",1,0,0
581105,"KA","Dharwad",1,0,0
580028,"KA","Dharwad",1,0,0
581201,"KA","Dharwad",1,0,0
582208,"KA","Dharwad",1,0,0
580023,"KA","Dharwad",1,0,0
580028,"KA","Dharwad",1,0,0
581103,"KA","Dharwad",1,0,0
581117,"KA","Dharwad",1,0,0
580112,"KA","Dharwad",1,0,0
580024,"KA","Dharwad",1,0,0
581201,"KA","Dharwad",1,0,0
581113,"KA","Dharwad",1,0,0
580112,"KA","Dharwad",1,0,0
582208,"KA","Dharwad",1,0,0
580023,"KA","Dharwad",1,0,0
581206,"KA","Dharwad",1,0,0
581204,"KA","Dharwad",1,0,0
581204,"KA","Dharwad",1,0,0
580007,"KA","Dharwad",1,0,0
580112,"KA","Dharwad",1,0,0
580004,"KA","Dharwad",1,0,0
581105,"KA","Dharwad",1,0,0
580025,"KA","Dharwad",1,0,0
580025,"KA","Dharwad",1,0,0
581209,"KA","Dharwad",1,0,0
580028,"KA","Dharwad",1,0,0
581207,"KA","Dharwad",1,0,0
580001,"KA","Dharwad",1,0,0
580007,"KA","Dharwad",1,0,0
581201,"KA","Dharwad",1,0,0
580023,"KA","Dharwad",1,0,0
580001,"KA","Dharwad",1,0,0
580031,"KA","Dharwad",1,0,0
580007,"KA","Dharwad",1,0,0
580023,"KA","Dharwad",1,0,0
580030,"KA","Dharwad",1,0,0
581204,"KA","Dharwad",1,0,0
582208,"KA","Dharwad",1,0,0
580009,"KA","Dharwad",1,0,0
581206,"KA","Dharwad",1,0,0
581209,"KA","Dharwad",1,0,0
581113,"KA","Dharwad",1,0,0
582208,"KA","Dharwad",1,0,0
580007,"KA","Dharwad",1,0,0
580114,"KA","Dharwad",1,0,0
582201,"KA","Dharwad",1,0,0
581207,"KA","Dharwad",1,0,0
580007,"KA","Dharwad",1,0,0
582208,"KA","Dharwad",1,0,0
581204,"KA","Dharwad",1,0,0
581204,"KA","Dharwad",1,0,0
581113,"KA","Dharwad",1,0,0
582208,"KA","Dharwad",1,0,0
581207,"KA","Dharwad",1,0,0
580005,"KA","Dharwad",1,0,0
582208,"KA","Dharwad",1,0,0
581315,"KA","Uttara Kannada",9,0,0
581403,"KA","Uttara Kannada",9,0,0
581331,"KA","Uttara Kannada",9,0,0
581356,"KA","Uttara Kannada",9,0,0
581322,"KA","Uttara Kannada",9,0,0
581318,"KA","Uttara Kannada",9,0,0
581402,"KA","Uttara Kannada",9,0,0
581336,"KA","Uttara Kannada",9,0,0
581340,"KA","Uttara Kannada",9,0,0
581325,"KA","Uttara Kannada",9,0,0
581450,"KA","Uttara Kannada",9,0,0
581336,"KA","Uttara Kannada",9,0,0
581363,"KA","Uttara Kannada",9,0,0
581355,"KA","Uttara Kannada",9,0,0
581402,"KA","Uttara Kannada",9,0,0
581129,"KA","Uttara Kannada",9,0,0
581349,"KA","Uttara Kannada",9,0,0
581340,"KA","Uttara Kannada",9,0,0
581358,"KA","Uttara Kannada",9,0,0
581355,"KA","Uttara Kannada",9,0,0
581355,"KA","Uttara Kannada",9,0,0
581356,"KA","Uttara Kannada",9,0,0
581315,"KA","Uttara Kannada",9,0,0
581356,"KA","Uttara Kannada",9,0,0
581402,"KA","Uttara Kannada",9,0,0
581355,"KA","Uttara Kannada",9,0,0
581315,"KA","Uttara Kannada",9,0,0
581355,"KA","Uttara Kannada",9,0,0
581363,"KA","Uttara Kannada",9,0,0
581318,"KA","Uttara Kannada",9,0,0
581358,"KA","Uttara Kannada",9,0,0
581355,"KA","Uttara Kannada",9,0,0
571248,"KA","Kodagu",1,0,0
571237,"KA","Kodagu",1,0,0
571213,"KA","Kodagu",1,0,0
571219,"KA","Kodagu",1,0,0
571236,"KA","Kodagu",1,0,0
571236,"KA","Kodagu",1,0,0
571213,"KA","Kodagu",1,0,0
571218,"KA","Kodagu",1,0,0
571236,"KA","Kodagu",1,0,0
571251,"KA","Kodagu",1,0,0
571251,"KA","Kodagu",1,0,0
571218,"KA","Kodagu",1,0,0
571252,"KA","Kodagu",1,0,0
571235,"KA","Kodagu",1,0,0
571235,"KA","Kodagu",1,0,0
571231,"KA","Kodagu",1,0,0
571216,"KA","Kodagu",1,0,0
571236,"KA","Kodagu",1,0,0
571218,"KA","Kodagu",1,0,0
571212,"KA","Kodagu",1,0,0
571218,"KA","Kodagu",1,0,0
571236,"KA","Kodagu",1,0,0
571215,"KA","Kodagu",1,0,0
571218,"KA","Kodagu",1,0,0
571211,"KA","Kodagu",1,0,0
571253,"KA","Kodagu",1,0,0
571214,"KA","Kodagu",1,0,0
571237,"KA","Kodagu",1,0,0
571249,"KA","Kodagu",1,0,0
571237,"KA","Kodagu",1,0,0
571215,"KA","Kodagu",1,0,0
571212,"KA","Kodagu",1,0,0
571214,"KA","Kodagu",1,0,0
571235,"KA","Kodagu",1,0,0
571249,"KA","Kodagu",1,0,0
571236,"KA","Kodagu",1,0,0
571254,"KA","Kodagu",1,0,0
571249,"KA","Kodagu",1,0,0
581402,"KA","Uttara Kannada",9,0,0
581402,"KA","Uttara Kannada",9,0,0
581355,"KA","Uttara Kannada",9,0,0
581329,"KA","Uttara Kannada",9,0,0
581329,"KA","Uttara Kannada",9,0,0
581315,"KA","Uttara Kannada",9,0,0
581412,"KA","Uttara Kannada",9,0,0
581349,"KA","Uttara Kannada",9,0,0
581322,"KA","Uttara Kannada",9,0,0
581355,"KA","Uttara Kannada",9,0,0
581359,"KA","Uttara Kannada",9,0,0
581402,"KA","Uttara Kannada",9,0,0
581329,"KA","Uttara Kannada",9,0,0
581355,"KA","Uttara Kannada",9,0,0
581315,"KA","Uttara Kannada",9,0,0
581402,"KA","Uttara Kannada",9,0,0
581356,"KA","Uttara Kannada",9,0,0
581318,"KA","Uttara Kannada",9,0,0
581315,"KA","Uttara Kannada",9,0,0
581450,"KA","Uttara Kannada",9,0,0
581322,"KA","Uttara Kannada",9,0,0
581347,"KA","Uttara Kannada",9,0,0
581325,"KA","Uttara Kannada",9,0,0
581359,"KA","Uttara Kannada",9,0,0
581329,"KA","Uttara Kannada",9,0,0
581356,"KA","Uttara Kannada",9,0,0
581403,"KA","Uttara Kannada",9,0,0
581336,"KA","Uttara Kannada",9,0,0
581365,"KA","Uttara Kannada",9,0,0
581318,"KA","Uttara Kannada",9,0,0
581322,"KA","Uttara Kannada",9,0,0
581340,"KA","Uttara Kannada",9,0,0
581402,"KA","Uttara Kannada",9,0,0
581340,"KA","Uttara Kannada",9,0,0
581359,"KA","Uttara Kannada",9,0,0
581331,"KA","Uttara Kannada",9,0,0
581403,"KA","Uttara Kannada",9,0,0
581403,"KA","Uttara Kannada",9,0,0
581349,"KA","Uttara Kannada",9,0,0
581355,"KA","Uttara Kannada",9,0,0
581322,"KA","Uttara Kannada",9,0,0
581349,"KA","Uttara Kannada",9,0,0
581453,"KA","Uttara Kannada",9,0,0
581402,"KA","Uttara Kannada",9,0,0
581187,"KA","Uttara Kannada",9,0,0
581129,"KA","Uttara Kannada",9,0,0
581347,"KA","Uttara Kannada",9,0,0
581363,"KA","Uttara Kannada",9,0,0
581329,"KA","Uttara Kannada",9,0,0
581337,"KA","Uttara Kannada",9,0,0
581359,"KA","Uttara Kannada",9,0,0
581187,"KA","Uttara Kannada",9,0,0
581359,"KA","Uttara Kannada",9,0,0
581355,"KA","Uttara Kannada",9,0,0
581347,"KA","Uttara Kannada",9,0,0
581349,"KA","Uttara Kannada",9,0,0
581329,"KA","Uttara Kannada",9,0,0
581336,"KA","Uttara Kannada",9,0,0
581329,"KA","Uttara Kannada",9,0,0
581403,"KA","Uttara Kannada",9,0,0
581331,"KA","Uttara Kannada",9,0,0
581186,"KA","Uttara Kannada",9,0,0
581403,"KA","Uttara Kannada",9,0,0
581402,"KA","Uttara Kannada",9,0,0
581340,"KA","Uttara Kannada",9,0,0
581412,"KA","Uttara Kannada",9,0,0
581359,"KA","Uttara Kannada",9,0,0
581401,"KA","Uttara Kannada",9,0,0
581318,"KA","Uttara Kannada",9,0,0
581355,"KA","Uttara Kannada",9,0,0
581402,"KA","Uttara Kannada",9,0,0
581336,"KA","Uttara Kannada",9,0,0
581412,"KA","Uttara Kannada",9,0,0
581349,"KA","Uttara Kannada",9,0,0
581325,"KA","Uttara Kannada",9,0,0
581401,"KA","Uttara Kannada",9,0,0
581322,"KA","Uttara Kannada",9,0,0
581346,"KA","Uttara Kannada",9,0,0
581337,"KA","Uttara Kannada",9,0,0
581411,"KA","Uttara Kannada",9,0,0
581340,"KA","Uttara Kannada",9,0,0
581329,"KA","Uttara Kannada",9,0,0
581346,"KA","Uttara Kannada",9,0,0
581403,"KA","Uttara Kannada",9,0,0
581331,"KA","Uttara Kannada",9,0,0
581358,"KA","Uttara Kannada",9,0,0
581336,"KA","Uttara Kannada",9,0,0
581322,"KA","Uttara Kannada",9,0,0
581358,"KA","Uttara Kannada",9,0,0
581336,"KA","Uttara Kannada",9,0,0
581359,"KA","Uttara Kannada",9,0,0
581346,"KA","Uttara Kannada",9,0,0
581331,"KA","Uttara Kannada",9,0,0
581402,"KA","Uttara Kannada",9,0,0
581331,"KA","Uttara Kannada",9,0,0
581318,"KA","Uttara Kannada",9,0,0
581340,"KA","Uttara Kannada",9,0,0
581355,"KA","Uttara Kannada",9,0,0
581402,"KA","Uttara Kannada",9,0,0
581346,"KA","Uttara Kannada",9,0,0
581402,"KA","Uttara Kannada",9,0,0
581336,"KA","Uttara Kannada",9,0,0
581401,"KA","Uttara Kannada",9,0,0
581325,"KA","Uttara Kannada",9,0,0
581356,"KA","Uttara Kannada",9,0,0
581411,"KA","Uttara Kannada",9,0,0
581346,"KA","Uttara Kannada",9,0,0
581347,"KA","Uttara Kannada",9,0,0
581355,"KA","Uttara Kannada",9,0,0
581340,"KA","Uttara Kannada",9,0,0
581356,"KA","Uttara Kannada",9,0,0
581359,"KA","Uttara Kannada",9,0,0
571216,"KA","Kodagu",1,0,0
576121,"KA","Udupi",4,0,0
576121,"KA","Udupi",4,0,0
576121,"KA","Udupi",4,0,0
574144,"KA","Udupi",4,0,0
576111,"KA","Udupi",4,0,0
576121,"KA","Udupi",4,0,0
576111,"KA","Udupi",4,0,0
581187,"KA","Uttara Kannada",9,0,0
581403,"KA","Uttara Kannada",9,0,0
581337,"KA","Uttara Kannada",9,0,0
581359,"KA","Uttara Kannada",9,0,0
581403,"KA","Uttara Kannada",9,0,0
581186,"KA","Uttara Kannada",9,0,0
581329,"KA","Uttara Kannada",9,0,0
581325,"KA","Uttara Kannada",9,0,0
581346,"KA","Uttara Kannada",9,0,0
581336,"KA","Uttara Kannada",9,0,0
581355,"KA","Uttara Kannada",9,0,0
581325,"KA","Uttara Kannada",9,0,0
581359,"KA","Uttara Kannada",9,0,0
581322,"KA","Uttara Kannada",9,0,0
581403,"KA","Uttara Kannada",9,0,0
581329,"KA","Uttara Kannada",9,0,0
581355,"KA","Uttara Kannada",9,0,0
581359,"KA","Uttara Kannada",9,0,0
581337,"KA","Uttara Kannada",9,0,0
581129,"KA","Uttara Kannada",9,0,0
581331,"KA","Uttara Kannada",9,0,0
581402,"KA","Uttara Kannada",9,0,0
581346,"KA","Uttara Kannada",9,0,0
581358,"KA","Uttara Kannada",9,0,0
581358,"KA","Uttara Kannada",9,0,0
581363,"KA","Uttara Kannada",9,0,0
570020,"KA","Mysuru",28,0,0
571120,"KA","Mysuru",28,0,0
571110,"KA","Mysuru",28,0,0
571314,"KA","Mysuru",28,0,0
571617,"KA","Mysuru",28,0,0
571121,"KA","Mysuru",28,0,0
570019,"KA","Mysuru",28,0,0
570008,"KA","Mysuru",28,0,0
571610,"KA","Mysuru",28,0,0
571114,"KA","Mysuru",28,0,0
571314,"KA","Mysuru",28,0,0
581349,"KA","Uttara Kannada",9,0,0
581329,"KA","Uttara Kannada",9,0,0
581358,"KA","Uttara Kannada",9,0,0
581325,"KA","Uttara Kannada",9,0,0
581318,"KA","Uttara Kannada",9,0,0
581340,"KA","Uttara Kannada",9,0,0
581318,"KA","Uttara Kannada",9,0,0
581315,"KA","Uttara Kannada",9,0,0
571211,"KA","Kodagu",1,0,0
571237,"KA","Kodagu",1,0,0
571211,"KA","Kodagu",1,0,0
571237,"KA","Kodagu",1,0,0
571216,"KA","Kodagu",1,0,0
571212,"KA","Kodagu",1,0,0
571235,"KA","Kodagu",1,0,0
571253,"KA","Kodagu",1,0,0
571236,"KA","Kodagu",1,0,0
571253,"KA","Kodagu",1,0,0
571252,"KA","Kodagu",1,0,0
571216,"KA","Kodagu",1,0,0
571201,"KA","Kodagu",1,0,0
571218,"KA","Kodagu",1,0,0
571219,"KA","Kodagu",1,0,0
585445,"KA","Bidar",10,0,0
585411,"KA","Bidar",10,0,0
585401,"KA","Bidar",10,0,0
585421,"KA","Bidar",10,0,0
585436,"KA","Bidar",10,0,0
585328,"KA","Bidar",10,0,0
585416,"KA","Bidar",10,0,0
585417,"KA","Bidar",10,0,0
585415,"KA","Bidar",10,0,0
585326,"KA","Bidar",10,0,0
585331,"KA","Bidar",10,0,0
585411,"KA","Bidar",10,0,0
585353,"KA","Bidar",10,0,0
585331,"KA","Bidar",10,0,0
585327,"KA","Bidar",10,0,0
585418,"KA","Bidar",10,0,0
585330,"KA","Bidar",10,0,0
585419,"KA","Bidar",10,0,0
585412,"KA","Bidar",10,0,0
585417,"KA","Bidar",10,0,0
585413,"KA","Bidar",10,0,0
585403,"KA","Bidar",10,0,0
585226,"KA","Bidar",10,0,0
585421,"KA","Bidar",10,0,0
585437,"KA","Bidar",10,0,0
585326,"KA","Bidar",10,0,0
585402,"KA","Bidar",10,0,0
585443,"KA","Bidar",10,0,0
585411,"KA","Bidar",10,0,0
585415,"KA","Bidar",10,0,0
585436,"KA","Bidar",10,0,0
585416,"KA","Bidar",10,0,0
585416,"KA","Bidar",10,0,0
585417,"KA","Bidar",10,0,0
585326,"KA","Bidar",10,0,0
585327,"KA","Bidar",10,0,0
585326,"KA","Bidar",10,0,0
585328,"KA","Bidar",10,0,0
585226,"KA","Bidar",10,0,0
585411,"KA","Bidar",10,0,0
585445,"KA","Bidar",10,0,0
585326,"KA","Bidar",10,0,0
585402,"KA","Bidar",10,0,0
585353,"KA","Bidar",10,0,0
585413,"KA","Bidar",10,0,0
585417,"KA","Bidar",10,0,0
585416,"KA","Bidar",10,0,0
585326,"KA","Bidar",10,0,0
585330,"KA","Bidar",10,0,0
585421,"KA","Bidar",10,0,0
585416,"KA","Bidar",10,0,0
571214,"KA","Kodagu",1,0,0
571232,"KA","Kodagu",1,0,0
581358,"KA","Uttara Kannada",9,0,0
581347,"KA","Uttara Kannada",9,0,0
581331,"KA","Uttara Kannada",9,0,0
581315,"KA","Uttara Kannada",9,0,0
581337,"KA","Uttara Kannada",9,0,0
581318,"KA","Uttara Kannada",9,0,0
581340,"KA","Uttara Kannada",9,0,0
581318,"KA","Uttara Kannada",9,0,0
581337,"KA","Uttara Kannada",9,0,0
581359,"KA","Uttara Kannada",9,0,0
571218,"KA","Kodagu",1,0,0
571232,"KA","Kodagu",1,0,0
571235,"KA","Kodagu",1,0,0
571232,"KA","Kodagu",1,0,0
571216,"KA","Kodagu",1,0,0
571253,"KA","Kodagu",1,0,0
571217,"KA","Kodagu",1,0,0
571236,"KA","Kodagu",1,0,0
571232,"KA","Kodagu",1,0,0
571213,"KA","Kodagu",1,0,0
571213,"KA","Kodagu",1,0,0
571247,"KA","Kodagu",1,0,0
571237,"KA","Kodagu",1,0,0
571251,"KA","Kodagu",1,0,0
571237,"KA","Kodagu",1,0,0
574143,"KA","Dakshina Kannada",10,0,0
571251,"KA","Kodagu",1,0,0
571212,"KA","Kodagu",1,0,0
571211,"KA","Kodagu",1,0,0
571216,"KA","Kodagu",1,0,0
571218,"KA","Kodagu",1,0,0
571216,"KA","Kodagu",1,0,0
571254,"KA","Kodagu",1,0,0
571231,"KA","Kodagu",1,0,0
571237,"KA","Kodagu",1,0,0
571251,"KA","Kodagu",1,0,0
571218,"KA","Kodagu",1,0,0
571254,"KA","Kodagu",1,0,0
571236,"KA","Kodagu",1,0,0
571201,"KA","Kodagu",1,0,0
571218,"KA","Kodagu",1,0,0
571237,"KA","Kodagu",1,0,0
571252,"KA","Kodagu",1,0,0
571214,"KA","Kodagu",1,0,0
571218,"KA","Kodagu",1,0,0
571249,"KA","Kodagu",1,0,0
571215,"KA","Kodagu",1,0,0
571212,"KA","Kodagu",1,0,0
571217,"KA","Kodagu",1,0,0
571248,"KA","Kodagu",1,0,0
571218,"KA","Kodagu",1,0,0
571234,"KA","Kodagu",1,0,0
571219,"KA","Kodagu",1,0,0
581453,"KA","Uttara Kannada",9,0,0
581402,"KA","Uttara Kannada",9,0,0
581402,"KA","Uttara Kannada",9,0,0
581315,"KA","Uttara Kannada",9,0,0
581359,"KA","Uttara Kannada",9,0,0
581355,"KA","Uttara Kannada",9,0,0
581329,"KA","Uttara Kannada",9,0,0
581355,"KA","Uttara Kannada",9,0,0
571249,"KA","Kodagu",1,0,0
571218,"KA","Kodagu",1,0,0
571251,"KA","Kodagu",1,0,0
571236,"KA","Kodagu",1,0,0
571234,"KA","Kodagu",1,0,0
571232,"KA","Kodagu",1,0,0
571254,"KA","Kodagu",1,0,0
571237,"KA","Kodagu",1,0,0
571253,"KA","Kodagu",1,0,0
571236,"KA","Kodagu",1,0,0
571213,"KA","Kodagu",1,0,0
571249,"KA","Kodagu",1,0,0
571253,"KA","Kodagu",1,0,0
571237,"KA","Kodagu",1,0,0
571218,"KA","Kodagu",1,0,0
571251,"KA","Kodagu",1,0,0
571247,"KA","Kodagu",1,0,0
571201,"KA","Kodagu",1,0,0
571234,"KA","Kodagu",1,0,0
571218,"KA","Kodagu",1,0,0
571211,"KA","Kodagu",1,0,0
571235,"KA","Kodagu",1,0,0
571248,"KA","Kodagu",1,0,0
571249,"KA","Kodagu",1,0,0
571237,"KA","Kodagu",1,0,0
571232,"KA","Kodagu",1,0,0
571214,"KA","Kodagu",1,0,0
571235,"KA","Kodagu",1,0,0
571201,"KA","Kodagu",1,0,0
571216,"KA","Kodagu",1,0,0
571231,"KA","Kodagu",1,0,0
571236,"KA","Kodagu",1,0,0
581402,"KA","Uttara Kannada",9,0,0
581340,"KA","Uttara Kannada",9,0,0
581359,"KA","Uttara Kannada",9,0,0
581359,"KA","Uttara Kannada",9,0,0
581337,"KA","Uttara Kannada",9,0,0
581363,"KA","Uttara Kannada",9,0,0
581337,"KA","Uttara Kannada",9,0,0
581349,"KA","Uttara Kannada",9,0,0
581355,"KA","Uttara Kannada",9,0,0
581322,"KA","Uttara Kannada",9,0,0
581347,"KA","Uttara Kannada",9,0,0
581359,"KA","Uttara Kannada",9,0,0
581355,"KA","Uttara Kannada",9,0,0
581450,"KA","Uttara Kannada",9,0,0
581358,"KA","Uttara Kannada",9,0,0
581187,"KA","Uttara Kannada",9,0,0
581411,"KA","Uttara Kannada",9,0,0
581349,"KA","Uttara Kannada",9,0,0
581329,"KA","Uttara Kannada",9,0,0
581186,"KA","Uttara Kannada",9,0,0
581337,"KA","Uttara Kannada",9,0,0
581401,"KA","Uttara Kannada",9,0,0
581402,"KA","Uttara Kannada",9,0,0
581329,"KA","Uttara Kannada",9,0,0
581402,"KA","Uttara Kannada",9,0,0
581325,"KA","Uttara Kannada",9,0,0
581347,"KA","Uttara Kannada",9,0,0
581331,"KA","Uttara Kannada",9,0,0
581359,"KA","Uttara Kannada",9,0,0
581349,"KA","Uttara Kannada",9,0,0
571212,"KA","Kodagu",1,0,0
571235,"KA","Kodagu",1,0,0
571213,"KA","Kodagu",1,0,0
571211,"KA","Kodagu",1,0,0
571214,"KA","Kodagu",1,0,0
571235,"KA","Kodagu",1,0,0
571247,"KA","Kodagu",1,0,0
571216,"KA","Kodagu",1,0,0
571252,"KA","Kodagu",1,0,0
571251,"KA","Kodagu",1,0,0
571247,"KA","Kodagu",1,0,0
571216,"KA","Kodagu",1,0,0
571249,"KA","Kodagu",1,0,0
571234,"KA","Kodagu",1,0,0
571252,"KA","Kodagu",1,0,0
571252,"KA","Kodagu",1,0,0
571234,"KA","Kodagu",1,0,0
571250,"KA","Kodagu",1,0,0
571252,"KA","Kodagu",1,0,0
571216,"KA","Kodagu",1,0,0
571237,"KA","Kodagu",1,0,0
571216,"KA","Kodagu",1,0,0
581325,"KA","Uttara Kannada",9,0,0
581340,"KA","Uttara Kannada",9,0,0
571250,"KA","Kodagu",1,0,0
571217,"KA","Kodagu",1,0,0
571249,"KA","Kodagu",1,0,0
571234,"KA","Kodagu",1,0,0
571251,"KA","Kodagu",1,0,0
571251,"KA","Kodagu",1,0,0
571213,"KA","Kodagu",1,0,0
571218,"KA","Kodagu",1,0,0
571236,"KA","Kodagu",1,0,0
571215,"KA","Kodagu",1,0,0
571234,"KA","Kodagu",1,0,0
571251,"KA","Kodagu",1,0,0
571236,"KA","Kodagu",1,0,0
581355,"KA","Uttara Kannada",9,0,0
571211,"KA","Kodagu",1,0,0
571201,"KA","Kodagu",1,0,0
581346,"KA","Uttara Kannada",9,0,0
581329,"KA","Uttara Kannada",9,0,0
581329,"KA","Uttara Kannada",9,0,0
581325,"KA","Uttara Kannada",9,0,0
581336,"KA","Uttara Kannada",9,0,0
581355,"KA","Uttara Kannada",9,0,0
571232,"KA","Kodagu",1,0,0
571253,"KA","Kodagu",1,0,0
571218,"KA","Kodagu",1,0,0
571211,"KA","Kodagu",1,0,0
571235,"KA","Kodagu",1,0,0
571214,"KA","Kodagu",1,0,0
571236,"KA","Kodagu",1,0,0
571234,"KA","Kodagu",1,0,0
571247,"KA","Kodagu",1,0,0
571236,"KA","Kodagu",1,0,0
571219,"KA","Kodagu",1,0,0
571250,"KA","Kodagu",1,0,0
571216,"KA","Kodagu",1,0,0
571235,"KA","Kodagu",1,0,0
580112,"KA","Dharwad",1,0,0
571253,"KA","Kodagu",1,0,0
571218,"KA","Kodagu",1,0,0
571201,"KA","Kodagu",1,0,0
695141,"KL","Thiruvananthapuram",8,1,4
671320,"KL","Kasaragod",138,0,5
689515,"KL","Pathanamthitta",6,0,8
452010,"MP","Indore",134,1,0
416206,"MH","Kolhapur",2,0,0
416509,"MH","Kolhapur",2,0,0
416509,"MH","Kolhapur",2,0,0
416001,"MH","Kolhapur",2,0,0
416101,"MH","Kolhapur",2,0,0
416212,"MH","Kolhapur",2,0,0
415101,"MH","Kolhapur",2,0,0
416216,"MH","Kolhapur",2,0,0
416205,"MH","Kolhapur",2,0,0
416506,"MH","Kolhapur",2,0,0
416138,"MH","Kolhapur",2,0,0
416502,"MH","Kolhapur",2,0,0
416112,"MH","Kolhapur",2,0,0
416101,"MH","Kolhapur",2,0,0
416507,"MH","Kolhapur",2,0,0
416216,"MH","Kolhapur",2,0,0
416001,"MH","Kolhapur",2,0,0
416108,"MH","Kolhapur",2,0,0
416211,"MH","Kolhapur",2,0,0
416215,"MH","Kolhapur",2,0,0
416504,"MH","Kolhapur",2,0,0
416218,"MH","Kolhapur",2,0,0
416113,"MH","Kolhapur",2,0,0
416143,"MH","Kolhapur",2,0,0
416504,"MH","Kolhapur",2,0,0
416211,"MH","Kolhapur",2,0,0
415101,"MH","Kolhapur",2,0,0
416211,"MH","Kolhapur",2,0,0
416509,"MH","Kolhapur",2,0,0
416002,"MH","Kolhapur",2,0,0
416503,"MH","Kolhapur",2,0,0
416114,"MH","Kolhapur",2,0,0
416106,"MH","Kolhapur",2,0,0
416206,"MH","Kolhapur",2,0,0
416122,"MH","Kolhapur",2,0,0
416206,"MH","Kolhapur",2,0,0
416101,"MH","Kolhapur",2,0,0
416011,"MH","Kolhapur",2,0,0
416211,"MH","Kolhapur",2,0,0
416213,"MH","Kolhapur",2,0,0
416503,"MH","Kolhapur",2,0,0
416106,"MH","Kolhapur",2,0,0
416220,"MH","Kolhapur",2,0,0
416211,"MH","Kolhapur",2,0,0
416506,"MH","Kolhapur",2,0,0
416205,"MH","Kolhapur",2,0,0
416218,"MH","Kolhapur",2,0,0
416012,"MH","Kolhapur",2,0,0
416235,"MH","Kolhapur",2,0,0
416109,"MH","Kolhapur",2,0,0
416526,"MH","Kolhapur",2,0,0
416214,"MH","Kolhapur",2,0,0
416004,"MH","Kolhapur",2,0,0
416121,"MH","Kolhapur",2,0,0
416001,"MH","Kolhapur",2,0,0
416218,"MH","Kolhapur",2,0,0
416112,"MH","Kolhapur",2,0,0
416119,"MH","Kolhapur",2,0,0
416508,"MH","Kolhapur",2,0,0
416503,"MH","Kolhapur",2,0,0
416230,"MH","Kolhapur",2,0,0
416502,"MH","Kolhapur",2,0,0
416501,"MH","Kolhapur",2,0,0
416507,"MH","Kolhapur",2,0,0
416121,"MH","Kolhapur",2,0,0
416209,"MH","Kolhapur",2,0,0
416202,"MH","Kolhapur",2,0,0
416012,"MH","Kolhapur",2,0,0
416143,"MH","Kolhapur",2,0,0
416551,"MH","Kolhapur",2,0,0
416552,"MH","Kolhapur",2,0,0
416211,"MH","Kolhapur",2,0,0
416008,"MH","Kolhapur",2,0,0
416216,"MH","Kolhapur",2,0,0
416118,"MH","Kolhapur",2,0,0
416210,"MH","Kolhapur",2,0,0
416231,"MH","Kolhapur",2,0,0
416205,"MH","Kolhapur",2,0,0
416501,"MH","Kolhapur",2,0,0
416508,"MH","Kolhapur",2,0,0
416103,"MH","Kolhapur",2,0,0
416205,"MH","Kolhapur",2,0,0
416502,"MH","Kolhapur",2,0,0
416213,"MH","Kolhapur",2,0,0
416108,"MH","Kolhapur",2,0,0
416109,"MH","Kolhapur",2,0,0
416229,"MH","Kolhapur",2,0,0
416503,"MH","Kolhapur",2,0,0
416502,"MH","Kolhapur",2,0,0
416010,"MH","Kolhapur",2,0,0
416526,"MH","Kolhapur",2,0,0
416210,"MH","Kolhapur",2,0,0
416208,"MH","Kolhapur",2,0,0
416209,"MH","Kolhapur",2,0,0
416101,"MH","Kolhapur",2,0,0
416001,"MH","Kolhapur",2,0,0
416508,"MH","Kolhapur",2,0,0
416107,"MH","Kolhapur",2,0,0
416504,"MH","Kolhapur",2,0,0
416144,"MH","Kolhapur",2,0,0
416235,"MH","Kolhapur",2,0,0
416230,"MH","Kolhapur",2,0,0
416212,"MH","Kolhapur",2,0,0
416103,"MH","Kolhapur",2,0,0
416102,"MH","Kolhapur",2,0,0
416207,"MH","Kolhapur",2,0,0
416207,"MH","Kolhapur",2,0,0
416221,"MH","Kolhapur",2,0,0
416101,"MH","Kolhapur",2,0,0
416552,"MH","Kolhapur",2,0,0
416011,"MH","Kolhapur",2,0,0
416235,"MH","Kolhapur",2,0,0
416208,"MH","Kolhapur",2,0,0
416114,"MH","Kolhapur",2,0,0
416215,"MH","Kolhapur",2,0,0
416507,"MH","Kolhapur",2,0,0
416507,"MH","Kolhapur",2,0,0
416205,"MH","Kolhapur",2,0,0
416212,"MH","Kolhapur",2,0,0
416102,"MH","Kolhapur",2,0,0
416232,"MH","Kolhapur",2,0,0
416213,"MH","Kolhapur",2,0,0
416235,"MH","Kolhapur",2,0,0
416235,"MH","Kolhapur",2,0,0
416219,"MH","Kolhapur",2,0,0
416101,"MH","Kolhapur",2,0,0
416214,"MH","Kolhapur",2,0,0
416216,"MH","Kolhapur",2,0,0
416203,"MH","Kolhapur",2,0,0
416501,"MH","Kolhapur",2,0,0
416143,"MH","Kolhapur",2,0,0
416211,"MH","Kolhapur",2,0,0
416507,"MH","Kolhapur",2,0,0
416508,"MH","Kolhapur",2,0,0
416205,"MH","Kolhapur",2,0,0
416214,"MH","Kolhapur",2,0,0
416214,"MH","Kolhapur",2,0,0
416003,"MH","Kolhapur",2,0,0
416208,"MH","Kolhapur",2,0,0
416103,"MH","Kolhapur",2,0,0
425503,"MH","Jalgaon",2,0,0
425107,"MH","Jalgaon",2,0,0
425307,"MH","Jalgaon",2,0,0
425311,"MH","Jalgaon",2,0,0
425114,"MH","Jalgaon",2,0,0
425301,"MH","Jalgaon",2,0,0
425306,"MH","Jalgaon",2,0,0
425306,"MH","Jalgaon",2,0,0
425503,"MH","Jalgaon",2,0,0
425201,"MH","Jalgaon",2,0,0
425303,"MH","Jalgaon",2,0,0
416209,"MH","Kolhapur",2,0,0
425311,"MH","Jalgaon",2,0,0
425107,"MH","Jalgaon",2,0,0
425201,"MH","Jalgaon",2,0,0
425309,"MH","Jalgaon",2,0,0
425310,"MH","Jalgaon",2,0,0
425506,"MH","Jalgaon",2,0,0
425303,"MH","Jalgaon",2,0,0
424208,"MH","Jalgaon",2,0,0
424206,"MH","Jalgaon",2,0,0
425107,"MH","Jalgaon",2,0,0
425311,"MH","Jalgaon",2,0,0
425327,"MH","Jalgaon",2,0,0
425304,"MH","Jalgaon",2,0,0
425002,"MH","Jalgaon",2,0,0
425310,"MH","Jalgaon",2,0,0
425301,"MH","Jalgaon",2,0,0
416509,"MH","Kolhapur",2,0,0
416211,"MH","Kolhapur",2,0,0
416214,"MH","Kolhapur",2,0,0
416205,"MH","Kolhapur",2,0,0
416220,"MH","Kolhapur",2,0,0
416507,"MH","Kolhapur",2,0,0
416219,"MH","Kolhapur",2,0,0
416205,"MH","Kolhapur",2,0,0
416509,"MH","Kolhapur",2,0,0
416229,"MH","Kolhapur",2,0,0
416214,"MH","Kolhapur",2,0,0
416505,"MH","Kolhapur",2,0,0
416213,"MH","Kolhapur",2,0,0
416115,"MH","Kolhapur",2,0,0
416223,"MH","Kolhapur",2,0,0
416122,"MH","Kolhapur",2,0,0
416236,"MH","Kolhapur",2,0,0
416202,"MH","Kolhapur",2,0,0
416012,"MH","Kolhapur",2,0,0
416218,"MH","Kolhapur",2,0,0
416005,"MH","Kolhapur",2,0,0
416505,"MH","Kolhapur",2,0,0
416209,"MH","Kolhapur",2,0,0
425107,"MH","Jalgaon",2,0,0
416118,"MH","Kolhapur",2,0,0
416121,"MH","Kolhapur",2,0,0
425107,"MH","Jalgaon",2,0,0
425302,"MH","Jalgaon",2,0,0
425508,"MH","Jalgaon",2,0,0
425508,"MH","Jalgaon",2,0,0
425310,"MH","Jalgaon",2,0,0
425301,"MH","Jalgaon",2,0,0
425310,"MH","Jalgaon",2,0,0
425305,"MH","Jalgaon",2,0,0
425306,"MH","Jalgaon",2,0,0
424207,"MH","Jalgaon",2,0,0
425304,"MH","Jalgaon",2,0,0
425311,"MH","Jalgaon",2,0,0
425503,"MH","Jalgaon",2,0,0
424205,"MH","Jalgaon",2,0,0
425306,"MH","Jalgaon",2,0,0
425310,"MH","Jalgaon",2,0,0
425114,"MH","Jalgaon",2,0,0
425301,"MH","Jalgaon",2,0,0
425107,"MH","Jalgaon",2,0,0
425310,"MH","Jalgaon",2,0,0
425308,"MH","Jalgaon",2,0,0
416220,"MH","Kolhapur",2,0,0
416115,"MH","Kolhapur",2,0,0
416209,"MH","Kolhapur",2,0,0
425303,"MH","Jalgaon",2,0,0
425302,"MH","Jalgaon",2,0,0
425301,"MH","Jalgaon",2,0,0
416216,"MH","Kolhapur",2,0,0
425508,"MH","Jalgaon",2,0,0
425107,"MH","Jalgaon",2,0,0
425311,"MH","Jalgaon",2,0,0
425508,"MH","Jalgaon",2,0,0
425107,"MH","Jalgaon",2,0,0
425107,"MH","Jalgaon",2,0,0
425306,"MH","Jalgaon",2,0,0
425108,"MH","Jalgaon",2,0,0
425327,"MH","Jalgaon",2,0,0
425507,"MH","Jalgaon",2,0,0
425503,"MH","Jalgaon",2,0,0
425311,"MH","Jalgaon",2,0,0
425108,"MH","Jalgaon",2,0,0
425306,"MH","Jalgaon",2,0,0
425107,"MH","Jalgaon",2,0,0
425107,"MH","Jalgaon",2,0,0
425507,"MH","Jalgaon",2,0,0
425309,"MH","Jalgaon",2,0,0
425504,"MH","Jalgaon",2,0,0
425508,"MH","Jalgaon",2,0,0
424206,"MH","Jalgaon",2,0,0
425203,"MH","Jalgaon",2,0,0
425107,"MH","Jalgaon",2,0,0
425308,"MH","Jalgaon",2,0,0
425107,"MH","Jalgaon",2,0,0
424207,"MH","Jalgaon",2,0,0
424206,"MH","Jalgaon",2,0,0
424206,"MH","Jalgaon",2,0,0
425107,"MH","Jalgaon",2,0,0
416113,"MH","Kolhapur",2,0,0
416209,"MH","Kolhapur",2,0,0
425310,"MH","Jalgaon",2,0,0
425504,"MH","Jalgaon",2,0,0
424207,"MH","Jalgaon",2,0,0
425114,"MH","Jalgaon",2,0,0
424206,"MH","Jalgaon",2,0,0
425502,"MH","Jalgaon",2,0,0
424206,"MH","Jalgaon",2,0,0
425306,"MH","Jalgaon",2,0,0
425302,"MH","Jalgaon",2,0,0
425508,"MH","Jalgaon",2,0,0
425304,"MH","Jalgaon",2,0,0
425306,"MH","Jalgaon",2,0,0
425107,"MH","Jalgaon",2,0,0
425502,"MH","Jalgaon",2,0,0
424207,"MH","Jalgaon",2,0,0
425307,"MH","Jalgaon",2,0,0
425307,"MH","Jalgaon",2,0,0
424206,"MH","Jalgaon",2,0,0
424204,"MH","Jalgaon",2,0,0
425310,"MH","Jalgaon",2,0,0
425310,"MH","Jalgaon",2,0,0
425107,"MH","Jalgaon",2,0,0
425311,"MH","Jalgaon",2,0,0
425503,"MH","Jalgaon",2,0,0
425108,"MH","Jalgaon",2,0,0
425303,"MH","Jalgaon",2,0,0
425303,"MH","Jalgaon",2,0,0
425508,"MH","Jalgaon",2,0,0
424206,"MH","Jalgaon",2,0,0
425508,"MH","Jalgaon",2,0,0
425203,"MH","Jalgaon",2,0,0
424206,"MH","Jalgaon",2,0,0
425504,"MH","Jalgaon",2,0,0
425506,"MH","Jalgaon",2,0,0
424208,"MH","Jalgaon",2,0,0
425501,"MH","Jalgaon",2,0,0
424204,"MH","Jalgaon",2,0,0
425303,"MH","Jalgaon",2,0,0
425504,"MH","Jalgaon",2,0,0
424206,"MH","Jalgaon",2,0,0
425508,"MH","Jalgaon",2,0,0
425508,"MH","Jalgaon",2,0,0
425103,"MH","Jalgaon",2,0,0
424204,"MH","Jalgaon",2,0,0
425107,"MH","Jalgaon",2,0,0
425306,"MH","Jalgaon",2,0,0
425327,"MH","Jalgaon",2,0,0
425504,"MH","Jalgaon",2,0,0
425203,"MH","Jalgaon",2,0,0
424204,"MH","Jalgaon",2,0,0
425304,"MH","Jalgaon",2,0,0
425524,"MH","Jalgaon",2,0,0
425508,"MH","Jalgaon",2,0,0
425114,"MH","Jalgaon",2,0,0
425305,"MH","Jalgaon",2,0,0
425306,"MH","Jalgaon",2,0,0
425107,"MH","Jalgaon",2,0,0
425107,"MH","Jalgaon",2,0,0
425508,"MH","Jalgaon",2,0,0
424206,"MH","Jalgaon",2,0,0
425305,"MH","Jalgaon",2,0,0
425309,"MH","Jalgaon",2,0,0
411026,"MH","Pune",101,0,2
411039,"MH","Pune",101,0,2
411037,"MH","Pune",101,0,2
411047,"MH","Pune",101,0,2
416235,"MH","Kolhapur",2,0,0
416010,"MH","Kolhapur",2,0,0
416502,"MH","Kolhapur",2,0,0
416232,"MH","Kolhapur",2,0,0
416216,"MH","Kolhapur",2,0,0
416208,"MH","Kolhapur",2,0,0
416503,"MH","Kolhapur",2,0,0
415605,"MH","Ratnagiri",2,0,0
416209,"MH","Kolhapur",2,0,0
416104,"MH","Kolhapur",2,0,0
416112,"MH","Kolhapur",2,0,0
415301,"MH","Sangli",25,0,0
415307,"MH","Sangli",25,0,0
415303,"MH","Sangli",25,0,0
416312,"MH","Sangli",25,0,0
415315,"MH","Sangli",25,0,0
415309,"MH","Sangli",25,0,0
416312,"MH","Sangli",25,0,0
415311,"MH","Sangli",25,0,0
415308,"MH","Sangli",25,0,0
416405,"MH","Sangli",25,0,0
416412,"MH","Sangli",25,0,0
415415,"MH","Sangli",25,0,0
416416,"MH","Sangli",25,0,0
416412,"MH","Sangli",25,0,0
415408,"MH","Sangli",25,0,0
415309,"MH","Sangli",25,0,0
415409,"MH","Sangli",25,0,0
415307,"MH","Sangli",25,0,0
416402,"MH","Sangli",25,0,0
416415,"MH","Sangli",25,0,0
416420,"MH","Sangli",25,0,0
416312,"MH","Sangli",25,0,0
415407,"MH","Sangli",25,0,0
415311,"MH","Sangli",25,0,0
415408,"MH","Sangli",25,0,0
416301,"MH","Sangli",25,0,0
416311,"MH","Sangli",25,0,0
415311,"MH","Sangli",25,0,0
415305,"MH","Sangli",25,0,0
416404,"MH","Sangli",25,0,0
415311,"MH","Sangli",25,0,0
415306,"MH","Sangli",25,0,0
415401,"MH","Sangli",25,0,0
416314,"MH","Sangli",25,0,0
416419,"MH","Sangli",25,0,0
415306,"MH","Sangli",25,0,0
415308,"MH","Sangli",25,0,0
415306,"MH","Sangli",25,0,0
416309,"MH","Sangli",25,0,0
416419,"MH","Sangli",25,0,0
416404,"MH","Sangli",25,0,0
416209,"MH","Kolhapur",2,0,0
416216,"MH","Kolhapur",2,0,0
416506,"MH","Kolhapur",2,0,0
416116,"MH","Kolhapur",2,0,0
416209,"MH","Kolhapur",2,0,0
416203,"MH","Kolhapur",2,0,0
416501,"MH","Kolhapur",2,0,0
416232,"MH","Kolhapur",2,0,0
415411,"MH","Sangli",25,0,0
416301,"MH","Sangli",25,0,0
416414,"MH","Sangli",25,0,0
416416,"MH","Sangli",25,0,0
445301,"MH","Yavatmal",4,0,0
445202,"MH","Yavatmal",4,0,0
445202,"MH","Yavatmal",4,0,0
416230,"MH","Kolhapur",2,0,0
416213,"MH","Kolhapur",2,0,0
416112,"MH","Kolhapur",2,0,0
416106,"MH","Kolhapur",2,0,0
416230,"MH","Kolhapur",2,0,0
416212,"MH","Kolhapur",2,0,0
416215,"MH","Kolhapur",2,0,0
416506,"MH","Kolhapur",2,0,0
416235,"MH","Kolhapur",2,0,0
416115,"MH","Kolhapur",2,0,0
416220,"MH","Kolhapur",2,0,0
416214,"MH","Kolhapur",2,0,0
416210,"MH","Kolhapur",2,0,0
416110,"MH","Kolhapur",2,0,0
416205,"MH","Kolhapur",2,0,0
416230,"MH","Kolhapur",2,0,0
416002,"MH","Kolhapur",2,0,0
416118,"MH","Kolhapur",2,0,0
416229,"MH","Kolhapur",2,0,0
416104,"MH","Kolhapur",2,0,0
416013,"MH","Kolhapur",2,0,0
416103,"MH","Kolhapur",2,0,0
416005,"MH","Kolhapur",2,0,0
416213,"MH","Kolhapur",2,0,0
425114,"MH","Jalgaon",2,0,0
425507,"MH","Jalgaon",2,0,0
425310,"MH","Jalgaon",2,0,0
425508,"MH","Jalgaon",2,0,0
425507,"MH","Jalgaon",2,0,0
425108,"MH","Jalgaon",2,0,0
425508,"MH","Jalgaon",2,0,0
424204,"MH","Jalgaon",2,0,0
424208,"MH","Jalgaon",2,0,0
425107,"MH","Jalgaon",2,0,0
425107,"MH","Jalgaon",2,0,0
425107,"MH","Jalgaon",2,0,0
423101,"MH","Jalgaon",2,0,0
424206,"MH","Jalgaon",2,0,0
425108,"MH","Jalgaon",2,0,0
425114,"MH","Jalgaon",2,0,0
423502,"MH","Jalgaon",2,0,0
425306,"MH","Jalgaon",2,0,0
425327,"MH","Jalgaon",2,0,0
424208,"MH","Jalgaon",2,0,0
425311,"MH","Jalgaon",2,0,0
425302,"MH","Jalgaon",2,0,0
425501,"MH","Jalgaon",2,0,0
425301,"MH","Jalgaon",2,0,0
416508,"MH","Kolhapur",2,0,0
411003,"MH","Pune",101,0,2
416213,"MH","Kolhapur",2,0,0
416235,"MH","Kolhapur",2,0,0
445101,"MH","Yavatmal",4,0,0
416235,"MH","Kolhapur",2,0,0
416138,"MH","Kolhapur",2,0,0
416506,"MH","Kolhapur",2,0,0
416206,"MH","Kolhapur",2,0,0
416210,"MH","Kolhapur",2,0,0
416219,"MH","Kolhapur",2,0,0
416219,"MH","Kolhapur",2,0,0
416146,"MH","Kolhapur",2,0,0
416114,"MH","Kolhapur",2,0,0
416122,"MH","Kolhapur",2,0,0
416121,"MH","Kolhapur",2,0,0
416221,"MH","Kolhapur",2,0,0
416212,"MH","Kolhapur",2,0,0
416206,"MH","Kolhapur",2,0,0
416106,"MH","Kolhapur",2,0,0
416234,"MH","Kolhapur",2,0,0
416503,"MH","Kolhapur",2,0,0
416201,"MH","Kolhapur",2,0,0
416236,"MH","Kolhapur",2,0,0
416205,"MH","Kolhapur",2,0,0
416209,"MH","Kolhapur",2,0,0
416220,"MH","Kolhapur",2,0,0
416205,"MH","Kolhapur",2,0,0
416205,"MH","Kolhapur",2,0,0
415304,"MH","Sangli",25,0,0
416414,"MH","Sangli",25,0,0
416403,"MH","Sangli",25,0,0
415311,"MH","Sangli",25,0,0
415308,"MH","Sangli",25,0,0
415303,"MH","Sangli",25,0,0
415408,"MH","Sangli",25,0,0
415309,"MH","Sangli",25,0,0
415304,"MH","Sangli",25,0,0
415410,"MH","Sangli",25,0,0
416414,"MH","Sangli",25,0,0
415406,"MH","Sangli",25,0,0
415405,"MH","Sangli",25,0,0
415403,"MH","Sangli",25,0,0
416312,"MH","Sangli",25,0,0
416306,"MH","Sangli",25,0,0
415313,"MH","Sangli",25,0,0
416301,"MH","Sangli",25,0,0
416312,"MH","Sangli",25,0,0
416405,"MH","Sangli",25,0,0
415401,"MH","Sangli",25,0,0
415408,"MH","Sangli",25,0,0
416410,"MH","Sangli",25,0,0
416402,"MH","Sangli",25,0,0
416414,"MH","Sangli",25,0,0
415311,"MH","Sangli",25,0,0
415412,"MH","Sangli",25,0,0
415302,"MH","Sangli",25,0,0
416415,"MH","Sangli",25,0,0
416314,"MH","Sangli",25,0,0
415310,"MH","Sangli",25,0,0
416303,"MH","Sangli",25,0,0
415305,"MH","Sangli",25,0,0
415408,"MH","Sangli",25,0,0
415414,"MH","Sangli",25,0,0
415311,"MH","Sangli",25,0,0
416417,"MH","Sangli",25,0,0
415408,"MH","Sangli",25,0,0
416413,"MH","Sangli",25,0,0
415310,"MH","Sangli",25,0,0
415311,"MH","Sangli",25,0,0
415411,"MH","Sangli",25,0,0
415407,"MH","Sangli",25,0,0
416412,"MH","Sangli",25,0,0
416407,"MH","Sangli",25,0,0
416312,"MH","Sangli",25,0,0
416404,"MH","Sangli",25,0,0
416436,"MH","Sangli",25,0,0
415405,"MH","Sangli",25,0,0
416311,"MH","Sangli",25,0,0
416404,"MH","Sangli",25,0,0
415305,"MH","Sangli",25,0,0
416304,"MH","Sangli",25,0,0
416308,"MH","Sangli",25,0,0
415405,"MH","Sangli",25,0,0
416302,"MH","Sangli",25,0,0
416404,"MH","Sangli",25,0,0
416415,"MH","Sangli",25,0,0
416413,"MH","Sangli",25,0,0
416308,"MH","Sangli",25,0,0
415303,"MH","Sangli",25,0,0
416309,"MH","Sangli",25,0,0
415408,"MH","Sangli",25,0,0
415411,"MH","Sangli",25,0,0
416404,"MH","Sangli",25,0,0
416436,"MH","Sangli",25,0,0
416404,"MH","Sangli",25,0,0
416311,"MH","Sangli",25,0,0
416414,"MH","Sangli",25,0,0
415311,"MH","Sangli",25,0,0
416405,"MH","Sangli",25,0,0
415409,"MH","Sangli",25,0,0
416409,"MH","Sangli",25,0,0
415309,"MH","Sangli",25,0,0
416405,"MH","Sangli",25,0,0
416303,"MH","Sangli",25,0,0
416302,"MH","Sangli",25,0,0
416420,"MH","Sangli",25,0,0
416414,"MH","Sangli",25,0,0
415403,"MH","Sangli",25,0,0
416406,"MH","Sangli",25,0,0
416404,"MH","Sangli",25,0,0
416410,"MH","Sangli",25,0,0
416419,"MH","Sangli",25,0,0
416414,"MH","Sangli",25,0,0
416315,"MH","Sangli",25,0,0
415410,"MH","Sangli",25,0,0
415404,"MH","Sangli",25,0,0
415402,"MH","Sangli",25,0,0
416403,"MH","Sangli",25,0,0
416411,"MH","Sangli",25,0,0
415311,"MH","Sangli",25,0,0
416408,"MH","Sangli",25,0,0
416416,"MH","Sangli",25,0,0
415409,"MH","Sangli",25,0,0
416405,"MH","Sangli",25,0,0
416301,"MH","Sangli",25,0,0
416410,"MH","Sangli",25,0,0
416301,"MH","Sangli",25,0,0
415311,"MH","Sangli",25,0,0
415307,"MH","Sangli",25,0,0
416415,"MH","Sangli",25,0,0
416311,"MH","Sangli",25,0,0
416404,"MH","Sangli",25,0,0
416404,"MH","Sangli",25,0,0
416415,"MH","Sangli",25,0,0
416411,"MH","Sangli",25,0,0
415311,"MH","Sangli",25,0,0
416405,"MH","Sangli",25,0,0
416419,"MH","Sangli",25,0,0
415407,"MH","Sangli",25,0,0
415302,"MH","Sangli",25,0,0
415401,"MH","Sangli",25,0,0
416404,"MH","Sangli",25,0,0
415301,"MH","Sangli",25,0,0
416416,"MH","Sangli",25,0,0
416405,"MH","Sangli",25,0,0
415311,"MH","Sangli",25,0,0
416415,"MH","Sangli",25,0,0
415310,"MH","Sangli",25,0,0
416312,"MH","Sangli",25,0,0
415311,"MH","Sangli",25,0,0
415408,"MH","Sangli",25,0,0
416415,"MH","Sangli",25,0,0
415301,"MH","Sangli",25,0,0
416416,"MH","Sangli",25,0,0
416412,"MH","Sangli",25,0,0
416415,"MH","Sangli",25,0,0
415408,"MH","Sangli",25,0,0
416310,"MH","Sangli",25,0,0
415305,"MH","Sangli",25,0,0
415410,"MH","Sangli",25,0,0
416310,"MH","Sangli",25,0,0
416308,"MH","Sangli",25,0,0
416414,"MH","Sangli",25,0,0
416415,"MH","Sangli",25,0,0
415306,"MH","Sangli",25,0,0
415408,"MH","Sangli",25,0,0
416312,"MH","Sangli",25,0,0
416301,"MH","Sangli",25,0,0
415409,"MH","Sangli",25,0,0
416414,"MH","Sangli",25,0,0
416404,"MH","Sangli",25,0,0
416312,"MH","Sangli",25,0,0
415303,"MH","Sangli",25,0,0
416308,"MH","Sangli",25,0,0
416316,"MH","Sangli",25,0,0
416302,"MH","Sangli",25,0,0
416408,"MH","Sangli",25,0,0
415305,"MH","Sangli",25,0,0
416415,"MH","Sangli",25,0,0
415311,"MH","Sangli",25,0,0
415310,"MH","Sangli",25,0,0
416404,"MH","Sangli",25,0,0
416414,"MH","Sangli",25,0,0
416401,"MH","Sangli",25,0,0
416306,"MH","Sangli",25,0,0
415408,"MH","Sangli",25,0,0
416412,"MH","Sangli",25,0,0
415301,"MH","Sangli",25,0,0
416304,"MH","Sangli",25,0,0
415408,"MH","Sangli",25,0,0
416312,"MH","Sangli",25,0,0
416414,"MH","Sangli",25,0,0
415408,"MH","Sangli",25,0,0
416413,"MH","Sangli",25,0,0
415313,"MH","Sangli",25,0,0
415408,"MH","Sangli",25,0,0
415405,"MH","Sangli",25,0,0
416311,"MH","Sangli",25,0,0
416408,"MH","Sangli",25,0,0
416410,"MH","Sangli",25,0,0
416410,"MH","Sangli",25,0,0
416312,"MH","Sangli",25,0,0
415302,"MH","Sangli",25,0,0
415405,"MH","Sangli",25,0,0
415405,"MH","Sangli",25,0,0
415412,"MH","Sangli",25,0,0
415409,"MH","Sangli",25,0,0
416306,"MH","Sangli",25,0,0
416416,"MH","Sangli",25,0,0
416408,"MH","Sangli",25,0,0
416414,"MH","Sangli",25,0,0
416306,"MH","Sangli",25,0,0
415305,"MH","Sangli",25,0,0
416402,"MH","Sangli",25,0,0
415409,"MH","Sangli",25,0,0
415304,"MH","Sangli",25,0,0
415411,"MH","Sangli",25,0,0
415303,"MH","Sangli",25,0,0
415408,"MH","Sangli",25,0,0
416313,"MH","Sangli",25,0,0
415311,"MH","Sangli",25,0,0
416413,"MH","Sangli",25,0,0
416403,"MH","Sangli",25,0,0
415412,"MH","Sangli",25,0,0
415408,"MH","Sangli",25,0,0
416312,"MH","Sangli",25,0,0
415406,"MH","Sangli",25,0,0
416411,"MH","Sangli",25,0,0
416418,"MH","Sangli",25,0,0
416404,"MH","Sangli",25,0,0
416312,"MH","Sangli",25,0,0
416314,"MH","Sangli",25,0,0
416402,"MH","Sangli",25,0,0
415307,"MH","Sangli",25,0,0
415305,"MH","Sangli",25,0,0
416415,"MH","Sangli",25,0,0
415405,"MH","Sangli",25,0,0
416404,"MH","Sangli",25,0,0
416404,"MH","Sangli",25,0,0
416303,"MH","Sangli",25,0,0
416301,"MH","Sangli",25,0,0
416414,"MH","Sangli",25,0,0
416310,"MH","Sangli",25,0,0
415308,"MH","Sangli",25,0,0
415413,"MH","Sangli",25,0,0
415403,"MH","Sangli",25,0,0
416309,"MH","Sangli",25,0,0
416311,"MH","Sangli",25,0,0
416403,"MH","Sangli",25,0,0
416315,"MH","Sangli",25,0,0
415311,"MH","Sangli",25,0,0
415415,"MH","Sangli",25,0,0
415305,"MH","Sangli",25,0,0
416413,"MH","Sangli",25,0,0
416413,"MH","Sangli",25,0,0
416414,"MH","Sangli",25,0,0
416311,"MH","Sangli",25,0,0
415408,"MH","Sangli",25,0,0
416436,"MH","Sangli",25,0,0
415407,"MH","Sangli",25,0,0
416308,"MH","Sangli",25,0,0
416409,"MH","Sangli",25,0,0
416311,"MH","Sangli",25,0,0
416404,"MH","Sangli",25,0,0
416414,"MH","Sangli",25,0,0
416307,"MH","Sangli",25,0,0
415309,"MH","Sangli",25,0,0
416312,"MH","Sangli",25,0,0
415304,"MH","Sangli",25,0,0
416403,"MH","Sangli",25,0,0
415414,"MH","Sangli",25,0,0
415402,"MH","Sangli",25,0,0
416404,"MH","Sangli",25,0,0
416404,"MH","Sangli",25,0,0
416302,"MH","Sangli",25,0,0
416410,"MH","Sangli",25,0,0
415311,"MH","Sangli",25,0,0
415411,"MH","Sangli",25,0,0
415311,"MH","Sangli",25,0,0
416313,"MH","Sangli",25,0,0
416415,"MH","Sangli",25,0,0
416312,"MH","Sangli",25,0,0
416405,"MH","Sangli",25,0,0
415410,"MH","Sangli",25,0,0
415305,"MH","Sangli",25,0,0
415303,"MH","Sangli",25,0,0
416310,"MH","Sangli",25,0,0
415306,"MH","Sangli",25,0,0
415301,"MH","Sangli",25,0,0
416308,"MH","Sangli",25,0,0
416302,"MH","Sangli",25,0,0
416312,"MH","Sangli",25,0,0
416301,"MH","Sangli",25,0,0
416407,"MH","Sangli",25,0,0
415307,"MH","Sangli",25,0,0
416310,"MH","Sangli",25,0,0
416415,"MH","Sangli",25,0,0
416304,"MH","Sangli",25,0,0
416312,"MH","Sangli",25,0,0
415408,"MH","Sangli",25,0,0
416403,"MH","Sangli",25,0,0
416403,"MH","Sangli",25,0,0
415303,"MH","Sangli",25,0,0
416401,"MH","Sangli",25,0,0
416416,"MH","Sangli",25,0,0
416405,"MH","Sangli",25,0,0
415306,"MH","Sangli",25,0,0
416418,"MH","Sangli",25,0,0
416312,"MH","Sangli",25,0,0
445230,"MH","Yavatmal",4,0,0
445205,"MH","Yavatmal",4,0,0
445101,"MH","Yavatmal",4,0,0
445306,"MH","Yavatmal",4,0,0
416214,"MH","Kolhapur",2,0,0
416120,"MH","Kolhapur",2,0,0
416508,"MH","Kolhapur",2,0,0
445103,"MH","Yavatmal",4,0,0
445303,"MH","Yavatmal",4,0,0
445304,"MH","Yavatmal",4,0,0
445207,"MH","Yavatmal",4,0,0
445301,"MH","Yavatmal",4,0,0
445304,"MH","Yavatmal",4,0,0
445302,"MH","Yavatmal",4,0,0
445307,"MH","Yavatmal",4,0,0
445203,"MH","Yavatmal",4,0,0
445302,"MH","Yavatmal",4,0,0
445102,"MH","Yavatmal",4,0,0
445204,"MH","Yavatmal",4,0,0
445324,"MH","Yavatmal",4,0,0
445301,"MH","Yavatmal",4,0,0
445101,"MH","Yavatmal",4,0,0
445303,"MH","Yavatmal",4,0,0
445001,"MH","Yavatmal",4,0,0
445102,"MH","Yavatmal",4,0,0
445101,"MH","Yavatmal",4,0,0
445101,"MH","Yavatmal",4,0,0
445302,"MH","Yavatmal",4,0,0
445307,"MH","Yavatmal",4,0,0
445307,"MH","Yavatmal",4,0,0
416551,"MH","Kolhapur",2,0,0
416205,"MH","Kolhapur",2,0,0
416505,"MH","Kolhapur",2,0,0
416505,"MH","Kolhapur",2,0,0
416001,"MH","Kolhapur",2,0,0
416005,"MH","Kolhapur",2,0,0
416010,"MH","Kolhapur",2,0,0
416012,"MH","Kolhapur",2,0,0
416108,"MH","Kolhapur",2,0,0
416005,"MH","Kolhapur",2,0,0
416010,"MH","Kolhapur",2,0,0
416218,"MH","Kolhapur",2,0,0
416526,"MH","Kolhapur",2,0,0
416209,"MH","Kolhapur",2,0,0
416138,"MH","Kolhapur",2,0,0
416202,"MH","Kolhapur",2,0,0
416230,"MH","Kolhapur",2,0,0
416502,"MH","Kolhapur",2,0,0
416112,"MH","Kolhapur",2,0,0
416209,"MH","Kolhapur",2,0,0
416109,"MH","Kolhapur",2,0,0
416212,"MH","Kolhapur",2,0,0
416118,"MH","Kolhapur",2,0,0
416504,"MH","Kolhapur",2,0,0
416507,"MH","Kolhapur",2,0,0
416213,"MH","Kolhapur",2,0,0
445203,"MH","Yavatmal",4,0,0
445001,"MH","Yavatmal",4,0,0
445002,"MH","Yavatmal",4,0,0
425108,"MH","Jalgaon",2,0,0
445302,"MH","Yavatmal",4,0,0
445207,"MH","Yavatmal",4,0,0
445106,"MH","Yavatmal",4,0,0
445209,"MH","Yavatmal",4,0,0
445402,"MH","Yavatmal",4,0,0
445308,"MH","Yavatmal",4,0,0
445103,"MH","Yavatmal",4,0,0
445207,"MH","Yavatmal",4,0,0
445203,"MH","Yavatmal",4,0,0
445307,"MH","Yavatmal",4,0,0
445215,"MH","Yavatmal",4,0,0
445209,"MH","Yavatmal",4,0,0
445306,"MH","Yavatmal",4,0,0
445105,"MH","Yavatmal",4,0,0
445102,"MH","Yavatmal",4,0,0
445210,"MH","Yavatmal",4,0,0
445203,"MH","Yavatmal",4,0,0
445002,"MH","Yavatmal",4,0,0
445102,"MH","Yavatmal",4,0,0
445302,"MH","Yavatmal",4,0,0
445402,"MH","Yavatmal",4,0,0
445204,"MH","Yavatmal",4,0,0
445210,"MH","Yavatmal",4,0,0
445203,"MH","Yavatmal",4,0,0
445204,"MH","Yavatmal",4,0,0
445202,"MH","Yavatmal",4,0,0
445202,"MH","Yavatmal",4,0,0
445101,"MH","Yavatmal",4,0,0
445215,"MH","Yavatmal",4,0,0
445305,"MH","Yavatmal",4,0,0
445001,"MH","Yavatmal",4,0,0
445106,"MH","Yavatmal",4,0,0
445201,"MH","Yavatmal",4,0,0
416103,"MH","Kolhapur",2,0,0
416551,"MH","Kolhapur",2,0,0
416006,"MH","Kolhapur",2,0,0
416206,"MH","Kolhapur",2,0,0
416507,"MH","Kolhapur",2,0,0
416204,"MH","Kolhapur",2,0,0
416202,"MH","Kolhapur",2,0,0
416212,"MH","Kolhapur",2,0,0
416506,"MH","Kolhapur",2,0,0
416509,"MH","Kolhapur",2,0,0
416207,"MH","Kolhapur",2,0,0
416216,"MH","Kolhapur",2,0,0
416219,"MH","Kolhapur",2,0,0
416209,"MH","Kolhapur",2,0,0
416526,"MH","Kolhapur",2,0,0
416501,"MH","Kolhapur",2,0,0
416551,"MH","Kolhapur",2,0,0
416502,"MH","Kolhapur",2,0,0
416101,"MH","Kolhapur",2,0,0
416502,"MH","Kolhapur",2,0,0
416119,"MH","Kolhapur",2,0,0
416508,"MH","Kolhapur",2,0,0
416507,"MH","Kolhapur",2,0,0
416108,"MH","Kolhapur",2,0,0
416235,"MH","Kolhapur",2,0,0
416203,"MH","Kolhapur",2,0,0
416105,"MH","Kolhapur",2,0,0
416110,"MH","Kolhapur",2,0,0
416114,"MH","Kolhapur",2,0,0
416212,"MH","Kolhapur",2,0,0
416205,"MH","Kolhapur",2,0,0
416219,"MH","Kolhapur",2,0,0
415101,"MH","Kolhapur",2,0,0
416210,"MH","Kolhapur",2,0,0
416210,"MH","Kolhapur",2,0,0
416213,"MH","Kolhapur",2,0,0
416013,"MH","Kolhapur",2,0,0
416223,"MH","Kolhapur",2,0,0
416210,"MH","Kolhapur",2,0,0
416207,"MH","Kolhapur",2,0,0
416552,"MH","Kolhapur",2,0,0
416001,"MH","Kolhapur",2,0,0
416101,"MH","Kolhapur",2,0,0
416210,"MH","Kolhapur",2,0,0
416214,"MH","Kolhapur",2,0,0
416503,"MH","Kolhapur",2,0,0
416113,"MH","Kolhapur",2,0,0
416207,"MH","Kolhapur",2,0,0
416527,"MH","Kolhapur",2,0,0
416138,"MH","Kolhapur",2,0,0
416508,"MH","Kolhapur",2,0,0
416111,"MH","Kolhapur",2,0,0
416208,"MH","Kolhapur",2,0,0
416122,"MH","Kolhapur",2,0,0
416507,"MH","Kolhapur",2,0,0
416008,"MH","Kolhapur",2,0,0
416206,"MH","Kolhapur",2,0,0
416208,"MH","Kolhapur",2,0,0
416205,"MH","Kolhapur",2,0,0
416001,"MH","Kolhapur",2,0,0
416002,"MH","Kolhapur",2,0,0
416508,"MH","Kolhapur",2,0,0
416232,"MH","Kolhapur",2,0,0
416215,"MH","Kolhapur",2,0,0
416509,"MH","Kolhapur",2,0,0
416119,"MH","Kolhapur",2,0,0
416502,"MH","Kolhapur",2,0,0
416210,"MH","Kolhapur",2,0,0
416218,"MH","Kolhapur",2,0,0
416218,"MH","Kolhapur",2,0,0
416213,"MH","Kolhapur",2,0,0
416112,"MH","Kolhapur",2,0,0
416220,"MH","Kolhapur",2,0,0
416218,"MH","Kolhapur",2,0,0
416235,"MH","Kolhapur",2,0,0
415101,"MH","Kolhapur",2,0,0
415101,"MH","Kolhapur",2,0,0
416001,"MH","Kolhapur",2,0,0
416210,"MH","Kolhapur",2,0,0
416204,"MH","Kolhapur",2,0,0
416506,"MH","Kolhapur",2,0,0
416206,"MH","Kolhapur",2,0,0
415101,"MH","Kolhapur",2,0,0
416110,"MH","Kolhapur",2,0,0
416229,"MH","Kolhapur",2,0,0
416122,"MH","Kolhapur",2,0,0
416114,"MH","Kolhapur",2,0,0
416220,"MH","Kolhapur",2,0,0
416221,"MH","Kolhapur",2,0,0
416505,"MH","Kolhapur",2,0,0
416508,"MH","Kolhapur",2,0,0
416114,"MH","Kolhapur",2,0,0
416236,"MH","Kolhapur",2,0,0
416504,"MH","Kolhapur",2,0,0
416210,"MH","Kolhapur",2,0,0
416205,"MH","Kolhapur",2,0,0
416007,"MH","Kolhapur",2,0,0
416223,"MH","Kolhapur",2,0,0
416218,"MH","Kolhapur",2,0,0
416204,"MH","Kolhapur",2,0,0
416105,"MH","Kolhapur",2,0,0
416213,"MH","Kolhapur",2,0,0
416122,"MH","Kolhapur",2,0,0
416505,"MH","Kolhapur",2,0,0
416219,"MH","Kolhapur",2,0,0
416503,"MH","Kolhapur",2,0,0
416232,"MH","Kolhapur",2,0,0
416220,"MH","Kolhapur",2,0,0
416011,"MH","Kolhapur",2,0,0
416010,"MH","Kolhapur",2,0,0
416205,"MH","Kolhapur",2,0,0
416218,"MH","Kolhapur",2,0,0
416012,"MH","Kolhapur",2,0,0
416505,"MH","Kolhapur",2,0,0
416220,"MH","Kolhapur",2,0,0
416119,"MH","Kolhapur",2,0,0
416509,"MH","Kolhapur",2,0,0
416121,"MH","Kolhapur",2,0,0
416507,"MH","Kolhapur",2,0,0
416221,"MH","Kolhapur",2,0,0
416216,"MH","Kolhapur",2,0,0
416505,"MH","Kolhapur",2,0,0
416211,"MH","Kolhapur",2,0,0
416204,"MH","Kolhapur",2,0,0
416205,"MH","Kolhapur",2,0,0
416212,"MH","Kolhapur",2,0,0
416230,"MH","Kolhapur",2,0,0
416101,"MH","Kolhapur",2,0,0
416113,"MH","Kolhapur",2,0,0
416115,"MH","Kolhapur",2,0,0
416102,"MH","Kolhapur",2,0,0
416234,"MH","Kolhapur",2,0,0
416504,"MH","Kolhapur",2,0,0
416552,"MH","Kolhapur",2,0,0
416505,"MH","Kolhapur",2,0,0
416501,"MH","Kolhapur",2,0,0
416229,"MH","Kolhapur",2,0,0
416106,"MH","Kolhapur",2,0,0
416211,"MH","Kolhapur",2,0,0
416121,"MH","Kolhapur",2,0,0
416206,"MH","Kolhapur",2,0,0
416230,"MH","Kolhapur",2,0,0
416011,"MH","Kolhapur",2,0,0
416110,"MH","Kolhapur",2,0,0
416112,"MH","Kolhapur",2,0,0
416201,"MH","Kolhapur",2,0,0
416212,"MH","Kolhapur",2,0,0
416509,"MH","Kolhapur",2,0,0
416209,"MH","Kolhapur",2,0,0
416209,"MH","Kolhapur",2,0,0
416503,"MH","Kolhapur",2,0,0
416214,"MH","Kolhapur",2,0,0
416507,"MH","Kolhapur",2,0,0
416229,"MH","Kolhapur",2,0,0
416205,"MH","Kolhapur",2,0,0
416001,"MH","Kolhapur",2,0,0
416205,"MH","Kolhapur",2,0,0
416211,"MH","Kolhapur",2,0,0
416146,"MH","Kolhapur",2,0,0
416109,"MH","Kolhapur",2,0,0
416209,"MH","Kolhapur",2,0,0
416112,"MH","Kolhapur",2,0,0
415101,"MH","Kolhapur",2,0,0
416503,"MH","Kolhapur",2,0,0
416229,"MH","Kolhapur",2,0,0
416509,"MH","Kolhapur",2,0,0
416010,"MH","Kolhapur",2,0,0
416230,"MH","Kolhapur",2,0,0
416526,"MH","Kolhapur",2,0,0
416216,"MH","Kolhapur",2,0,0
416211,"MH","Kolhapur",2,0,0
416120,"MH","Kolhapur",2,0,0
416213,"MH","Kolhapur",2,0,0
416205,"MH","Kolhapur",2,0,0
416229,"MH","Kolhapur",2,0,0
416206,"MH","Kolhapur",2,0,0
416143,"MH","Kolhapur",2,0,0
416212,"MH","Kolhapur",2,0,0
416229,"MH","Kolhapur",2,0,0
415101,"MH","Kolhapur",2,0,0
416223,"MH","Kolhapur",2,0,0
416234,"MH","Kolhapur",2,0,0
416109,"MH","Kolhapur",2,0,0
416215,"MH","Kolhapur",2,0,0
416230,"MH","Kolhapur",2,0,0
416221,"MH","Kolhapur",2,0,0
416112,"MH","Kolhapur",2,0,0
416115,"MH","Kolhapur",2,0,0
416509,"MH","Kolhapur",2,0,0
416138,"MH","Kolhapur",2,0,0
416551,"MH","Kolhapur",2,0,0
416208,"MH","Kolhapur",2,0,0
416220,"MH","Kolhapur",2,0,0
416215,"MH","Kolhapur",2,0,0
416501,"MH","Kolhapur",2,0,0
416213,"MH","Kolhapur",2,0,0
416509,"MH","Kolhapur",2,0,0
416208,"MH","Kolhapur",2,0,0
416210,"MH","Kolhapur",2,0,0
416209,"MH","Kolhapur",2,0,0
416212,"MH","Kolhapur",2,0,0
416509,"MH","Kolhapur",2,0,0
416506,"MH","Kolhapur",2,0,0
416218,"MH","Kolhapur",2,0,0
416107,"MH","Kolhapur",2,0,0
416221,"MH","Kolhapur",2,0,0
416503,"MH","Kolhapur",2,0,0
416106,"MH","Kolhapur",2,0,0
416502,"MH","Kolhapur",2,0,0
416503,"MH","Kolhapur",2,0,0
445304,"MH","Yavatmal",4,0,0
416214,"MH","Kolhapur",2,0,0
416509,"MH","Kolhapur",2,0,0
415101,"MH","Kolhapur",2,0,0
416109,"MH","Kolhapur",2,0,0
416112,"MH","Kolhapur",2,0,0
416001,"MH","Kolhapur",2,0,0
416229,"MH","Kolhapur",2,0,0
416229,"MH","Kolhapur",2,0,0
416214,"MH","Kolhapur",2,0,0
416209,"MH","Kolhapur",2,0,0
416208,"MH","Kolhapur",2,0,0
416219,"MH","Kolhapur",2,0,0
416211,"MH","Kolhapur",2,0,0
416223,"MH","Kolhapur",2,0,0
416220,"MH","Kolhapur",2,0,0
416502,"MH","Kolhapur",2,0,0
416205,"MH","Kolhapur",2,0,0
416210,"MH","Kolhapur",2,0,0
415101,"MH","Kolhapur",2,0,0
416103,"MH","Kolhapur",2,0,0
416507,"MH","Kolhapur",2,0,0
415101,"MH","Kolhapur",2,0,0
416213,"MH","Kolhapur",2,0,0
416505,"MH","Kolhapur",2,0,0
416004,"MH","Kolhapur",2,0,0
416008,"MH","Kolhapur",2,0,0
416120,"MH","Kolhapur",2,0,0
416216,"MH","Kolhapur",2,0,0
415101,"MH","Kolhapur",2,0,0
416104,"MH","Kolhapur",2,0,0
416208,"MH","Kolhapur",2,0,0
416231,"MH","Kolhapur",2,0,0
416202,"MH","Kolhapur",2,0,0
416552,"MH","Kolhapur",2,0,0
416215,"MH","Kolhapur",2,0,0
416201,"MH","Kolhapur",2,0,0
416507,"MH","Kolhapur",2,0,0
416112,"MH","Kolhapur",2,0,0
416106,"MH","Kolhapur",2,0,0
416211,"MH","Kolhapur",2,0,0
416001,"MH","Kolhapur",2,0,0
416111,"MH","Kolhapur",2,0,0
416506,"MH","Kolhapur",2,0,0
416101,"MH","Kolhapur",2,0,0
416118,"MH","Kolhapur",2,0,0
416207,"MH","Kolhapur",2,0,0
416507,"MH","Kolhapur",2,0,0
416215,"MH","Kolhapur",2,0,0
416002,"MH","Kolhapur",2,0,0
416502,"MH","Kolhapur",2,0,0
416506,"MH","Kolhapur",2,0,0
416213,"MH","Kolhapur",2,0,0
416506,"MH","Kolhapur",2,0,0
416504,"MH","Kolhapur",2,0,0
416013,"MH","Kolhapur",2,0,0
416223,"MH","Kolhapur",2,0,0
416113,"MH","Kolhapur",2,0,0
416001,"MH","Kolhapur",2,0,0
416216,"MH","Kolhapur",2,0,0
416001,"MH","Kolhapur",2,0,0
416011,"MH","Kolhapur",2,0,0
416504,"MH","Kolhapur",2,0,0
416505,"MH","Kolhapur",2,0,0
416122,"MH","Kolhapur",2,0,0
416311,"MH","Sangli",25,0,0
415410,"MH","Sangli",25,0,0
416312,"MH","Sangli",25,0,0
416509,"MH","Kolhapur",2,0,0
416204,"MH","Kolhapur",2,0,0
416221,"MH","Kolhapur",2,0,0
416235,"MH","Kolhapur",2,0,0
416207,"MH","Kolhapur",2,0,0
416502,"MH","Kolhapur",2,0,0
416223,"MH","Kolhapur",2,0,0
416506,"MH","Kolhapur",2,0,0
416105,"MH","Kolhapur",2,0,0
416112,"MH","Kolhapur",2,0,0
416114,"MH","Kolhapur",2,0,0
416210,"MH","Kolhapur",2,0,0
416220,"MH","Kolhapur",2,0,0
416204,"MH","Kolhapur",2,0,0
416204,"MH","Kolhapur",2,0,0
416104,"MH","Kolhapur",2,0,0
416220,"MH","Kolhapur",2,0,0
416107,"MH","Kolhapur",2,0,0
416211,"MH","Kolhapur",2,0,0
416206,"MH","Kolhapur",2,0,0
415403,"MH","Sangli",25,0,0
416418,"MH","Sangli",25,0,0
416414,"MH","Sangli",25,0,0
445203,"MH","Yavatmal",4,0,0
445002,"MH","Yavatmal",4,0,0
445324,"MH","Yavatmal",4,0,0
445305,"MH","Yavatmal",4,0,0
445305,"MH","Yavatmal",4,0,0
445301,"MH","Yavatmal",4,0,0
445209,"MH","Yavatmal",4,0,0
445102,"MH","Yavatmal",4,0,0
445102,"MH","Yavatmal",4,0,0
445201,"MH","Yavatmal",4,0,0
445401,"MH","Yavatmal",4,0,0
445001,"MH","Yavatmal",4,0,0
445101,"MH","Yavatmal",4,0,0
445304,"MH","Yavatmal",4,0,0
445323,"MH","Yavatmal",4,0,0
445215,"MH","Yavatmal",4,0,0
445101,"MH","Yavatmal",4,0,0
445109,"MH","Yavatmal",4,0,0
445215,"MH","Yavatmal",4,0,0
445206,"MH","Yavatmal",4,0,0
445215,"MH","Yavatmal",4,0,0
445204,"MH","Yavatmal",4,0,0
445205,"MH","Yavatmal",4,0,0
445303,"MH","Yavatmal",4,0,0
445306,"MH","Yavatmal",4,0,0
445323,"MH","Yavatmal",4,0,0
425301,"MH","Jalgaon",2,0,0
425203,"MH","Jalgaon",2,0,0
425107,"MH","Jalgaon",2,0,0
416410,"MH","Sangli",25,0,0
425310,"MH","Jalgaon",2,0,0
425201,"MH","Jalgaon",2,0,0
424205,"MH","Jalgaon",2,0,0
425302,"MH","Jalgaon",2,0,0
424208,"MH","Jalgaon",2,0,0
424206,"MH","Jalgaon",2,0,0
425507,"MH","Jalgaon",2,0,0
425504,"MH","Jalgaon",2,0,0
425304,"MH","Jalgaon",2,0,0
425502,"MH","Jalgaon",2,0,0
425310,"MH","Jalgaon",2,0,0
425306,"MH","Jalgaon",2,0,0
425508,"MH","Jalgaon",2,0,0
425504,"MH","Jalgaon",2,0,0
425301,"MH","Jalgaon",2,0,0
425201,"MH","Jalgaon",2,0,0
424206,"MH","Jalgaon",2,0,0
424206,"MH","Jalgaon",2,0,0
425304,"MH","Jalgaon",2,0,0
425114,"MH","Jalgaon",2,0,0
425305,"MH","Jalgaon",2,0,0
425108,"MH","Jalgaon",2,0,0
425307,"MH","Jalgaon",2,0,0
425302,"MH","Jalgaon",2,0,0
425311,"MH","Jalgaon",2,0,0
425302,"MH","Jalgaon",2,0,0
425502,"MH","Jalgaon",2,0,0
425114,"MH","Jalgaon",2,0,0
425302,"MH","Jalgaon",2,0,0
425504,"MH","Jalgaon",2,0,0
425302,"MH","Jalgaon",2,0,0
425107,"MH","Jalgaon",2,0,0
425305,"MH","Jalgaon",2,0,0
424208,"MH","Jalgaon",2,0,0
425301,"MH","Jalgaon",2,0,0
424206,"MH","Jalgaon",2,0,0
425310,"MH","Jalgaon",2,0,0
425107,"MH","Jalgaon",2,0,0
425502,"MH","Jalgaon",2,0,0
425307,"MH","Jalgaon",2,0,0
425327,"MH","Jalgaon",2,0,0
425327,"MH","Jalgaon",2,0,0
424206,"MH","Jalgaon",2,0,0
425310,"MH","Jalgaon",2,0,0
425505,"MH","Jalgaon",2,0,0
425310,"MH","Jalgaon",2,0,0
425503,"MH","Jalgaon",2,0,0
425306,"MH","Jalgaon",2,0,0
425302,"MH","Jalgaon",2,0,0
425505,"MH","Jalgaon",2,0,0
425306,"MH","Jalgaon",2,0,0
425503,"MH","Jalgaon",2,0,0
425107,"MH","Jalgaon",2,0,0
424206,"MH","Jalgaon",2,0,0
425524,"MH","Jalgaon",2,0,0
425305,"MH","Jalgaon",2,0,0
425524,"MH","Jalgaon",2,0,0
425305,"MH","Jalgaon",2,0,0
425303,"MH","Jalgaon",2,0,0
424205,"MH","Jalgaon",2,0,0
425310,"MH","Jalgaon",2,0,0
425502,"MH","Jalgaon",2,0,0
425303,"MH","Jalgaon",2,0,0
425107,"MH","Jalgaon",2,0,0
425108,"MH","Jalgaon",2,0,0
440015,"MH","Nagpur",17,0,0
440025,"MH","Nagpur",17,0,0
440006,"MH","Nagpur",17,0,0
440012,"MH","Nagpur",17,0,0
440001,"MH","Nagpur",17,0,0
440022,"MH","Nagpur",17,0,0
440001,"MH","Nagpur",17,0,0
440024,"MH","Nagpur",17,0,0
440017,"MH","Nagpur",17,0,0
440010,"MH","Nagpur",17,0,0
440007,"MH","Nagpur",17,0,0
440001,"MH","Nagpur",17,0,0
440010,"MH","Nagpur",17,0,0
440019,"MH","Nagpur",17,0,0
440022,"MH","Nagpur",17,0,0
440012,"MH","Nagpur",17,0,0
440035,"MH","Nagpur",17,0,0
440005,"MH","Nagpur",17,0,0
440027,"MH","Nagpur",17,0,0
440003,"MH","Nagpur",17,0,0
440010,"MH","Nagpur",17,0,0
440030,"MH","Nagpur",17,0,0
440036,"MH","Nagpur",17,0,0
440012,"MH","Nagpur",17,0,0
440015,"MH","Nagpur",17,0,0
440001,"MH","Nagpur",17,0,0
440033,"MH","Nagpur",17,0,0
440024,"MH","Nagpur",17,0,0
440026,"MH","Nagpur",17,0,0
440037,"MH","Nagpur",17,0,0
440012,"MH","Nagpur",17,0,0
440010,"MH","Nagpur",17,0,0
440017,"MH","Nagpur",17,0,0
440022,"MH","Nagpur",17,0,0
440003,"MH","Nagpur",17,0,0
440018,"MH","Nagpur",17,0,0
440032,"MH","Nagpur",17,0,0
440014,"MH","Nagpur",17,0,0
440025,"MH","Nagpur",17,0,0
440001,"MH","Nagpur",17,0,0
440003,"MH","Nagpur",17,0,0
440014,"MH","Nagpur",17,0,0
440002,"MH","Nagpur",17,0,0
440034,"MH","Nagpur",17,0,0
440002,"MH","Nagpur",17,0,0
440013,"MH","Nagpur",17,0,0
440001,"MH","Nagpur",17,0,0
440010,"MH","Nagpur",17,0,0
440024,"MH","Nagpur",17,0,0
440024,"MH","Nagpur",17,0,0
440016,"MH","Nagpur",17,0,0
440018,"MH","Nagpur",17,0,0
440012,"MH","Nagpur",17,0,0
440027,"MH","Nagpur",17,0,0
440008,"MH","Nagpur",17,0,0
440024,"MH","Nagpur",17,0,0
440001,"MH","Nagpur",17,0,0
440018,"MH","Nagpur",17,0,0
440030,"MH","Nagpur",17,0,0
440015,"MH","Nagpur",17,0,0
440024,"MH","Nagpur",17,0,0
440012,"MH","Nagpur",17,0,0
440013,"MH","Nagpur",17,0,0
440020,"MH","Nagpur",17,0,0
440010,"MH","Nagpur",17,0,0
440022,"MH","Nagpur",17,0,0
445230,"MH","Yavatmal",4,0,0
445105,"MH","Yavatmal",4,0,0
445203,"MH","Yavatmal",4,0,0
445207,"MH","Yavatmal",4,0,0
445103,"MH","Yavatmal",4,0,0
445002,"MH","Yavatmal",4,0,0
445002,"MH","Yavatmal",4,0,0
445323,"MH","Yavatmal",4,0,0
445204,"MH","Yavatmal",4,0,0
424207,"MH","Jalgaon",2,0,0
425501,"MH","Jalgaon",2,0,0
424204,"MH","Jalgaon",2,0,0
422103,"MH","Nashik",1,0,0
445207,"MH","Yavatmal",4,0,0
445201,"MH","Yavatmal",4,0,0
424204,"MH","Jalgaon",2,0,0
445205,"MH","Yavatmal",4,0,0
445215,"MH","Yavatmal",4,0,0
445203,"MH","Yavatmal",4,0,0
445101,"MH","Yavatmal",4,0,0
445102,"MH","Yavatmal",4,0,0
445102,"MH","Yavatmal",4,0,0
445402,"MH","Yavatmal",4,0,0
445402,"MH","Yavatmal",4,0,0
445230,"MH","Yavatmal",4,0,0
445106,"MH","Yavatmal",4,0,0
445202,"MH","Yavatmal",4,0,0
445102,"MH","Yavatmal",4,0,0
445324,"MH","Yavatmal",4,0,0
445401,"MH","Yavatmal",4,0,0
445301,"MH","Yavatmal",4,0,0
445103,"MH","Yavatmal",4,0,0
445206,"MH","Yavatmal",4,0,0
445306,"MH","Yavatmal",4,0,0
445206,"MH","Yavatmal",4,0,0
445207,"MH","Yavatmal",4,0,0
445304,"MH","Yavatmal",4,0,0
445109,"MH","Yavatmal",4,0,0
445102,"MH","Yavatmal",4,0,0
445303,"MH","Yavatmal",4,0,0
445206,"MH","Yavatmal",4,0,0
445001,"MH","Yavatmal",4,0,0
445302,"MH","Yavatmal",4,0,0
445303,"MH","Yavatmal",4,0,0
445209,"MH","Yavatmal",4,0,0
425308,"MH","Jalgaon",2,0,0
425108,"MH","Jalgaon",2,0,0
411033,"MH","Pune",101,0,2
411012,"MH","Pune",101,0,2
411028,"MH","Pune",101,0,2
411001,"MH","Pune",101,0,2
411015,"MH","Pune",101,0,2
411044,"MH","Pune",101,0,2
411003,"MH","Pune",101,0,2
411001,"MH","Pune",101,0,2
411019,"MH","Pune",101,0,2
411047,"MH","Pune",101,0,2
411001,"MH","Pune",101,0,2
411012,"MH","Pune",101,0,2
411001,"MH","Pune",101,0,2
411037,"MH","Pune",101,0,2
411048,"MH","Pune",101,0,2
411048,"MH","Pune",101,0,2
411033,"MH","Pune",101,0,2
411017,"MH","Pune",101,0,2
411014,"MH","Pune",101,0,2
411017,"MH","Pune",101,0,2
411037,"MH","Pune",101,0,2
411040,"MH","Pune",101,0,2
411001,"MH","Pune",101,0,2
411060,"MH","Pune",101,0,2
411057,"MH","Pune",101,0,2
411006,"MH","Pune",101,0,2
411003,"MH","Pune",101,0,2
411028,"MH","Pune",101,0,2
411044,"MH","Pune",101,0,2
411027,"MH","Pune",101,0,2
411061,"MH","Pune",101,0,2
411003,"MH","Pune",101,0,2
411037,"MH","Pune",101,0,2
411001,"MH","Pune",101,0,2
411015,"MH","Pune",101,0,2
411032,"MH","Pune",101,0,2
411033,"MH","Pune",101,0,2
411017,"MH","Pune",101,0,2
411018,"MH","Pune",101,0,2
411014,"MH","Pune",101,0,2
411034,"MH","Pune",101,0,2
411022,"MH","Pune",101,0,2
411048,"MH","Pune",101,0,2
411018,"MH","Pune",101,0,2
411031,"MH","Pune",101,0,2
411014,"MH","Pune",101,0,2
411026,"MH","Pune",101,0,2
411028,"MH","Pune",101,0,2
411001,"MH","Pune",101,0,2
411001,"MH","Pune",101,0,2
411057,"MH","Pune",101,0,2
411014,"MH","Pune",101,0,2
411057,"MH","Pune",101,0,2
411033,"MH","Pune",101,0,2
411027,"MH","Pune",101,0,2
411033,"MH","Pune",101,0,2
411013,"MH","Pune",101,0,2
411032,"MH","Pune",101,0,2
411032,"MH","Pune",101,0,2
411035,"MH","Pune",101,0,2
411048,"MH","Pune",101,0,2
445304,"MH","Yavatmal",4,0,0
445110,"MH","Yavatmal",4,0,0
445202,"MH","Yavatmal",4,0,0
445002,"MH","Yavatmal",4,0,0
416312,"MH","Sangli",25,0,0
445105,"MH","Yavatmal",4,0,0
445323,"MH","Yavatmal",4,0,0
445204,"MH","Yavatmal",4,0,0
445302,"MH","Yavatmal",4,0,0
445302,"MH","Yavatmal",4,0,0
445109,"MH","Yavatmal",4,0,0
445301,"MH","Yavatmal",4,0,0
445103,"MH","Yavatmal",4,0,0
445303,"MH","Yavatmal",4,0,0
445211,"MH","Yavatmal",4,0,0
445301,"MH","Yavatmal",4,0,0
445215,"MH","Yavatmal",4,0,0
445305,"MH","Yavatmal",4,0,0
445402,"MH","Yavatmal",4,0,0
445205,"MH","Yavatmal",4,0,0
445206,"MH","Yavatmal",4,0,0
445201,"MH","Yavatmal",4,0,0
445101,"MH","Yavatmal",4,0,0
445001,"MH","Yavatmal",4,0,0
445202,"MH","Yavatmal",4,0,0
445001,"MH","Yavatmal",4,0,0
445002,"MH","Yavatmal",4,0,0
445302,"MH","Yavatmal",4,0,0
445002,"MH","Yavatmal",4,0,0
445302,"MH","Yavatmal",4,0,0
445002,"MH","Yavatmal",4,0,0
445206,"MH","Yavatmal",4,0,0
445308,"MH","Yavatmal",4,0,0
445201,"MH","Yavatmal",4,0,0
445110,"MH","Yavatmal",4,0,0
445303,"MH","Yavatmal",4,0,0
445002,"MH","Yavatmal",4,0,0
445102,"MH","Yavatmal",4,0,0
445216,"MH","Yavatmal",4,0,0
445205,"MH","Yavatmal",4,0,0
445402,"MH","Yavatmal",4,0,0
445302,"MH","Yavatmal",4,0,0
445304,"MH","Yavatmal",4,0,0
445323,"MH","Yavatmal",4,0,0
445215,"MH","Yavatmal",4,0,0
445101,"MH","Yavatmal",4,0,0
445206,"MH","Yavatmal",4,0,0
445305,"MH","Yavatmal",4,0,0
445002,"MH","Yavatmal",4,0,0
445211,"MH","Yavatmal",4,0,0
445304,"MH","Yavatmal",4,0,0
445202,"MH","Yavatmal",4,0,0
445215,"MH","Yavatmal",4,0,0
445230,"MH","Yavatmal",4,0,0
445402,"MH","Yavatmal",4,0,0
445304,"MH","Yavatmal",4,0,0
445204,"MH","Yavatmal",4,0,0
415415,"MH","Sangli",25,0,0
416403,"MH","Sangli",25,0,0
415305,"MH","Sangli",25,0,0
416313,"MH","Sangli",25,0,0
415412,"MH","Sangli",25,0,0
416404,"MH","Sangli",25,0,0
416413,"MH","Sangli",25,0,0
416405,"MH","Sangli",25,0,0
415408,"MH","Sangli",25,0,0
416404,"MH","Sangli",25,0,0
415407,"MH","Sangli",25,0,0
415415,"MH","Sangli",25,0,0
445215,"MH","Yavatmal",4,0,0
445305,"MH","Yavatmal",4,0,0
445215,"MH","Yavatmal",4,0,0
416419,"MH","Sangli",25,0,0
416412,"MH","Sangli",25,0,0
416401,"MH","Sangli",25,0,0
415315,"MH","Sangli",25,0,0
415415,"MH","Sangli",25,0,0
416436,"MH","Sangli",25,0,0
416402,"MH","Sangli",25,0,0
415307,"MH","Sangli",25,0,0
415304,"MH","Sangli",25,0,0
416314,"MH","Sangli",25,0,0
415412,"MH","Sangli",25,0,0
415408,"MH","Sangli",25,0,0
415308,"MH","Sangli",25,0,0
415303,"MH","Sangli",25,0,0
416413,"MH","Sangli",25,0,0
415413,"MH","Sangli",25,0,0
415311,"MH","Sangli",25,0,0
415304,"MH","Sangli",25,0,0
416412,"MH","Sangli",25,0,0
415309,"MH","Sangli",25,0,0
445302,"MH","Yavatmal",4,0,0
445110,"MH","Yavatmal",4,0,0
445205,"MH","Yavatmal",4,0,0
415311,"MH","Sangli",25,0,0
415401,"MH","Sangli",25,0,0
415404,"MH","Sangli",25,0,0
415405,"MH","Sangli",25,0,0
416405,"MH","Sangli",25,0,0
416403,"MH","Sangli",25,0,0
416413,"MH","Sangli",25,0,0
416415,"MH","Sangli",25,0,0
415305,"MH","Sangli",25,0,0
415302,"MH","Sangli",25,0,0
416305,"MH","Sangli",25,0,0
416302,"MH","Sangli",25,0,0
416312,"MH","Sangli",25,0,0
415311,"MH","Sangli",25,0,0
416407,"MH","Sangli",25,0,0
416405,"MH","Sangli",25,0,0
416402,"MH","Sangli",25,0,0
416308,"MH","Sangli",25,0,0
415411,"MH","Sangli",25,0,0
415305,"MH","Sangli",25,0,0
416311,"MH","Sangli",25,0,0
415407,"MH","Sangli",25,0,0
415305,"MH","Sangli",25,0,0
416405,"MH","Sangli",25,0,0
415311,"MH","Sangli",25,0,0
415301,"MH","Sangli",25,0,0
415310,"MH","Sangli",25,0,0
416405,"MH","Sangli",25,0,0
416411,"MH","Sangli",25,0,0
445002,"MH","Yavatmal",4,0,0
445103,"MH","Yavatmal",4,0,0
415409,"MH","Sangli",25,0,0
416416,"MH","Sangli",25,0,0
415308,"MH","Sangli",25,0,0
416310,"MH","Sangli",25,0,0
416403,"MH","Sangli",25,0,0
416419,"MH","Sangli",25,0,0
416412,"MH","Sangli",25,0,0
416412,"MH","Sangli",25,0,0
416401,"MH","Sangli",25,0,0
415310,"MH","Sangli",25,0,0
416314,"MH","Sangli",25,0,0
415401,"MH","Sangli",25,0,0
416404,"MH","Sangli",25,0,0
416312,"MH","Sangli",25,0,0
416403,"MH","Sangli",25,0,0
416414,"MH","Sangli",25,0,0
415408,"MH","Sangli",25,0,0
416413,"MH","Sangli",25,0,0
416420,"MH","Sangli",25,0,0
416303,"MH","Sangli",25,0,0
415315,"MH","Sangli",25,0,0
416413,"MH","Sangli",25,0,0
416305,"MH","Sangli",25,0,0
445308,"MH","Yavatmal",4,0,0
445202,"MH","Yavatmal",4,0,0
445301,"MH","Yavatmal",4,0,0
445204,"MH","Yavatmal",4,0,0
445303,"MH","Yavatmal",4,0,0
445203,"MH","Yavatmal",4,0,0
445204,"MH","Yavatmal",4,0,0
445203,"MH","Yavatmal",4,0,0
445304,"MH","Yavatmal",4,0,0
445002,"MH","Yavatmal",4,0,0
445102,"MH","Yavatmal",4,0,0
445101,"MH","Yavatmal",4,0,0
445204,"MH","Yavatmal",4,0,0
445204,"MH","Yavatmal",4,0,0
445101,"MH","Yavatmal",4,0,0
445402,"MH","Yavatmal",4,0,0
445210,"MH","Yavatmal",4,0,0
445105,"MH","Yavatmal",4,0,0
445301,"MH","Yavatmal",4,0,0
445308,"MH","Yavatmal",4,0,0
445105,"MH","Yavatmal",4,0,0
445202,"MH","Yavatmal",4,0,0
445110,"MH","Yavatmal",4,0,0
445305,"MH","Yavatmal",4,0,0
445203,"MH","Yavatmal",4,0,0
445304,"MH","Yavatmal",4,0,0
445201,"MH","Yavatmal",4,0,0
445304,"MH","Yavatmal",4,0,0
445302,"MH","Yavatmal",4,0,0
445103,"MH","Yavatmal",4,0,0
445304,"MH","Yavatmal",4,0,0
445103,"MH","Yavatmal",4,0,0
445304,"MH","Yavatmal",4,0,0
445323,"MH","Yavatmal",4,0,0
445304,"MH","Yavatmal",4,0,0
445402,"MH","Yavatmal",4,0,0
445305,"MH","Yavatmal",4,0,0
445204,"MH","Yavatmal",4,0,0
445306,"MH","Yavatmal",4,0,0
445101,"MH","Yavatmal",4,0,0
445304,"MH","Yavatmal",4,0,0
445103,"MH","Yavatmal",4,0,0
445304,"MH","Yavatmal",4,0,0
445102,"MH","Yavatmal",4,0,0
445304,"MH","Yavatmal",4,0,0
445302,"MH","Yavatmal",4,0,0
445110,"MH","Yavatmal",4,0,0
445002,"MH","Yavatmal",4,0,0
445308,"MH","Yavatmal",4,0,0
445304,"MH","Yavatmal",4,0,0
445106,"MH","Yavatmal",4,0,0
445301,"MH","Yavatmal",4,0,0
445206,"MH","Yavatmal",4,0,0
445303,"MH","Yavatmal",4,0,0
445001,"MH","Yavatmal",4,0,0
445303,"MH","Yavatmal",4,0,0
445306,"MH","Yavatmal",4,0,0
445205,"MH","Yavatmal",4,0,0
445105,"MH","Yavatmal",4,0,0
445201,"MH","Yavatmal",4,0,0
445002,"MH","Yavatmal",4,0,0
445001,"MH","Yavatmal",4,0,0
445102,"MH","Yavatmal",4,0,0
445210,"MH","Yavatmal",4,0,0
445109,"MH","Yavatmal",4,0,0
445301,"MH","Yavatmal",4,0,0
445109,"MH","Yavatmal",4,0,0
445204,"MH","Yavatmal",4,0,0
445303,"MH","Yavatmal",4,0,0
445203,"MH","Yavatmal",4,0,0
445205,"MH","Yavatmal",4,0,0
445215,"MH","Yavatmal",4,0,0
445303,"MH","Yavatmal",4,0,0
445001,"MH","Yavatmal",4,0,0
445103,"MH","Yavatmal",4,0,0
445324,"MH","Yavatmal",4,0,0
445001,"MH","Yavatmal",4,0,0
445106,"MH","Yavatmal",4,0,0
445305,"MH","Yavatmal",4,0,0
445207,"MH","Yavatmal",4,0,0
445215,"MH","Yavatmal",4,0,0
445306,"MH","Yavatmal",4,0,0
445402,"MH","Yavatmal",4,0,0
445401,"MH","Yavatmal",4,0,0
445305,"MH","Yavatmal",4,0,0
445303,"MH","Yavatmal",4,0,0
445105,"MH","Yavatmal",4,0,0
445001,"MH","Yavatmal",4,0,0
445304,"MH","Yavatmal",4,0,0
445204,"MH","Yavatmal",4,0,0
445215,"MH","Yavatmal",4,0,0
445202,"MH","Yavatmal",4,0,0
445215,"MH","Yavatmal",4,0,0
445110,"MH","Yavatmal",4,0,0
445110,"MH","Yavatmal",4,0,0
445002,"MH","Yavatmal",4,0,0
445302,"MH","Yavatmal",4,0,0
445103,"MH","Yavatmal",4,0,0
445204,"MH","Yavatmal",4,0,0
445215,"MH","Yavatmal",4,0,0
445304,"MH","Yavatmal",4,0,0
445301,"MH","Yavatmal",4,0,0
445002,"MH","Yavatmal",4,0,0
445215,"MH","Yavatmal",4,0,0
445215,"MH","Yavatmal",4,0,0
445202,"MH","Yavatmal",4,0,0
445210,"MH","Yavatmal",4,0,0
445204,"MH","Yavatmal",4,0,0
445204,"MH","Yavatmal",4,0,0
445230,"MH","Yavatmal",4,0,0
445323,"MH","Yavatmal",4,0,0
445002,"MH","Yavatmal",4,0,0
445204,"MH","Yavatmal",4,0,0
445304,"MH","Yavatmal",4,0,0
445303,"MH","Yavatmal",4,0,0
445301,"MH","Yavatmal",4,0,0
445203,"MH","Yavatmal",4,0,0
445401,"MH","Yavatmal",4,0,0
445204,"MH","Yavatmal",4,0,0
445206,"MH","Yavatmal",4,0,0
445302,"MH","Yavatmal",4,0,0
445215,"MH","Yavatmal",4,0,0
445109,"MH","Yavatmal",4,0,0
445101,"MH","Yavatmal",4,0,0
445201,"MH","Yavatmal",4,0,0
445101,"MH","Yavatmal",4,0,0
445105,"MH","Yavatmal",4,0,0
445303,"MH","Yavatmal",4,0,0
445002,"MH","Yavatmal",4,0,0
445215,"MH","Yavatmal",4,0,0
445308,"MH","Yavatmal",4,0,0
445304,"MH","Yavatmal",4,0,0
445002,"MH","Yavatmal",4,0,0
445211,"MH","Yavatmal",4,0,0
445102,"MH","Yavatmal",4,0,0
445102,"MH","Yavatmal",4,0,0
445101,"MH","Yavatmal",4,0,0
445304,"MH","Yavatmal",4,0,0
445323,"MH","Yavatmal",4,0,0
445106,"MH","Yavatmal",4,0,0
445109,"MH","Yavatmal",4,0,0
445101,"MH","Yavatmal",4,0,0
445306,"MH","Yavatmal",4,0,0
445303,"MH","Yavatmal",4,0,0
445323,"MH","Yavatmal",4,0,0
445110,"MH","Yavatmal",4,0,0
445301,"MH","Yavatmal",4,0,0
445307,"MH","Yavatmal",4,0,0
445206,"MH","Yavatmal",4,0,0
445102,"MH","Yavatmal",4,0,0
445401,"MH","Yavatmal",4,0,0
445201,"MH","Yavatmal",4,0,0
445206,"MH","Yavatmal",4,0,0
445304,"MH","Yavatmal",4,0,0
445001,"MH","Yavatmal",4,0,0
445205,"MH","Yavatmal",4,0,0
445402,"MH","Yavatmal",4,0,0
445204,"MH","Yavatmal",4,0,0
445303,"MH","Yavatmal",4,0,0
445202,"MH","Yavatmal",4,0,0
445101,"MH","Yavatmal",4,0,0
445302,"MH","Yavatmal",4,0,0
445304,"MH","Yavatmal",4,0,0
445002,"MH","Yavatmal",4,0,0
445202,"MH","Yavatmal",4,0,0
445201,"MH","Yavatmal",4,0,0
445204,"MH","Yavatmal",4,0,0
445105,"MH","Yavatmal",4,0,0
445203,"MH","Yavatmal",4,0,0
445401,"MH","Yavatmal",4,0,0
445215,"MH","Yavatmal",4,0,0
445204,"MH","Yavatmal",4,0,0
445203,"MH","Yavatmal",4,0,0
445002,"MH","Yavatmal",4,0,0
445102,"MH","Yavatmal",4,0,0
445002,"MH","Yavatmal",4,0,0
795146,"MN","Imphal West",1,0,0
795116,"MN","Imphal West",1,0,0
795003,"MN","Imphal West",1,0,0
795002,"MN","Imphal West",1,0,0
795146,"MN","Imphal West",1,0,0
795146,"MN","Imphal West",1,0,0
795113,"MN","Imphal West",1,0,0
795132,"MN","Imphal West",1,0,0
795009,"MN","Imphal West",1,0,0
795002,"MN","Imphal West",1,0,0
795116,"MN","Imphal West",1,0,0
795132,"MN","Imphal West",1,0,0
795140,"MN","Imphal West",1,0,0
795009,"MN","Imphal West",1,0,0
795146,"MN","Imphal West",1,0,0
795132,"MN","Imphal West",1,0,0
795009,"MN","Imphal West",1,0,0
795113,"MN","Imphal West",1,0,0
795132,"MN","Imphal West",1,0,0
795009,"MN","Imphal West",1,0,0
795113,"MN","Imphal West",1,0,0
795132,"MN","Imphal West",1,0,0
795113,"MN","Imphal West",1,0,0
795132,"MN","Imphal West",1,0,0
795115,"MN","Imphal West",1,0,0
795003,"MN","Imphal West",1,0,0
795113,"MN","Imphal West",1,0,0
795004,"MN","Imphal West",1,0,0
795004,"MN","Imphal West",1,0,0
795132,"MN","Imphal West",1,0,0
795116,"MN","Imphal West",1,0,0
795001,"MN","Imphal West",1,0,0
795116,"MN","Imphal West",1,0,0
795146,"MN","Imphal West",1,0,0
795116,"MN","Imphal West",1,0,0
795113,"MN","Imphal West",1,0,0
795002,"MN","Imphal West",1,0,0
795004,"MN","Imphal West",1,0,0
795113,"MN","Imphal West",1,0,0
795002,"MN","Imphal West",1,0,0
795004,"MN","Imphal West",1,0,0
795001,"MN","Imphal West",1,0,0
795004,"MN","Imphal West",1,0,0
795009,"MN","Imphal West",1,0,0
795113,"MN","Imphal West",1,0,0
795132,"MN","Imphal West",1,0,0
795113,"MN","Imphal West",1,0,0
795132,"MN","Imphal West",1,0,0
795115,"MN","Imphal West",1,0,0
795115,"MN","Imphal West",1,0,0
795136,"MN","Imphal West",1,0,0
795009,"MN","Imphal West",1,0,0
795136,"MN","Imphal West",1,0,0
795009,"MN","Imphal West",1,0,0
795146,"MN","Imphal West",1,0,0
795116,"MN","Imphal West",1,0,0
795002,"MN","Imphal West",1,0,0
795132,"MN","Imphal West",1,0,0
795146,"MN","Imphal West",1,0,0
795146,"MN","Imphal West",1,0,0
795004,"MN","Imphal West",1,0,0
795116,"MN","Imphal West",1,0,0
795113,"MN","Imphal West",1,0,0
795002,"MN","Imphal West",1,0,0
795146,"MN","Imphal West",1,0,0
795001,"MN","Imphal West",1,0,0
795136,"MN","Imphal West",1,0,0
795113,"MN","Imphal West",1,0,0
795132,"MN","Imphal West",1,0,0
795115,"MN","Imphal West",1,0,0
795113,"MN","Imphal West",1,0,0
795132,"MN","Imphal West",1,0,0
795146,"MN","Imphal West",1,0,0
795132,"MN","Imphal West",1,0,0
795136,"MN","Imphal West",1,0,0
795116,"MN","Imphal West",1,0,0
795004,"MN","Imphal West",1,0,0
795002,"MN","Imphal West",1,0,0
795003,"MN","Imphal West",1,0,0
795116,"MN","Imphal West",1,0,0
795116,"MN","Imphal West",1,0,0
795113,"MN","Imphal West",1,0,0
795002,"MN","Imphal West",1,0,0
795113,"MN","Imphal West",1,0,0
795132,"MN","Imphal West",1,0,0
795132,"MN","Imphal West",1,0,0
795004,"MN","Imphal West",1,0,0
795132,"MN","Imphal West",1,0,0
795132,"MN","Imphal West",1,0,0
795136,"MN","Imphal West",1,0,0
795115,"MN","Imphal West",1,0,0
795140,"MN","Imphal West",1,0,0
795115,"MN","Imphal West",1,0,0
795002,"MN","Imphal West",1,0,0
795116,"MN","Imphal West",1,0,0
795003,"MN","Imphal West",1,0,0
795146,"MN","Imphal West",1,0,0
795116,"MN","Imphal West",1,0,0
795146,"MN","Imphal West",1,0,0
795003,"MN","Imphal West",1,0,0
795132,"MN","Imphal West",1,0,0
795002,"MN","Imphal West",1,0,0
795115,"MN","Imphal West",1,0,0
795001,"MN","Imphal West",1,0,0
795146,"MN","Imphal West",1,0,0
795004,"MN","Imphal West",1,0,0
795146,"MN","Imphal West",1,0,0
795115,"MN","Imphal West",1,0,0
795001,"MN","Imphal West",1,0,0
795132,"MN","Imphal West",1,0,0
795132,"MN","Imphal West",1,0,0
795002,"MN","Imphal West",1,0,0
795113,"MN","Imphal West",1,0,0
795140,"MN","Imphal West",1,0,0
795146,"MN","Imphal West",1,0,0
795113,"MN","Imphal West",1,0,0
795132,"MN","Imphal West",1,0,0
795113,"MN","Imphal West",1,0,0
795146,"MN","Imphal West",1,0,0
795132,"MN","Imphal West",1,0,0
795132,"MN","Imphal West",1,0,0
795003,"MN","Imphal West",1,0,0
795136,"MN","Imphal West",1,0,0
795116,"MN","Imphal West",1,0,0
795113,"MN","Imphal West",1,0,0
795009,"MN","Imphal West",1,0,0
796005,"MZ","Aizawl",1,0,0
796017,"MZ","Aizawl",1,0,0
796015,"MZ","Aizawl",1,0,0
796015,"MZ","Aizawl",1,0,0
796261,"MZ","Aizawl",1,0,0
796261,"MZ","Aizawl",1,0,0
796036,"MZ","Aizawl",1,0,0
796005,"MZ","Aizawl",1,0,0
796111,"MZ","Aizawl",1,0,0
796111,"MZ","Aizawl",1,0,0
796007,"MZ","Aizawl",1,0,0
796190,"MZ","Aizawl",1,0,0
796009,"MZ","Aizawl",1,0,0
796009,"MZ","Aizawl",1,0,0
796014,"MZ","Aizawl",1,0,0
796012,"MZ","Aizawl",1,0,0
796014,"MZ","Aizawl",1,0,0
796190,"MZ","Aizawl",1,0,0
796007,"MZ","Aizawl",1,0,0
796004,"MZ","Aizawl",1,0,0
796015,"MZ","Aizawl",1,0,0
796017,"MZ","Aizawl",1,0,0
796111,"MZ","Aizawl",1,0,0
796005,"MZ","Aizawl",1,0,0
796005,"MZ","Aizawl",1,0,0
796230,"MZ","Aizawl",1,0,0
796012,"MZ","Aizawl",1,0,0
796261,"MZ","Aizawl",1,0,0
796009,"MZ","Aizawl",1,0,0
796017,"MZ","Aizawl",1,0,0
796005,"MZ","Aizawl",1,0,0
796261,"MZ","Aizawl",1,0,0
796111,"MZ","Aizawl",1,0,0
796184,"MZ","Aizawl",1,0,0
796001,"MZ","Aizawl",1,0,0
796470,"MZ","Aizawl",1,0,0
796421,"MZ","Aizawl",1,0,0
796001,"MZ","Aizawl",1,0,0
796410,"MZ","Aizawl",1,0,0
796017,"MZ","Aizawl",1,0,0
796008,"MZ","Aizawl",1,0,0
796111,"MZ","Aizawl",1,0,0
796005,"MZ","Aizawl",1,0,0
796261,"MZ","Aizawl",1,0,0
796111,"MZ","Aizawl",1,0,0
796261,"MZ","Aizawl",1,0,0
796111,"MZ","Aizawl",1,0,0
796005,"MZ","Aizawl",1,0,0
796161,"MZ","Aizawl",1,0,0
796190,"MZ","Aizawl",1,0,0
796261,"MZ","Aizawl",1,0,0
796111,"MZ","Aizawl",1,0,0
796005,"MZ","Aizawl",1,0,0
796005,"MZ","Aizawl",1,0,0
796190,"MZ","Aizawl",1,0,0
796261,"MZ","Aizawl",1,0,0
796190,"MZ","Aizawl",1,0,0
796005,"MZ","Aizawl",1,0,0
796161,"MZ","Aizawl",1,0,0
796471,"MZ","Aizawl",1,0,0
796261,"MZ","Aizawl",1,0,0
796007,"MZ","Aizawl",1,0,0
796421,"MZ","Aizawl",1,0,0
796111,"MZ","Aizawl",1,0,0
796190,"MZ","Aizawl",1,0,0
796015,"MZ","Aizawl",1,0,0
796261,"MZ","Aizawl",1,0,0
796261,"MZ","Aizawl",1,0,0
796470,"MZ","Aizawl",1,0,0
796017,"MZ","Aizawl",1,0,0
796111,"MZ","Aizawl",1,0,0
796410,"MZ","Aizawl",1,0,0
796005,"MZ","Aizawl",1,0,0
796111,"MZ","Aizawl",1,0,0
796161,"MZ","Aizawl",1,0,0
796014,"MZ","Aizawl",1,0,0
796161,"MZ","Aizawl",1,0,0
796005,"MZ","Aizawl",1,0,0
796190,"MZ","Aizawl",1,0,0
796009,"MZ","Aizawl",1,0,0
796261,"MZ","Aizawl",1,0,0
796161,"MZ","Aizawl",1,0,0
796017,"MZ","Aizawl",1,0,0
796111,"MZ","Aizawl",1,0,0
796005,"MZ","Aizawl",1,0,0
796005,"MZ","Aizawl",1,0,0
796017,"MZ","Aizawl",1,0,0
796470,"MZ","Aizawl",1,0,0
796190,"MZ","Aizawl",1,0,0
796009,"MZ","Aizawl",1,0,0
796190,"MZ","Aizawl",1,0,0
796261,"MZ","Aizawl",1,0,0
796161,"MZ","Aizawl",1,0,0
796261,"MZ","Aizawl",1,0,0
796005,"MZ","Aizawl",1,0,0
796009,"MZ","Aizawl",1,0,0
796111,"MZ","Aizawl",1,0,0
796007,"MZ","Aizawl",1,0,0
796190,"MZ","Aizawl",1,0,0
796009,"MZ","Aizawl",1,0,0
796009,"MZ","Aizawl",1,0,0
796190,"MZ","Aizawl",1,0,0
796161,"MZ","Aizawl",1,0,0
796111,"MZ","Aizawl",1,0,0
796017,"MZ","Aizawl",1,0,0
796015,"MZ","Aizawl",1,0,0
796091,"MZ","Aizawl",1,0,0
796261,"MZ","Aizawl",1,0,0
796261,"MZ","Aizawl",1,0,0
796161,"MZ","Aizawl",1,0,0
796161,"MZ","Aizawl",1,0,0
796261,"MZ","Aizawl",1,0,0
796261,"MZ","Aizawl",1,0,0
796161,"MZ","Aizawl",1,0,0
796005,"MZ","Aizawl",1,0,0
796005,"MZ","Aizawl",1,0,0
796190,"MZ","Aizawl",1,0,0
796017,"MZ","Aizawl",1,0,0
796261,"MZ","Aizawl",1,0,0
796007,"MZ","Aizawl",1,0,0
796111,"MZ","Aizawl",1,0,0
796005,"MZ","Aizawl",1,0,0
796017,"MZ","Aizawl",1,0,0
796261,"MZ","Aizawl",1,0,0
796007,"MZ","Aizawl",1,0,0
796261,"MZ","Aizawl",1,0,0
796261,"MZ","Aizawl",1,0,0
796007,"MZ","Aizawl",1,0,0
754297,"OR","Cuttack",1,0,0
754034,"OR","Cuttack",1,0,0
302015,"RJ","Jaipur",91,0,3
610005,"TN","Nagapattinam",11,0,0
637101,"TN","Salem",12,0,0
637415,"TN","Salem",12,0,0
610005,"TN","Nagapattinam",11,0,0
631004,"TN","Vellore",6,0,0
637303,"TN","Namakkal",25,0,0
637107,"TN","Salem",12,0,0
610005,"TN","Nagapattinam",11,0,0
637017,"TN","Namakkal",25,0,0
600002,"TN","Chennai",97,0,1
627808,"TN","Tirunelveli",38,0,0
637304,"TN","Namakkal",25,0,0
501102,"TS","Vikarabad",2,0,0
501102,"TS","Vikarabad",2,0,0
500103,"TS","Hyderabad",86,0,1
501102,"TS","Vikarabad",2,0,0
501102,"TS","Vikarabad",2,0,0
500112,"TS","Ranga Reddy",3,0,0
501102,"TS","Vikarabad",2,0,0
500110,"TS","Hyderabad",86,0,1
501102,"TS","Vikarabad",2,0,0
501102,"TS","Vikarabad",2,0,0
501102,"TS","Vikarabad",2,0,0
501102,"TS","Vikarabad",2,0,0
501102,"TS","Vikarabad",2,0,0
501102,"TS","Vikarabad",2,0,0
501102,"TS","Vikarabad",2,0,0
501102,"TS","Vikarabad",2,0,0
501102,"TS","Vikarabad",2,0,0
501102,"TS","Vikarabad",2,0,0
501102,"TS","Vikarabad",2,0,0
501102,"TS","Ranga Reddy",3,0,0
500115,"TS","Ranga Reddy",3,0,0
501102,"TS","Vikarabad",2,0,0
509360,"TS","Ranga Reddy",3,0,0
500090,"TS","Ranga Reddy",3,0,0
501102,"TS","Vikarabad",2,0,0
500112,"TS","Ranga Reddy",3,0,0
501102,"TS","Vikarabad",2,0,0
500090,"TS","Ranga Reddy",3,0,0
501102,"TS","Vikarabad",2,0,0
242123,"UP","Pilibhit",2,0,0
242405,"UP","Shahjahanpur",1,0,0
226202,"UP","Lucknow",17,0,0
232108,"UP","Varanasi",6,1,0
242123,"UP","Shahjahanpur",1,0,0
242405,"UP","Shahjahanpur",1,0,0
262122,"UP","Pilibhit",2,0,0
262122,"UP","Pilibhit",2,0,0
273303,"UP","Maharajganj",6,0,0
734301,"WB","Kalimpong",0,1,0
700088,"WB","Kolkata",8,1,2
734314,"WB","Kalimpong",0,1,0
700163,"WB","North 24 Parganas",3,0,1
700023,"WB","Kolkata",8,1,2
700027,"WB","Kolkata",8,1,2
